region,district,site_name,latitude,longitude
Lower Shabelle,Afgooye,Awgeedi,2.077301,45.217151
Lower Shabelle,Afgooye,Ayaanle,2.078344,45.217859
Lower Shabelle,Afgooye,Badqawe,2.077485,45.217162
Lower Shabelle,Afgooye,Beesaani,2.08656,45.201601
Lower Shabelle,Afgooye,Beylood,2.08656,45.201601
Lower Shabelle,Afgooye,Biyooley,2.078576,45.217515
Lower Shabelle,Afgooye,Buundo 3,2.1115636,45.1542478
Lower Shabelle,Afgooye,Caadii,2.08656,45.201601
Lower Shabelle,Afgooye,Ceeryaamo,2.08656,45.201601
Lower Shabelle,Afgooye,Dhag Wariiri,2.085258,45.201622
Lower Shabelle,Afgooye,Dheen,2.0910031,45.1773966
Lower Shabelle,Afgooye,Dhuumodle,2.08656,45.201601
Lower Shabelle,Afgooye,Doxa 2,2.08656,45.201601
Lower Shabelle,Afgooye,Eylo 1,2.153933,45.1194211
Lower Shabelle,Afgooye,Fariid,2.07724,45.217649
Lower Shabelle,Afgooye,Fulay Ley,2.077772,45.217341
Lower Shabelle,Afgooye,Golweyn Ceelisha,2.1422004,45.1180241
Lower Shabelle,Afgooye,Gosha Iyo Gindiga,2.134907,45.124462
Lower Shabelle,Afgooye,Intifaac,2.077257,45.216987
Lower Shabelle,Afgooye,Janaale (Afgoye),2.1524966,45.1191208
Lower Shabelle,Afgooye,Jeebeey,2.084654,45.201594
Lower Shabelle,Afgooye,Jiidane,2.08656,45.201601
Lower Shabelle,Afgooye,Kuusow,2.111546,45.1546286
Lower Shabelle,Afgooye,Qalbi Saliin,2.1002757,45.1646691
Lower Shabelle,Afgooye,Qodqodow,2.1146966,45.156363
Lower Shabelle,Afgooye,Qoraar,2.08656,45.201601
Lower Shabelle,Afgooye,Xafiid,2.078461,45.217158
Lower Juba,Afmadow,Abaq,0.5230426,42.0933431
Lower Juba,Afmadow,Airport,0.5232205,42.0939816
Lower Juba,Afmadow,Awaqbanboow,0.5221767,42.0809949
Lower Juba,Afmadow,Bari,0.5217936,42.0970416
Lower Juba,Afmadow,Bilisaa,0.525011,42.0901016
Lower Juba,Afmadow,Buale,0.5216826,42.0939159
Lower Juba,Afmadow,Bulada Dirisamaha,0.5306099,42.0865285
Lower Juba,Afmadow,Cameroon,0.5245433,42.0801947
Lower Juba,Afmadow,Danwadaag,0.3942636,41.0042598
Lower Juba,Afmadow,Garasgacanlow,0.510045,42.0598184
Lower Juba,Afmadow,Hagar,0.3968295,41.0114454
Lower Juba,Afmadow,Hawina,0.3893101,41.0131483
Lower Juba,Afmadow,Hiraan,0.5209413,42.0943621
Lower Juba,Afmadow,Hodan,0.4182698,40.9977643
Lower Juba,Afmadow,Kaxda Nabada,0.5208317,42.0798513
Lower Juba,Afmadow,Othogoye,0.5148424,42.0813818
Lower Juba,Afmadow,Sakow,0.52106,42.0918133
Lower Juba,Afmadow,Soya,0.5212899,42.0930393
Lower Juba,Afmadow,Yaaq,0.5246416,42.0872319
Gedo,Baardheere,Al Aamin,2.3581973,42.2693767
Gedo,Baardheere,Albaraka,2.3525195,42.3017714
Gedo,Baardheere,Baaleey,2.3259863,42.2948503
Gedo,Baardheere,Badbaado,2.3543265,42.2777009
Gedo,Baardheere,Bakal,2.3516783,42.2663783
Gedo,Baardheere,Bandar,2.3125926,42.2767047
Gedo,Baardheere,Barkulan,2.3442776,42.2816923
Gedo,Baardheere,Barwaaqo,2.3210245,42.2738565
Gedo,Baardheere,Bulo Geedi,2.319774,42.2770659
Gedo,Baardheere,Bulsho,2.34451,42.3041033
Gedo,Baardheere,Camp Biroole,2.3696983,42.278
Gedo,Baardheere,Daarusalam,2.3492014,42.2649393
Gedo,Baardheere,Danleey,2.3252671,42.2776979
Gedo,Baardheere,Danyar,2.3088589,42.282548
Gedo,Baardheere,Dulmidiid,2.3361899,42.2997368
Gedo,Baardheere,Fulayley,2.3251131,42.2907953
Gedo,Baardheere,Gadude,2.3470076,42.3004774
Gedo,Baardheere,Garasley,2.3282731,42.2931663
Gedo,Baardheere,Gargaar,2.3505446,42.2959025
Gedo,Baardheere,Guled,2.321598,42.2886657
Gedo,Baardheere,Guul wade,2.3453549,42.2664384
Gedo,Baardheere,Habaal Adey,2.3318979,42.2999799
Gedo,Baardheere,Hayan,2.3292266,42.2942612
Gedo,Baardheere,Hilaac,2.3461562,42.2968892
Gedo,Baardheere,Hogol,2.3330237,42.2936441
Gedo,Baardheere,Horseed,2.3380393,42.2713087
Gedo,Baardheere,Horyaal,2.3501896,42.2984758
Gedo,Baardheere,Iftin,2.3478392,42.3050806
Gedo,Baardheere,Ileys,2.3216914,42.2753004
Gedo,Baardheere,Jameca,2.3527553,42.3051706
Gedo,Baardheere,Jirih,2.359155,42.2760432
Gedo,Baardheere,Juba,2.3207923,42.2757893
Gedo,Baardheere,Juba Baraawa,2.3154789,42.274113
Gedo,Baardheere,Kaydsaney,2.323151,42.2837916
Gedo,Baardheere,Kulan,2.3275582,42.2978743
Gedo,Baardheere,Kulimye Centre,2.3393096,42.2896886
Gedo,Baardheere,Liban,2.324544,42.2899175
Gedo,Baardheere,Madina,2.3439666,42.2705544
Gedo,Baardheere,Muruqmaal,2.308043,42.2800613
Gedo,Baardheere,Najax,2.3438877,42.2665532
Gedo,Baardheere,Returnees,2.3162595,42.2801591
Gedo,Baardheere,Shabeel,2.3435116,42.3014377
Gedo,Baardheere,Tawakal,2.3561519,42.2733928
Gedo,Baardheere,Towfiq,2.3675985,42.2746604
Gedo,Baardheere,Tuwerey,2.3441117,42.3027283
Gedo,Baardheere,Waabari,2.3552875,42.2961683
Gedo,Baardheere,Wardher,2.3347242,42.2944861
Gedo,Baardheere,Warsan,2.3134789,42.2778411
Gedo,Baardheere,Yama Ruglay,2.3614464,42.2866779
Bay,Baidoa,11-Janaay-1,3.0927611,43.63488
Bay,Baidoa,11-Janaay-2,3.0918301,43.6230441
Bay,Baidoa,Aamanow,3.0847457,43.6231301
Bay,Baidoa,Aanoley,3.0882153,43.6248578
Bay,Baidoa,Aashow,3.1405315,43.6661642
Bay,Baidoa,Abag Neebsoy,3.08928,43.6233821
Bay,Baidoa,Abal-1,3.1430997,43.6603448
Bay,Baidoa,Abal-5,3.15419287,43.67623133
Bay,Baidoa,Abaq Dheere,3.1374262,43.66009639
Bay,Baidoa,Abduruk,3.0852515,43.6203027
Bay,Baidoa,Aboore,3.1143187,43.6319452
Bay,Baidoa,Aburow,3.2121243,43.1908217
Bay,Baidoa,Adaayimow,3.1376854,43.6349752
Bay,Baidoa,Adable Gunre,3.2063699,43.2043229
Bay,Baidoa,Adable Oomane,3.1023141,43.6615951
Bay,Baidoa,Adable Weyne,3.0807555,43.6207242
Bay,Baidoa,Adadle Cade,3.1025214,43.6620096
Bay,Baidoa,Adan Goley,3.1372821,43.636617
Bay,Baidoa,Adan Yare,3.0803522,43.6199133
Bay,Baidoa,Adc Kulan Yare,3.09495678,43.63945167
Bay,Baidoa,Adc-1,3.0729153,43.6182189
Bay,Baidoa,Adc-2,3.09448264,43.63764827
Bay,Baidoa,Adc-3,3.0890889,43.6372989
Bay,Baidoa,Adc-4,3.0959339,43.6397733
Bay,Baidoa,Adc-5,3.0938823,43.627422
Bay,Baidoa,Adii Garaar,3.1335983,43.6638807
Bay,Baidoa,Afmadow,3.0906634,43.6263622
Bay,Baidoa,Al Aamin,3.2094493,43.19192486
Bay,Baidoa,Al-Baraka,3.1140729,43.6346827
Bay,Baidoa,Al-Baraka 2,3.0925047,43.6287052
Bay,Baidoa,Alfatax,3.085612,43.6244621
Bay,Baidoa,Al-Furqan-2,3.116261,43.6342348
Bay,Baidoa,Al-Furqan-3,3.1170128,43.6285272
Bay,Baidoa,Ali Gaale,3.0880625,43.631935
Bay,Baidoa,All Xamdu,3.2070257,43.202344
Bay,Baidoa,Alla Aaamin Indhoolayaasha,3.0926658,43.6227495
Bay,Baidoa,Alla Magan,3.1340352,43.6576952
Bay,Baidoa,Alla Qadari,3.0890526,43.6224309
Bay,Baidoa,Alla Suge-1,3.1273642,43.6577711
Bay,Baidoa,Alla Tuug,3.1000015,43.6438108
Bay,Baidoa,Allah Umaqan,3.1381267,43.675005
Bay,Baidoa,Alle Qabe,3.1492077,43.667278
Bay,Baidoa,Amiin Alle,3.1440665,43.6369048
Bay,Baidoa,Araan,3.2137562,43.1879727
Bay,Baidoa,Arooswiini,3.0879413,43.6246259
Bay,Baidoa,Asha Ki Dhali,3.1025088,43.6592449
Bay,Baidoa,Asharow Jawari,3.1066249,43.6770534
Bay,Baidoa,Awa Derow,3.0913075,43.631597
Bay,Baidoa,Awal Barwaqo,3.13914,43.6676991
Bay,Baidoa,Awdinle,3.2208096,43.1893404
Bay,Baidoa,Awo Asharo-1,3.1016095,43.660665
Bay,Baidoa,Awoodimow,3.1412396,43.6683056
Bay,Baidoa,Baagay,3.2210798,43.2054253
Bay,Baidoa,Baar Dufle,3.1304134,43.6761659
Bay,Baidoa,Baarbadan,3.0900402,43.6380588
Bay,Baidoa,Baaruud Xaanshi,3.1023457,43.6581295
Bay,Baidoa,Baas Ma'Arke,3.0990876,43.6344427
Bay,Baidoa,Badanbadey,3.1058321,43.6603723
Bay,Baidoa,Badbaado,3.2182798,43.1938814
Bay,Baidoa,Bakaar Shiid,3.0875061,43.6214229
Bay,Baidoa,Bakal Gaduud,3.0854561,43.6258542
Bay,Baidoa,Bakal Laabow 1,3.114692,43.6273972
Bay,Baidoa,Bakal Sheli,3.1309233,43.6316751
Bay,Baidoa,Bakale,3.2042957,43.1962511
Bay,Baidoa,Bakaro,3.20409026,43.19862868
Bay,Baidoa,Bakool-1,3.1307732,43.6772304
Bay,Baidoa,Baladul Amin,3.21194749,43.18766964
Bay,Baidoa,Balanbaale,3.1550103,43.6718165
Bay,Baidoa,Balanbasha,3.0922399,43.6254387
Bay,Baidoa,Balow Kai,3.0861329,43.6254575
Bay,Baidoa,Ban Sadiiq,3.1260075,43.6743748
Bay,Baidoa,Banaadir,3.15458336,43.67699922
Bay,Baidoa,Banaadir,3.0875887,43.6303397
Bay,Baidoa,Banbusul,3.140417,43.6605953
Bay,Baidoa,Bandhuub,3.08959601,43.63142695
Bay,Baidoa,Banow,3.0903591,43.6247203
Bay,Baidoa,Bansaable,3.14095645,43.66312386
Bay,Baidoa,Bansuuf 2,3.1282923,43.6712597
Bay,Baidoa,Banyal,3.1046807,43.659695
Bay,Baidoa,Baqaley Riibe,3.1302808,43.6775073
Bay,Baidoa,Baqaley Riibi,3.1390986,43.6600383
Bay,Baidoa,Bar Baare,3.092849,43.6243604
Bay,Baidoa,Baraka,3.1018249,43.6613499
Bay,Baidoa,Barakaley,3.1287348,43.6755574
Bay,Baidoa,Barariye,3.1031984,43.658276
Bay,Baidoa,Barbaarow Dhumiik,3.089369,43.6253662
Bay,Baidoa,Barhanooy,3.1466794,43.6609769
Bay,Baidoa,Bariyow,3.1390986,43.6604691
Bay,Baidoa,Barwaqo,3.1186742,43.6329279
Bay,Baidoa,Barwaqo,3.2181849,43.1916248
Bay,Baidoa,Bas Maleh,3.149185,43.6718004
Bay,Baidoa,Baygaduud,3.1171147,43.6296438
Bay,Baidoa,Baygaduud,3.2223135,43.1885104
Bay,Baidoa,Bayka Gaduud,3.1031321,43.6596484
Bay,Baidoa,Baynun,3.1316133,43.6814673
Bay,Baidoa,Bayow,3.094535703,43.62704393
Bay,Baidoa,Beer Dhinbil 2,3.15618187,43.67424655
Bay,Baidoa,Beer Dhinbil 3,3.1451517,43.6692256
Bay,Baidoa,Beer Shibeele,3.1290647,43.6763066
Bay,Baidoa,Beereyjeg,3.1387844,43.6316095
Bay,Baidoa,Beerlamow,3.1395683,43.6315173
Bay,Baidoa,Beladul Amin 2,3.0807067,43.6246983
Bay,Baidoa,Berdale Ayle,3.1029484,43.6589669
Bay,Baidoa,Bilal,3.0932934,43.625768
Bay,Baidoa,Bilan Abees 2,3.116599,43.6281396
Bay,Baidoa,Birigey,3.0917238,43.6277074
Bay,Baidoa,Biroole,3.1332528,43.6638833
Bay,Baidoa,Bodaan-1,3.1353668,43.6303697
Bay,Baidoa,Bodaan-2,3.1375606,43.6296706
Bay,Baidoa,Bohul,3.1359995,43.6597888
Bay,Baidoa,Boorami Lawiile,3.1465381,43.6665796
Bay,Baidoa,Borow,3.1447658,43.642788
Bay,Baidoa,Bula Gaduud,3.21414313,43.19235322
Bay,Baidoa,Bula Garas,3.0854493,43.6240492
Bay,Baidoa,Bula Sokor,3.0932305,43.6296429
Bay,Baidoa,Buli Fuur Ooflow,3.0914203,43.6282559
Bay,Baidoa,Bulo Gurun,3.208262,43.1938278
Bay,Baidoa,Bulsho,3.21203767,43.19955578
Bay,Baidoa,Burey Manas,3.1317006,43.6672475
Bay,Baidoa,Buruqle,3.2222517,43.1884833
Bay,Baidoa,Busley,3.2088337,43.2031938
Bay,Baidoa,Busta,3.090796,43.6289529
Bay,Baidoa,Buula Aamin,3.1091858,43.6584137
Bay,Baidoa,Buula Berde,3.1187433,43.6293903
Bay,Baidoa,Buula Busley,3.0929726,43.6269193
Bay,Baidoa,Buula Fulay,3.144978,43.6679289
Bay,Baidoa,Buula Issack,3.1476822,43.6687375
Bay,Baidoa,Buula Nuuri-1,3.103684,43.6624346
Bay,Baidoa,Buula Usley-2,3.1086655,43.6572446
Bay,Baidoa,Buula Usley-3,3.1102209,43.6536496
Bay,Baidoa,Buulcadey,3.1335586,43.6778224
Bay,Baidoa,Buule Fuur,3.1404551,43.6764302
Bay,Baidoa,Buule Gablay,3.1344707,43.6354765
Bay,Baidoa,Buuli Dooy,3.1061159,43.662282
Bay,Baidoa,Buuli Yuurur,3.0895689,43.6234427
Bay,Baidoa,Buulishiid,3.0913103,43.6265633
Bay,Baidoa,Buulo Bisig,3.133012787,43.67748748
Bay,Baidoa,Buulo Biyooley,3.0936717,43.6232535
Bay,Baidoa,Buulo Duuf,3.090406,43.6305735
Bay,Baidoa,Buulo Gumar- 1,3.08061,43.6242083
Bay,Baidoa,Buulo Gumar-2,3.071635,43.6195561
Bay,Baidoa,Buulo Hubey,3.1402473,43.6607689
Bay,Baidoa,Buulo Jaay ,3.093517,43.6234473
Bay,Baidoa,Buulo Keerow,3.1327951,43.6819067
Bay,Baidoa,Buulo Mariin,3.0940317,43.6240008
Bay,Baidoa,Buulo Sheeb-2,3.1020733,43.6572626
Bay,Baidoa,Buuloneebsin,3.0849729,43.6220766
Bay,Baidoa,Buur Edoy,3.1369833,43.6303827
Bay,Baidoa,Buur Eeyle-2,3.130933,43.6776044
Bay,Baidoa,Buur Fuule 1,3.1390157,43.6621122
Bay,Baidoa,Buur Gaduud,3.0847017,43.6224573
Bay,Baidoa,Buur Heybe,3.1383281,43.6604754
Bay,Baidoa,Buur Iyo Shabelow,3.1043618,43.6621795
Bay,Baidoa,Buur Midowe,3.128522,43.6768069
Bay,Baidoa,Buurfuule Shibelow,3.1300947,43.6742517
Bay,Baidoa,Buurow Sarmaaned,3.125762,43.6743311
Bay,Baidoa,Camp Qasaxdheeri,3.0887018,43.621932
Bay,Baidoa,Ceel Duug,3.0890565,43.6232358
Bay,Baidoa,Ceel Haymi,3.0896338,43.6239059
Bay,Baidoa,Ceel Laxeli,3.1390487,43.6374401
Bay,Baidoa,Ceel Qarar,3.08779411,43.63261684
Bay,Baidoa,Ceelberde 2,3.1317721,43.675505
Bay,Baidoa,Coonjir,3.212787,43.188292
Bay,Baidoa,Dabolow 1,3.1282978,43.6731818
Bay,Baidoa,Dahaale,3.1314258,43.6772661
Bay,Baidoa,Dakana Diid-1,3.1590463,43.6733917
Bay,Baidoa,Dalandole-3,3.15602279,43.67804501
Bay,Baidoa,Daldaley,3.0909269,43.629543
Bay,Baidoa,Dambal Caalam,3.1522965,43.6767363
Bay,Baidoa,Danbaley,3.092496,43.6276752
Bay,Baidoa,Danwadaag,3.2195456,43.2075727
Bay,Baidoa,Darib Bashiir,3.1023071,43.6650106
Bay,Baidoa,Darusalaam-1,3.1403483,43.6623471
Bay,Baidoa,Daryeel,3.1279097,43.67443833
Bay,Baidoa,Daryeel,3.0849977,43.6201006
Bay,Baidoa,Daryel Bulsho,3.1039183,43.6754283
Bay,Baidoa,Da'Udow,3.1037014,43.6577092
Bay,Baidoa,Dayniile,3.1273796,43.68187
Bay,Baidoa,Deeb Wiine,3.0952207,43.6316498
Bay,Baidoa,Deg Galoole,3.0917481,43.6263075
Bay,Baidoa,Degamur Bay,3.130573,43.6770877
Bay,Baidoa,Degdacar,3.1272782,43.6789498
Bay,Baidoa,Dhanfarur,3.082255,43.6198667
Bay,Baidoa,Dheriyow,3.1410833,43.6646493
Bay,Baidoa,Dhiila,3.137505,43.63299986
Bay,Baidoa,Dhinaawe,3.128481667,43.67588667
Bay,Baidoa,Dhur Iyo Qalin,3.1409784,43.6757334
Bay,Baidoa,Dhurshenlow Bari,3.10778773,43.66692402
Bay,Baidoa,Dhuugsoy,3.1387201,43.6674984
Bay,Baidoa,Dini Doog,3.1433375,43.632238
Bay,Baidoa,Dolow-2,3.0935671,43.6299038
Bay,Baidoa,Dooday,3.117658,43.6291246
Bay,Baidoa,Doon Dherow,3.1293346,43.6730291
Bay,Baidoa,Doon Waraabi,3.1465134,43.6351803
Bay,Baidoa,Dooriyaanle,3.0883857,43.6235856
Bay,Baidoa,Dooy,3.0942002,43.6354555
Bay,Baidoa,Dooy Gaab 1,3.1045555,43.662855
Bay,Baidoa,Dooy Gaab 2,3.104837,43.6596833
Bay,Baidoa,Dooyow Dareerfeyli,3.1038181,43.6594692
Bay,Baidoa,Doy Gaabey,3.0894695,43.6266726
Bay,Baidoa,Dubi Gas,3.1521741,43.6720898
Bay,Baidoa,Duduma Kale,3.1403687,43.6633606
Bay,Baidoa,Dudumaale,3.0915625,43.6350304
Bay,Baidoa,Dugsiilo-2,3.131958333,43.67705333
Bay,Baidoa,Dugule,3.088542,43.6250694
Bay,Baidoa,Dulmuruq,3.2203533,43.2113781
Bay,Baidoa,Dusti,3.09789,43.6338383
Bay,Baidoa,Duugsoy,3.0803888,43.6210927
Bay,Baidoa,Duurey,3.0890079,43.6277751
Bay,Baidoa,Edkiyaal,3.1439442,43.6320085
Bay,Baidoa,Eeg Iyo Ali Mumun,3.129929379,43.68044562
Bay,Baidoa,Eel Lahelow,3.1014974,43.6594195
Bay,Baidoa,Eesow,3.093534,43.6269867
Bay,Baidoa,Eesow 2,3.087345,43.6266683
Bay,Baidoa,El Bay 1,3.0908081,43.6295549
Bay,Baidoa,El Heji,3.1253812,43.6747832
Bay,Baidoa,Elbashiir,3.1043916,43.65967
Bay,Baidoa,Elbet-1,3.091398,43.6229522
Bay,Baidoa,Elboon,3.1456843,43.6550631
Bay,Baidoa,Eyle,3.2201512,43.2115862
Bay,Baidoa,Faanoole 2,3.1031229,43.6635065
Bay,Baidoa,Fathu-Rahman,3.1401377,43.6669572
Bay,Baidoa,Fulaay Dheer,3.1342855,43.6653471
Bay,Baidoa,Fuur Ayli,3.1060246,43.6680812
Bay,Baidoa,Gabaa Degsoy,3.1461379,43.6379643
Bay,Baidoa,Gal Gal Weyn 2,3.1313507,43.67884
Bay,Baidoa,Galgal Onle-2,3.128786667,43.67782833
Bay,Baidoa,Galgal Weyn,3.1068575,43.6664803
Bay,Baidoa,Galooshe,3.1030872,43.6568945
Bay,Baidoa,Galow Gab,3.1032973,43.6639193
Bay,Baidoa,Galuul Sarmaan,3.1249918,43.674363
Bay,Baidoa,Gantai Gumurti,3.1470122,43.6697953
Bay,Baidoa,Ganugaay,3.0925738,43.6267948
Bay,Baidoa,Garas Mintan,3.1468729,43.6692507
Bay,Baidoa,Gardiile 1,3.0922266,43.6278705
Bay,Baidoa,Gareer Fuur Weyn,3.1469898,43.664267
Bay,Baidoa,Gareeri Yarey,3.0902937,43.6301195
Bay,Baidoa,Gareero Fuur 1,3.1393506,43.6620191
Bay,Baidoa,Gawaanow ,3.09407,43.6250944
Bay,Baidoa,Geed Makaay,3.1385134,43.6653531
Bay,Baidoa,Geed Midow,3.1063923,43.6709645
Bay,Baidoa,Geele,3.1277289,43.6768393
Bay,Baidoa,Gili,3.1480421,43.6647215
Bay,Baidoa,Golay,3.0802742,43.6205834
Bay,Baidoa,Gololka,3.210126,43.2021035
Bay,Baidoa,Golool Onle1,3.130963,43.6786524
Bay,Baidoa,Goloole,3.0929485,43.6391039
Bay,Baidoa,Goob Roon,3.102866,43.6655286
Bay,Baidoa,Goorinane-1,3.1009931,43.6600247
Bay,Baidoa,Goosate,3.1503302,43.6719707
Bay,Baidoa,Goosey,3.0949733,43.62614
Bay,Baidoa,Gubti Weyn,3.1049933,43.6616633
Bay,Baidoa,Gurmeysi,3.1307417,43.6789517
Bay,Baidoa,Gurunle,3.1277203,43.6708235
Bay,Baidoa,Guudka,3.1029083,43.6644483
Bay,Baidoa,Guulow Eyle,3.1013293,43.6595091
Bay,Baidoa,Habar Wanot,3.2049407,43.2017454
Bay,Baidoa,Hafata,3.0986949,43.6349592
Bay,Baidoa,Hafata -3,3.1313171,43.6755152
Bay,Baidoa,Hagar Daba Teeg,3.0934231,43.6281495
Bay,Baidoa,Hagaray ,3.0939469,43.625677
Bay,Baidoa,Hagarey Hoos Tumaal,3.09107,43.6247249
Bay,Baidoa,Hakaba,3.1433017,43.6702184
Bay,Baidoa,Halabay,3.128611667,43.67646333
Bay,Baidoa,Halimey,3.1589002,43.6751663
Bay,Baidoa,Haluul Iyo Hargan,3.0900626,43.6233865
Bay,Baidoa,Hanaano1,3.2140126,43.1981213
Bay,Baidoa,Hanana 1,3.1486537,43.6610921
Bay,Baidoa,Hanano 2,3.1422675,43.6677336
Bay,Baidoa,Hareera Boor,3.1467252,43.6671835
Bay,Baidoa,Hareero Kuud,3.0938586,43.6237314
Bay,Baidoa,Harqan,3.2119826,43.2038803
Bay,Baidoa,Hassan Feisal Duad,3.2117406,43.1924595
Bay,Baidoa,Hassan Muunin,3.0873974,43.6269432
Bay,Baidoa,Hawarwanood,3.1305336,43.6782716
Bay,Baidoa,Hawey Qaramey,3.1250937,43.6639654
Bay,Baidoa,Hidigi Bariirow,3.1383763,43.6374002
Bay,Baidoa,Hilaac 1,3.0871695,43.63001
Bay,Baidoa,Hinshi Roole,3.1579066,43.6739042
Bay,Baidoa,Hiyaado Weyn,3.0924477,43.6242825
Bay,Baidoa,Hiyado Yarey,3.0922358,43.6230231
Bay,Baidoa,Hoobisoole,3.0768321,43.6182734
Bay,Baidoa,Hoogar I Maandow,3.1400256,43.6286251
Bay,Baidoa,Horseed-1,3.1298919,43.6560645
Bay,Baidoa,Idaale Janaay,3.1033297,43.6424095
Bay,Baidoa,Idaale-1,3.0934021,43.6371391
Bay,Baidoa,Ideed Koblee,3.1319367,43.681715
Bay,Baidoa,Ideedlow,3.1388043,43.6654384
Bay,Baidoa,Idin Alle,3.153972,43.6744314
Bay,Baidoa,Ifo Bay-1,3.1579814,43.6751401
Bay,Baidoa,Iltire,3.2191483,43.2052683
Bay,Baidoa,Imillow 1,3.1403248,43.6380086
Bay,Baidoa,Indhoolayaasha Nicmoole,3.0920165,43.6289314
Bay,Baidoa,Iri Roog,3.1255855,43.6745563
Bay,Baidoa,Iri Roog Win,3.1256295,43.6753146
Bay,Baidoa,Isbile,3.1543297,43.6735924
Bay,Baidoa,Isduugte,3.2243853,43.1918308
Bay,Baidoa,Iskari,3.10861054,43.67339034
Bay,Baidoa,Jakaton,3.223744,43.1962854
Bay,Baidoa,Janaale,3.1390986,43.656572
Bay,Baidoa,Jawari,3.1278112,43.6715594
Bay,Baidoa,Jeelow,3.13942153,43.65956862
Bay,Baidoa,Jiidow,3.1559868,43.6709393
Bay,Baidoa,Jiidow Bakool,3.1280968,43.6748648
Bay,Baidoa,Jiinaay Burukle,3.1161481,43.6318002
Bay,Baidoa,Jinay Wardiile,3.1135578,43.6281814
Bay,Baidoa,Jinay-3,3.1581639,43.6717134
Bay,Baidoa,Jubada Dhaxe,3.0879712,43.6285899
Bay,Baidoa,Juurow,3.0705494,43.616225
Bay,Baidoa,Kaalimey 1,3.0837795,43.6195582
Bay,Baidoa,Kaalkaal,3.1391446,43.6615694
Bay,Baidoa,Kadhalan,3.2227333,43.1887084
Bay,Baidoa,Kaine,3.128539,43.6780208
Bay,Baidoa,Kalow,3.131575,43.676965
Bay,Baidoa,Karaaw Dheere,3.0980446,43.6388113
Bay,Baidoa,Kashiidow,3.1364621,43.6745308
Bay,Baidoa,Kaysineey,3.1298626,43.6728917
Bay,Baidoa,Keerow Malaagdi,3.10721739,43.66865964
Bay,Baidoa,Kerow Margan,3.0909486,43.6289862
Bay,Baidoa,Kidhikooy,3.0801518,43.6234598
Bay,Baidoa,Koban Dheere,3.0906812,43.6243488
Bay,Baidoa,Koban Dheere-2,3.091798,43.6282128
Bay,Baidoa,Kooney,3.2280506,43.2048866
Bay,Baidoa,Korjarte,3.1472086,43.6643909
Bay,Baidoa,Kormari-2,3.1348475,43.6526745
Bay,Baidoa,Koron Koor,3.1372401,43.6331941
Bay,Baidoa,Kulmiye,3.1232383,43.637995
Bay,Baidoa,Kulmiye,3.22231551,43.20119826
Bay,Baidoa,Kulmiye Kabey,3.1402473,43.6607689
Bay,Baidoa,Kurmaan,3.1325717,43.6778683
Bay,Baidoa,Kurtumaley,3.1293624,43.674134
Bay,Baidoa,Kurtun,3.1066489,43.6686951
Bay,Baidoa,Kuudow,3.0893583,43.6363302
Bay,Baidoa,Leeb Edi,3.0823756,43.6210988
Bay,Baidoa,Liban,3.22482347,43.19538794
Bay,Baidoa,Liibaan-1,3.0946081,43.6369028
Bay,Baidoa,Loojar Wiine,3.1571663,43.6719437
Bay,Baidoa,Loojele,3.1383776,43.6679378
Bay,Baidoa,Lowforaar,3.0840018,43.6223033
Bay,Baidoa,Lowguule,3.1314651,43.6781112
Bay,Baidoa,Lowi Iskirogow 1,3.1065274,43.6690651
Bay,Baidoa,Lowiley Aliyow Rooble ,3.0944005,43.6257501
Bay,Baidoa,Maadow Abdi Roobow,3.0933715,43.6285957
Bay,Baidoa,Mabarak,3.1053715,43.6655227
Bay,Baidoa,Mada Hool,3.0942157,43.6237679
Bay,Baidoa,Madaraan Degeen,3.14002,43.662345
Bay,Baidoa,Madawarabe,3.1390266,43.629146
Bay,Baidoa,Madhayta,3.1342327,43.635652
Bay,Baidoa,Mahad Alle-1,3.1463475,43.6657381
Bay,Baidoa,Mahad Alle-2,3.1412611,43.6667061
Bay,Baidoa,Mahad Alle-3,3.1409883,43.6661482
Bay,Baidoa,Maka Dhagoole-1,3.1274667,43.6778988
Bay,Baidoa,Makiiney,3.0928955,43.6258469
Bay,Baidoa,Makoon,3.089055,43.6268968
Bay,Baidoa,Makuudi,3.0827822,43.6217481
Bay,Baidoa,Mala Layle,3.08868,43.6275665
Bay,Baidoa,Malkaay,3.096102,43.6325298
Bay,Baidoa,Malko Guurow,3.0843432,43.6194728
Bay,Baidoa,Malmale,3.1026914,43.6579156
Bay,Baidoa,Marayla1,3.15513546,43.67599762
Bay,Baidoa,Masalaay,3.088859,43.6240868
Bay,Baidoa,Masiirka,3.087636,43.6300913
Bay,Baidoa,Matalimiin,3.1364028,43.6605289
Bay,Baidoa,Maykoo Guraw,3.2284233,43.2048555
Bay,Baidoa,Midnimo,3.153122105,43.67299302
Bay,Baidoa,Midnimo,3.22227772,43.18816206
Bay,Baidoa,Minfuray,3.20808358,43.195107
Bay,Baidoa,Mitaano Ween,3.1522804,43.6728397
Bay,Baidoa,Modamoode ,3.127494,43.6706665
Bay,Baidoa,Mogor Iyo Mayow-1,3.0922417,43.6315169
Bay,Baidoa,Mogor Iyo Mayow-2,3.08424141,43.63038834
Bay,Baidoa,Moorabus,3.2235801,43.1981529
Bay,Baidoa,Moori Dhir,3.1378362,43.6616516
Bay,Baidoa,Moori Fuur,3.1512922,43.6584351
Bay,Baidoa,Moori Gowaan,3.0930557,43.6235945
Bay,Baidoa,Mora Fuur,3.1323489,43.6821916
Bay,Baidoa,Mowkubow,3.0893025,43.6238339
Bay,Baidoa,Mubarak Wadajir,3.0935472,43.6391981
Bay,Baidoa,Mubark Yarey,3.0707812,43.6158674
Bay,Baidoa,Mudug,3.157985,43.6742067
Bay,Baidoa,Mulombe,3.1069649,43.6661796
Bay,Baidoa,Mushka,3.079165,43.62258
Bay,Baidoa,Nasib,3.21818064,43.20632893
Bay,Baidoa,Nasiib,3.0880935,43.6230072
Bay,Baidoa,Nasiib Wanag 1,3.1495733,43.657375
Bay,Baidoa,Nimcoole,3.13539153,43.66031639
Bay,Baidoa,Omane,3.12679,43.6719967
Bay,Baidoa,Oori,3.0836342,43.6212814
Bay,Baidoa,Qaboobe,3.0927145,43.6246868
Bay,Baidoa,Qarimey,3.0903847,43.6357821
Bay,Baidoa,Qasab 2,3.1207292,43.6399821
Bay,Baidoa,Qasadhere2,3.1306078,43.6742831
Bay,Baidoa,Qasi Sheeb,3.0904083,43.6371433
Bay,Baidoa,Qasibileer,3.0905384,43.6387801
Bay,Baidoa,Qaydar Edi,3.1456825,43.6357578
Bay,Baidoa,Qod Qode,3.1047155,43.6642381
Bay,Baidoa,Qoriile,3.1022674,43.6611319
Bay,Baidoa,Qudow Wiini,3.1409073,43.675835
Bay,Baidoa,Qulay,3.0877945,43.6282757
Bay,Baidoa,Quracle,3.1316168,43.674782
Bay,Baidoa,Raama Cadey,3.093906767,43.62906413
Bay,Baidoa,Raardawo,3.21311295,43.19104197
Bay,Baidoa,Raaso,3.1278913,43.6731488
Bay,Baidoa,Raaxoole,3.0957414,43.632005
Bay,Baidoa,Ramadaan 1,3.0892418,43.6339038
Bay,Baidoa,Raydabale,3.21927277,43.1898986
Bay,Baidoa,Raydabo,3.1404247,43.6595698
Bay,Baidoa,Roboy Gaduuda,3.0920703,43.6262611
Bay,Baidoa,Roob Da'Ay,3.091697,43.6237196
Bay,Baidoa,Rooble Kuudow,3.0933246,43.6236591
Bay,Baidoa,Sabeedow,3.0911067,43.6242722
Bay,Baidoa,Safar  Nooley,3.0930516,43.6282058
Bay,Baidoa,Sagam,3.1295496,43.6728801
Bay,Baidoa,Salaan Feyli,3.0954547,43.6280877
Bay,Baidoa,Salamey Idaale,3.0956321,43.6328444
Bay,Baidoa,Sarman Dheer,3.1494482,43.6687043
Bay,Baidoa,Sarman Weyn,3.1387016,43.6522284
Bay,Baidoa,Sarman-2,3.1273481,43.6723253
Bay,Baidoa,Sedax Buurow,3.1373594,43.6301266
Bay,Baidoa,Seydheelow ,3.1405851,43.6547418
Bay,Baidoa,Shabeele Morwarabe,3.1560557,43.6731444
Bay,Baidoa,Shabeelow,3.0950675,43.6300417
Bay,Baidoa,Shanta,3.0792933,43.6224983
Bay,Baidoa,Shantar Hoobishole,3.1068356,43.6764613
Bay,Baidoa,Shiid Bileer,3.1396224,43.6335386
Bay,Baidoa,Shiidmidow,3.1327726,43.6641784
Bay,Baidoa,Shiniyow,3.0884939,43.6233607
Bay,Baidoa,Siigadheere-2,3.1141993,43.6300411
Bay,Baidoa,Sinan,3.21291059,43.20384641
Bay,Baidoa,Sisma Alle,3.0887113,43.6222308
Bay,Baidoa,Soorante,3.139926613,43.63018276
Bay,Baidoa,Suuldheere,3.1389733,43.6336925
Bay,Baidoa,Suur Weyn,3.142232,43.6602815
Bay,Baidoa,Tabarak,3.1470043,43.6688144
Bay,Baidoa,Tabarow,3.1442507,43.6677376
Bay,Baidoa,Tagal,3.1535077,43.6757023
Bay,Baidoa,Tawakal,3.22372263,43.1892979
Bay,Baidoa,Tawakal 1,3.1154374,43.6321689
Bay,Baidoa,Tawakal 2 Diinsoor,3.0907843,43.6334316
Bay,Baidoa,Tawakal 3 Diinsoor,3.0932569,43.6340338
Bay,Baidoa,Tawakal Adc,3.099218379,43.6349758
Bay,Baidoa,Tawakal Misir,3.0922267,43.628775
Bay,Baidoa,Tawakal-2,3.1502337,43.6668619
Bay,Baidoa,Tawfiiq-1,3.1261737,43.674317
Bay,Baidoa,Tawsi Kaar,3.1253608,43.6742445
Bay,Baidoa,Toosikaar,3.21212,43.19098
Bay,Baidoa,Toosile,3.2054826,43.2010809
Bay,Baidoa,Toosobarakire,3.2048652,43.1967814
Bay,Baidoa,Towfiq,3.21858018,43.20415128
Bay,Baidoa,Towhiid,3.1063092,43.670955
Bay,Baidoa,Towsi Libax,3.1165819,43.6306359
Bay,Baidoa,Towsile 3,3.146927,43.636944
Bay,Baidoa,Tubaney,3.1383918,43.6364128
Bay,Baidoa,Tugaarey,3.0934017,43.6250321
Bay,Baidoa,Tuugsoy,3.1318793,43.6812942
Bay,Baidoa,Waab Doore,3.0812724,43.6209082
Bay,Baidoa,Wadaajir,3.2194009,43.1836718
Bay,Baidoa,Wadajir 6 Jinaay,3.0885464,43.6242982
Bay,Baidoa,Wadajir Horseed,3.1359024,43.661272
Bay,Baidoa,Wadajir Takoy,3.0929483,43.6394133
Bay,Baidoa,Wadajir-2,3.1312504,43.653533
Bay,Baidoa,Wajeer,3.1065939,43.6682894
Bay,Baidoa,Walaq-1,3.1507321,43.6719142
Bay,Baidoa,Walaq-2,3.1535864,43.6629848
Bay,Baidoa,Walaq-3,3.1547505,43.6622534
Bay,Baidoa,Wamo Ayle,3.1087533,43.6569795
Bay,Baidoa,War Garasle,3.1581768,43.6745719
Bay,Baidoa,War Harqaan,3.1301382,43.6737597
Bay,Baidoa,War Hussein,3.1423042,43.6295775
Bay,Baidoa,War Isagow,3.1431592,43.6666866
Bay,Baidoa,Waraabow,3.0929102,43.6262792
Bay,Baidoa,Warbarbaare,3.1387342,43.632573
Bay,Baidoa,Wardiire 2,3.140514,43.6265626
Bay,Baidoa,Wardujiiley,3.131622,43.6288533
Bay,Baidoa,Warhinshile,3.1337983,43.62867
Bay,Baidoa,Wariiri,3.1230577,43.6275165
Bay,Baidoa,Warjinay,3.0904634,43.6322199
Bay,Baidoa,Warjire,3.1378764,43.6295022
Bay,Baidoa,Warlowe,3.155347,43.6754608
Bay,Baidoa,Warsan,3.1391406,43.670228
Bay,Baidoa,Warwiin Adey Garaar,3.1372678,43.662325
Bay,Baidoa,Wasiile-2,3.1326891,43.673062
Bay,Baidoa,Wayamo 1,3.13867,43.6301978
Bay,Baidoa,Waynyaale,3.1014061,43.6614121
Bay,Baidoa,Wedey Rahma-2,3.1456699,43.6666819
Bay,Baidoa,Weel Lowu,3.0955051,43.6266449
Bay,Baidoa,Weelwanre1,3.1018571,43.6452776
Bay,Baidoa,Weersan,3.1010232,43.6606434
Bay,Baidoa,Weysay,3.1042233,43.6627942
Bay,Baidoa,Wiinle,3.0861917,43.629285
Bay,Baidoa,Ya Iyow Koyow,3.1383643,43.6706587
Bay,Baidoa,Yaaq Barawey,3.1434215,43.6614643
Bay,Baidoa,Ya-Fatah,3.1404159,43.673086
Bay,Baidoa,Yaman,3.0851228,43.6219091
Bay,Baidoa,Yarabi,3.0889821,43.6301556
Awdal,Baki,Cabdi Geedi,10.50944832,44.0531675
Awdal,Baki,Osoli,10.43898687,43.70622376
Awdal,Baki,Sheed Dheer,10.3017721,43.52351197
Middle Shabelle,Balcad,Ala-Aamin,2.35684,45.387586
Middle Shabelle,Balcad,Basro ,2.361631,45.385848
Middle Shabelle,Balcad,Daryeel,2.361631,45.385848
Middle Shabelle,Balcad,Gargaar 1,2.3513424,45.3989928
Middle Shabelle,Balcad,Gargaar 2,2.3654321,45.3853364
Lower Shabelle,Baraawe,Badbaado,1.145438,44.0009046
Lower Shabelle,Baraawe,Bulo Burwaqo,1.145109,44.008691
Lower Shabelle,Baraawe,Bulo Masakin,1.1196139,44.0234167
Lower Shabelle,Baraawe,Daarusalaam,1.1070712,44.0135414
Lower Shabelle,Baraawe,Dalfure,1.1245354,44.0288987
Lower Shabelle,Baraawe,Dalxiska,1.111382,44.0272049
Lower Shabelle,Baraawe,Deemay,1.1057001,44.0170654
Lower Shabelle,Baraawe,Gegsoy,1.1154647,44.0196211
Lower Shabelle,Baraawe,Suufi Jeylani,1.1468313,44.0062335
Hiraan,Belet Weyne,Alla Aamin1,4.7554682,45.1873046
Hiraan,Belet Weyne,Alla-Amin2,4.7584088,45.1817373
Hiraan,Belet Weyne,Alla-Suge,4.7535549,45.1881432
Hiraan,Belet Weyne,Ayaan,4.7256739,45.2057466
Hiraan,Belet Weyne,Ayaanle,4.7539883,45.2235283
Hiraan,Belet Weyne,Baaslaawe,4.7437692,45.1975793
Hiraan,Belet Weyne,Bakaleey,4.7516802,45.2078015
Hiraan,Belet Weyne,Bardaale,4.7360508,45.1901172
Hiraan,Belet Weyne,Barwaqo ,4.733121,45.2176575
Hiraan,Belet Weyne,Barwaqo ,5.2105396,45.5200486
Hiraan,Belet Weyne,Bilal,4.7672018,45.2066831
Hiraan,Belet Weyne,Bilan 1,4.7360927,45.2101109
Hiraan,Belet Weyne,Bir-Maal,4.7427163,45.2228312
Hiraan,Belet Weyne,Booco Idp,4.7394476,45.2212953
Hiraan,Belet Weyne,Budul,4.7510071,45.2031306
Hiraan,Belet Weyne,Bulsho,4.7528958,45.1837719
Hiraan,Belet Weyne,Cadaani,4.721562,45.2083578
Hiraan,Belet Weyne,Camp Guuled,5.1857666,45.5205235
Hiraan,Belet Weyne,Camp Xariiryale ,5.1953489,45.5333396
Hiraan,Belet Weyne,Ceynabo,4.7575532,45.1873704
Hiraan,Belet Weyne,Ceynta,4.7395013,45.2376232
Hiraan,Belet Weyne,Danyere,4.7631578,45.2043666
Hiraan,Belet Weyne,Dayax Siigaalow,4.7562812,45.1865958
Hiraan,Belet Weyne,Dhadhaab,4.7254373,45.1946466
Hiraan,Belet Weyne,Doomeey,4.7295274,45.2170944
Hiraan,Belet Weyne,Doongaduud,4.748781,45.212327
Hiraan,Belet Weyne,Doyale ,4.7450417,45.1817416
Hiraan,Belet Weyne,Duugane,4.7509199,45.2337557
Hiraan,Belet Weyne,Exairport,4.7402772,45.1902312
Hiraan,Belet Weyne,Fatxi 1,4.7339415,45.1918096
Hiraan,Belet Weyne,Gabooye 1,4.75268,45.213122
Hiraan,Belet Weyne,Gabooye 2,4.7374694,45.2140111
Hiraan,Belet Weyne,Galkacyo Idp,4.7586858,45.1877207
Hiraan,Belet Weyne,Gudlawe,4.7584608,45.2025598
Hiraan,Belet Weyne,Gurmad Iyo Gargar,4.7449421,45.2045531
Hiraan,Belet Weyne,Harqaboobe,4.7629069,45.2054112
Hiraan,Belet Weyne,Iftin,4.7540538,45.1893145
Hiraan,Belet Weyne,Iftin ,5.1890205,45.5211443
Hiraan,Belet Weyne,Iftin Labdheere,4.7322766,45.2134513
Hiraan,Belet Weyne,Iqro,4.757813,45.201575
Hiraan,Belet Weyne,Jiiqle,4.7298647,45.2186759
Hiraan,Belet Weyne,Kalkaal,4.7266265,45.218159
Hiraan,Belet Weyne,Kam Istar,4.7355005,45.19755
Hiraan,Belet Weyne,Kumasaar,4.7546421,45.206328
Hiraan,Belet Weyne,Kutimbo,4.7562171,45.2081011
Hiraan,Belet Weyne,Macruuf,4.7573374,45.1836543
Hiraan,Belet Weyne,Matanaha,4.725469,45.1968847
Hiraan,Belet Weyne,Midnimo,4.7216745,45.2067858
Hiraan,Belet Weyne,Mubarak,4.7376549,45.1883587
Hiraan,Belet Weyne,Najax,4.76068,45.207714
Hiraan,Belet Weyne,Nasiib,4.7327022,45.1813867
Hiraan,Belet Weyne,Nasteho,4.7589708,45.2094594
Hiraan,Belet Weyne,Naxariis Idp'S ,4.7512343,45.1869256
Hiraan,Belet Weyne,Qaatumo,4.7360797,45.1938963
Hiraan,Belet Weyne,Qabno,4.7526071,45.2322556
Hiraan,Belet Weyne,Qaboobe,4.7611143,45.2050694
Hiraan,Belet Weyne,Qilaaf-Laawe,4.7519788,45.2115656
Hiraan,Belet Weyne,Raage Iidle,4.7237189,45.2018937
Hiraan,Belet Weyne,Rajo 1,4.7283967,45.2056745
Hiraan,Belet Weyne,Rajo2,4.7364739,45.1826896
Hiraan,Belet Weyne,Rasmi,4.7582048,45.2096392
Hiraan,Belet Weyne,Shiilow,4.7347881,45.1811326
Hiraan,Belet Weyne,Sigaalow Qayr Qabe,4.7484128,45.1927047
Hiraan,Belet Weyne,Tawakal Sigalow,4.754258,45.1841262
Hiraan,Belet Weyne,Tawakal2,4.7547129,45.1839644
Hiraan,Belet Weyne,Tawakal-Nuriyo,4.7215092,45.2020653
Hiraan,Belet Weyne,Wabi-Shabele,4.7463054,45.2117024
Hiraan,Belet Weyne,Waruube,4.7277949,45.219016
Hiraan,Belet Weyne,Xaliye,4.7399154,45.2308285
Hiraan,Belet Weyne,Xamiir Gaab,4.7236198,45.2046456
Gedo,Belet Xaawo,Ajuran,3.9497881,41.8987986
Gedo,Belet Xaawo,Al- Barakat,3.9851497,41.947857
Gedo,Belet Xaawo,Al- Rahma,3.8890476,41.8652267
Gedo,Belet Xaawo,Al-Amin,3.95593,41.9293237
Gedo,Belet Xaawo,Alwiilo,3.9071107,41.8736406
Gedo,Belet Xaawo,Baarka,3.9186598,41.9020909
Gedo,Belet Xaawo,Beled Amin,3.957622,41.893448
Gedo,Belet Xaawo,Dhagaxley,3.8998992,41.8632209
Gedo,Belet Xaawo,Duray,3.9442348,41.9353754
Gedo,Belet Xaawo,Hodan,3.9787942,41.9439382
Gedo,Belet Xaawo,Horsed,3.947867,41.9141905
Gedo,Belet Xaawo,Jiroon,3.9585668,41.8960354
Gedo,Belet Xaawo,Labi-Ad,3.9743176,41.9529767
Gedo,Belet Xaawo,Lidan,3.9606765,41.9210315
Gedo,Belet Xaawo,Qurac Bilash,3.9572853,41.9154208
Woqooyi Galbeed,Berbera,Xabaalo Tumaalod,10.21271365,44.88428643
Awdal,Borama,Boon,10.1913666,43.0922479
Awdal,Borama,Dhafaruurta,10.10669836,43.34533906
Awdal,Borama,Faarax Yood,9.948845975,43.19706243
Awdal,Borama,Hayayaabe,9.924384034,43.17339805
Awdal,Borama,Laas Dhiig,9.968126733,43.1859091
Awdal,Borama,Qulujeed,10.09008991,43.01132367
Awdal,Borama,Sheekh Cismaan,9.947871452,43.17457668
Awdal,Borama,Site Waber Ama Site Hadi,9.955238134,43.15141622
Bari,Bossaso,100 Buush,11.2841803,49.1682245
Bari,Bossaso,Absame,11.2830291,49.195227
Bari,Bossaso,Ajuuraan,11.2630406,49.2040292
Bari,Bossaso,Al-Khayr,11.2674577,49.2027228
Bari,Bossaso,Banaadir,11.273682,49.2082644
Bari,Bossaso,Biyo Kulule,11.2682869,49.2053168
Bari,Bossaso,Buula Eeley,11.2630851,49.2077086
Bari,Bossaso,Buulo Mingis,11.2800193,49.2007036
Bari,Bossaso,Buurgaabo,11.2697891,49.2054582
Bari,Bossaso,Farjano,11.2625476,49.2066074
Bari,Bossaso,New Biyo Kulule,11.2675952,49.207156
Bari,Bossaso,Raf Iyo Raaxo,11.2663978,49.1914499
Bari,Bossaso,Saylada Xoolaha,11.2581319,49.1992338
Bari,Bossaso,Shabeelle,11.2708172,49.2048283
Bari,Bossaso,Shirkow,11.2655553,49.2111136
Bari,Bossaso,Suweyto,11.2896017,49.187256
Bari,Bossaso,Tawakal,11.2820171,49.165783
Bari,Bossaso,Tuurjaale,11.2739135,49.1865834
Bari,Bossaso,Waaberi,11.2697774,49.1958122
Bari,Bossaso,Wadajir,11.2704889,49.2112903
Bari,Bossaso,Xaadoole,11.2752897,49.1701774
Bari,Bossaso,Xafatu Carab,11.2869694,49.1785813
Hiraan,Bulo Burto,Farsamada,3.8572544,45.578201
Hiraan,Bulo Burto,Madiino,3.849192,45.5587407
Togdheer,Burco,18 May A (Kurlibaax),9.4452717,45.5372496
Togdheer,Burco,Alla Aamin,9.4354185,45.4976099
Togdheer,Burco,Barwaaqo,9.4730491,45.5233223
Togdheer,Burco,Durdur ( Daan-Bari),9.5622437,45.5762437
Togdheer,Burco,Guryasamo,9.3653375,45.5231553
Togdheer,Buuhoodle,Balidocol,8.267937922,46.38380743
Togdheer,Buuhoodle,Darasalaam,8.56899831,46.36201768
Togdheer,Buuhoodle,Dhilaalo,8.4415,46.4656803
Togdheer,Buuhoodle,Galooley,8.520434165,46.45922122
Togdheer,Buuhoodle,Gocondhaale,8.56861946,46.32029854
Togdheer,Buuhoodle,Goljano,8.654505218,46.56696136
Togdheer,Buuhoodle,Horufadhi,8.580127869,46.40210592
Togdheer,Buuhoodle,Kaarto Habreed,8.666595791,46.21541967
Togdheer,Buuhoodle,Maroodijeex,8.417051689,46.38818489
Togdheer,Buuhoodle,Meygaagle,8.472685131,46.29147964
Togdheer,Buuhoodle,Riiga Faarax Buray,8.2198245,46.3551223
Togdheer,Buuhoodle,Shangale,8.284092425,46.31634026
Togdheer,Buuhoodle,Tog Barwaaqo,8.536316423,46.36617124
Togdheer,Buuhoodle,Xadhaadhan,8.290204,46.1427024
Togdheer,Buuhoodle,Xarunta Xerta Buhodle,8.2473127,46.3481966
Bay,Buur Hakaba,Aye Dhurey,2.7876373,44.0692244
Bay,Buur Hakaba,Degdheer,2.7760342,44.0782933
Bay,Buur Hakaba,Masuusow,2.8133353,44.0774092
Bay,Buur Hakaba,Misaare,2.7788534,44.0819337
Bay,Buur Hakaba,Reebey,2.7788723,44.0818947
Galgaduud,Cabudwaaq,Ajuuraan,6.2463424,46.231134
Galgaduud,Cabudwaaq,Alla Amin,6.2494813,46.2392961
Galgaduud,Cabudwaaq,Arladi IDP,6.2251485,46.2366623
Galgaduud,Cabudwaaq,Baal Goray,6.2371801,46.2456851
Galgaduud,Cabudwaaq,Badbaado,6.2564994,46.2051662
Galgaduud,Cabudwaaq,Baligarasle,6.2703355,46.2122817
Galgaduud,Cabudwaaq,Baligiish,6.2745419,46.2297058
Galgaduud,Cabudwaaq,Barre Dheere,6.2520979,46.208725
Galgaduud,Cabudwaaq,Danwadaag,6.2500023,46.2615373
Galgaduud,Cabudwaaq,Daryeel,6.2517713,46.239751
Galgaduud,Cabudwaaq,Dayacan,6.2372314,46.1824934
Galgaduud,Cabudwaaq,Farjano,6.2277044,46.1976715
Galgaduud,Cabudwaaq,Guulwade,6.2665993,46.2103024
Galgaduud,Cabudwaaq,Jaqafaabir,6.2518674,46.2422999
Galgaduud,Cabudwaaq,Kaxandhaale,6.2385832,46.2410364
Galgaduud,Cabudwaaq,Kulmiye,6.2753182,46.2382454
Galgaduud,Cabudwaaq,Laandheer,6.2316572,46.2085255
Galgaduud,Cabudwaaq,Laanjabane,6.2462823,46.243221
Galgaduud,Cabudwaaq,Mahad Alle,6.2787769,46.2388744
Galgaduud,Cabudwaaq,Mareere,6.2569964,46.1984296
Galgaduud,Cabudwaaq,Nasiye,6.2265437,46.2162686
Galgaduud,Cabudwaaq,Qabri xaaji,6.2171495,46.2287711
Galgaduud,Cabudwaaq,Qalaanqale,6.2826619,46.2314675
Galgaduud,Cabudwaaq,Qorraxeey,6.2737982,46.2511696
Galgaduud,Cabudwaaq,Salaama,6.262116,46.193178
Galgaduud,Cabudwaaq,Samsam,6.2743984,46.2265516
Galgaduud,Cabudwaaq,Sanaag,6.2806218,46.1972034
Galgaduud,Cabudwaaq,Somaliwayn,6.280729,46.2251002
Galgaduud,Cabudwaaq,Tawakal,6.2818157,46.2502135
Galgaduud,Cabudwaaq,Wadajir,6.2517859,46.2041424
Galgaduud,Cabudwaaq,Xurfada,6.2537048,46.1997143
Galgaduud,Cadaado,Badbaado,6.1311963,46.6092433
Galgaduud,Cadaado,Bari,6.1254275,46.6421877
Galgaduud,Cadaado,Ceymis,6.1383916,46.6308657
Galgaduud,Cadaado,Daryeel,6.1281066,46.6232614
Galgaduud,Cadaado,Hebed,6.1343273,46.6405159
Galgaduud,Cadaado,Hilac,6.1196099,46.6386361
Galgaduud,Cadaado,Karama/Camp,6.1425512,46.6186426
Galgaduud,Cadaado,Kulmiye,6.1473618,46.6406754
Galgaduud,Cadaado,Mudug,6.1218828,46.6406027
Galgaduud,Cadaado,Xara Dheere,6.1278493,46.6232793
Sool,Caynabo,Aamusoo Dhuuq,,
Sool,Caynabo,Cawaale,8.9262291,46.2595591
Sool,Caynabo,Caynaba A,8.957761361,46.41491358
Sool,Caynabo,Caynaba B,8.947051483,46.39991156
Sool,Caynabo,God Dhuub,8.940026905,46.57165439
Sool,Caynabo,Taygara,9.091799125,46.6902323
Sool,Caynabo,Yamayska,8.9363342,46.6349836
Sanaag,Ceel Afweyn,Buurdhuubo,9.932824025,47.21324498
Sanaag,Ceel Afweyn,Ceel Midgaan,9.726497875,47.11222303
Sanaag,Ceel Afweyn,Fadhi Gaab / Fadhigaab,9.661387825,47.006501
Sanaag,Ceel Afweyn,Karasharka,9.4670522,46.84106383
Sanaag,Ceel Afweyn,Mijo Maqarshe,9.48705825,46.8612322
Sanaag,Ceel Afweyn,Wargumbi,9.584258825,46.94766425
Bakool,Ceel Barde,Buulo Shiidle,4.8228919,43.6606564
Bakool,Ceel Barde,Gargaar,4.8259044,43.6712316
Bakool,Ceel Barde,Wargadhweyne,4.8034106,43.662551
Gedo,Ceel Waaq,A1,2.7741052,41.0252767
Gedo,Ceel Waaq,Bardera,2.809485,41.01926667
Gedo,Ceel Waaq,Bula Garas,2.7811761,41.0012011
Gedo,Ceel Waaq,Caracase,2.795507,41.021283
Gedo,Ceel Waaq,Dirhara,2.778417,41.035246
Gedo,Ceel Waaq,Dudun Dheer,2.776695,41.012773
Gedo,Ceel Waaq,Gambia,2.7912355,41.0010397
Gedo,Ceel Waaq,Malka Hida,2.796843,40.989758
Gedo,Ceel Waaq,Qoryole,2.791930867,40.99624612
Sanaag,Ceerigaabo,Bendersamo / Guryasamo / Goryosamo,10.51993702,48.39893091
Sanaag,Ceerigaabo,Booda Cadde,9.878801223,47.66575559
Sanaag,Ceerigaabo,Caydhaha,10.60160683,47.36502575
Sanaag,Ceerigaabo,Darasalam / Darasalaam,10.29368828,47.87637851
Sanaag,Ceerigaabo,Dhanaha,10.61207226,48.36139588
Sanaag,Ceerigaabo,Guryasamo / Dayacan / Xafad Somal,10.61586512,47.36112588
Sanaag,Ceerigaabo,Jiicanyo,10.39964365,48.38864962
Sanaag,Ceerigaabo,Shimbiraale,10.14113919,47.90708286
Sanaag,Ceerigaabo,Waridaad,9.703237996,48.05859205
Sanaag,Ceerigaabo,Xafad Somali / Guryasamo / Xafad Somal,10.6203027,47.37289296
Galgaduud,Dhuusamarreeb,Alcadalla,5.5227791,46.3830627
Galgaduud,Dhuusamarreeb,Amano,5.5347153,46.3973227
Galgaduud,Dhuusamarreeb,Arlaadi,5.5497362,46.3854414
Galgaduud,Dhuusamarreeb,Caagan camp,5.5244333,46.3895433
Galgaduud,Dhuusamarreeb,Ceel Xaamud,5.5290924,46.3936233
Galgaduud,Dhuusamarreeb,Dawacoley,5.5455936,46.3687797
Galgaduud,Dhuusamarreeb,Hanaano,5.524565,46.387035
Galgaduud,Dhuusamarreeb,Hayaan,5.5330833,46.3959009
Galgaduud,Dhuusamarreeb,Hillaac Camp,5.5504287,46.3759927
Galgaduud,Dhuusamarreeb,Ilbir,5.5525021,46.387175
Galgaduud,Dhuusamarreeb,Oog Camp,5.5446049,46.3844535
Galgaduud,Dhuusamarreeb,Qaydley Camp,5.5313158,46.3708598
Galgaduud,Dhuusamarreeb,Shabeelle Camp,5.5452572,46.380993
Galgaduud,Dhuusamarreeb,Xera Military,5.5269949,46.3852905
Galgaduud,Dhuusamarreeb,Af-Cagaag,5.2958239,45.8924291
Galgaduud,Dhuusamarreeb,Al Caddaala,5.3039871,45.8880492
Galgaduud,Dhuusamarreeb,Barakeye,5.3081289,45.8708641
Galgaduud,Dhuusamarreeb,Barwaqo,5.3048355,45.8777718
Galgaduud,Dhuusamarreeb,Celjiroow,5.3173466,45.917331
Galgaduud,Dhuusamarreeb,Dabely,5.3366841,45.8808592
Galgaduud,Dhuusamarreeb,Dalab,5.3243417,45.86576
Galgaduud,Dhuusamarreeb,Damanyo,5.2997776,45.8884005
Galgaduud,Dhuusamarreeb,Danwadaag,5.3066454,45.8601762
Galgaduud,Dhuusamarreeb,Dhagaqal,5.3201157,45.8802116
Galgaduud,Dhuusamarreeb,Dhegaweyne,5.3214516,45.8705166
Galgaduud,Dhuusamarreeb,Dulmi Diid,5.3227683,45.8618833
Galgaduud,Dhuusamarreeb,Farey,5.3056088,45.8977888
Galgaduud,Dhuusamarreeb,Joolaal,5.2852914,45.8676045
Galgaduud,Dhuusamarreeb,Gaashaan,5.3274667,45.8511912
Galgaduud,Dhuusamarreeb,Harqabowe,5.3134137,45.9097706
Galgaduud,Dhuusamarreeb,Harwanag,5.2857037,45.8845282
Galgaduud,Dhuusamarreeb,Istarlin,5.32036,45.888168
Galgaduud,Dhuusamarreeb,Kolleej,5.303519,45.8903624
Galgaduud,Dhuusamarreeb,Koryeeri,5.3010418,45.8895738
Galgaduud,Dhuusamarreeb,Labixaluul,5.310667,45.8665436
Galgaduud,Dhuusamarreeb,Qamar,5.3206323,45.8717978
Galgaduud,Dhuusamarreeb,Qotiro,5.3087514,45.8854483
Galgaduud,Dhuusamarreeb,Siligle,5.292216,45.8830999
Galgaduud,Dhuusamarreeb,Ulo Dheer,5.3341317,45.8608617
Galgaduud,Dhuusamarreeb,Xagay,5.3245433,45.8629079
Galgaduud,Dhuusamarreeb,Xareed,5.3024178,45.8909078
Bay,Diinsoor,Biile 1,2.4170469,42.9691482
Bay,Diinsoor,Biile 2,2.415165,42.9702117
Bay,Diinsoor,Buur Madow,2.4078223,42.9852233
Bay,Diinsoor,Doger Hosle,2.41529987,42.97719543
Bay,Diinsoor,Jilelow,2.41999848,42.96971372
Bay,Diinsoor,Kananax,2.40699598,42.98342999
Bay,Diinsoor,Korka Mare,2.42020321,42.9674291
Bay,Diinsoor,Qot Qot,2.40036819,42.98468842
Bay,Diinsoor,Ramadhabi,2.41560269,42.98306593
Bay,Diinsoor,Raxole,2.40863655,42.98329525
Bay,Diinsoor,Sakow,2.407107,42.96162781
Bay,Diinsoor,Tuni,2.39994508,42.97980411
Bay,Diinsoor,Waraaja,2.4002517,42.98536
Bay,Diinsoor,Yaqashid,2.40707125,42.96535158
Gedo,Doolow,Kabasa,4.16162009,42.0950819
Gedo,Doolow,Kaxareey,4.1280916,42.0711615
Gedo,Doolow,Ladan,4.1541509,42.107522
Gedo,Doolow,Qansaxley,4.142556695,42.06347492
Gedo,Doolow,Qurdubey,4.180301667,42.12915333
Mudug,Gaalkacyo,Afarta Kaare,6.76134203,47.42076079
Mudug,Gaalkacyo,Alla'Aamin 1,6.8468548,47.4254644
Mudug,Gaalkacyo,Alla'Aamin 2,6.8469886,47.4251915
Mudug,Gaalkacyo,Ayah,6.8102372,47.3915036
Mudug,Gaalkacyo,Bakool Sare,6.77294,47.4038395
Mudug,Gaalkacyo,Barwaqo,6.7896222,47.4009245
Mudug,Gaalkacyo,Buulo Agoon,6.8486733,47.4265933
Mudug,Gaalkacyo,Buulo Bacleey,6.769027,47.4368082
Mudug,Gaalkacyo,Buulo Bidaar,6.7654155,47.44143269
Mudug,Gaalkacyo,Buulo Kontrool,6.7625809,47.4264877
Mudug,Gaalkacyo,Danwadag,6.837239,47.4154913
Mudug,Gaalkacyo,Dayax 1,6.8087367,47.4032229
Mudug,Gaalkacyo,Farxaan,7.2949691,47.5729848
Mudug,Gaalkacyo,Halabokhad,6.853588,47.4127335
Mudug,Gaalkacyo,Hilaal Yamen,6.7919786,47.4291027
Mudug,Gaalkacyo,Jeexdin,6.8650996,47.5311124
Mudug,Gaalkacyo,Khayrdoon,7.2292904,47.5294792
Mudug,Gaalkacyo,Kulmiye,6.7692606,47.4109578
Mudug,Gaalkacyo,Kulmiye - Balli Abaar,6.8600151,47.4425228
Mudug,Gaalkacyo,Liibaan 1,6.80009344,47.40321059
Mudug,Gaalkacyo,Liibaan 2,6.79807955,47.4000279
Mudug,Gaalkacyo,Madiinas,6.862092,47.4414587
Mudug,Gaalkacyo,Margaago,7.2136934,47.5377045
Mudug,Gaalkacyo,Mudug Sare,6.8206477,47.4115027
Mudug,Gaalkacyo,Mustaqbal 1,6.86440393,47.44225118
Mudug,Gaalkacyo,Mustaqbal 2A,6.80475643,47.41290041
Mudug,Gaalkacyo,Mustaqbal 2B,6.8491231,47.4234933
Mudug,Gaalkacyo,Najax,6.8159879,47.3882554
Mudug,Gaalkacyo,New Donyale,6.84417154,47.41571374
Mudug,Gaalkacyo,Orshe,6.83508225,47.42332165
Mudug,Gaalkacyo,Ramaas,7.3658069,47.6446971
Mudug,Gaalkacyo,Raysqaboobe,6.8587628,47.4496509
Mudug,Gaalkacyo,Salaam 2,6.8531592,47.4387756
Mudug,Gaalkacyo,Salama 1,6.8512778,47.4401839
Mudug,Gaalkacyo,Samawada 1,6.7741327,47.4060771
Mudug,Gaalkacyo,Samawade 2,6.7819413,47.4005702
Mudug,Gaalkacyo,Syl,6.79654891,47.38905171
Mudug,Gaalkacyo,Talo Cad,6.8690574,47.4446417
Mudug,Gaalkacyo,Tawakal,6.8129672,47.4580959
Mudug,Gaalkacyo,Waaya Arag,6.8376288,47.4126412
Mudug,Gaalkacyo,Wadajir,6.7936334,47.3887857
Mudug,Gaalkacyo,Warshad Galay 2,6.8099485,47.400982
Mudug,Gaalkacyo,Warshad Galey,6.7687058,47.4212574
Mudug,Gaalkacyo,Wayo Arag Two,6.81284012,47.38978277
Mudug,Gaalkacyo,Al Nasiib 1,6.6926727,47.4349311
Mudug,Gaalkacyo,Alanley,6.7236252,47.442074
Mudug,Gaalkacyo,Alcadaala,6.6935282,47.4350472
Mudug,Gaalkacyo,Alkharash,6.716768,47.417335
Mudug,Gaalkacyo,Arafat,6.7307227,47.4347028
Mudug,Gaalkacyo,Baantu 2,6.756315,47.437857
Mudug,Gaalkacyo,Badbaado,6.6882969,47.4353169
Mudug,Gaalkacyo,Baxsan 1,6.764857,47.4445836
Mudug,Gaalkacyo,Baxsan 2,6.7665033,47.4331017
Mudug,Gaalkacyo,Buulo Ajuuran,6.6928759,47.4340912
Mudug,Gaalkacyo,Buulo Bishaaro,6.760461,47.4494176
Mudug,Gaalkacyo,Buulonooto,6.7528514,47.4485004
Mudug,Gaalkacyo,Sahal,6.74033,47.4414455
Mudug,Gaalkacyo,Ceel Gaab,6.7258586,47.4422353
Mudug,Gaalkacyo,Ceel Gaab 2,6.6952052,47.4306652
Mudug,Gaalkacyo,Ciise,6.7650998,47.4359431
Mudug,Gaalkacyo,Danyar,6.692172,47.4305046
Mudug,Gaalkacyo,Daryeel,6.7614277,47.4266483
Mudug,Gaalkacyo,Deegan,6.7613431,47.4271559
Mudug,Gaalkacyo,Dooxa Mudugs,6.7614568,47.4266278
Mudug,Gaalkacyo,Galad,6.727699921,47.44411343
Mudug,Gaalkacyo,Gargaar,6.752449,47.437857
Mudug,Gaalkacyo,Gurmad,6.7636688,47.4897242
Mudug,Gaalkacyo,Guuleed,6.72949,47.423975
Mudug,Gaalkacyo,Taxane,6.7619047,47.4379071
Mudug,Gaalkacyo,Hayaan Bacadweyn,6.7637453,47.4380478
Mudug,Gaalkacyo,Hayan,6.6925273,47.4344312
Mudug,Gaalkacyo,Hilaal Yaman,6.6920685,47.4336121
Mudug,Gaalkacyo,Hiraan 2,6.754478,47.43755
Mudug,Gaalkacyo,Hiraan 4,6.6921145,47.4392009
Mudug,Gaalkacyo,Horseed,6.7563257,47.4427585
Mudug,Gaalkacyo,Isxaaq,6.753561194,47.41970784
Mudug,Gaalkacyo,Janale,6.7180851,47.4211587
Mudug,Gaalkacyo,Liibaan,6.7248612,47.4417377
Mudug,Gaalkacyo,Mahad Alle,6.6963668,47.4294427
Mudug,Gaalkacyo,Midnimo,6.7567147,47.4447449
Mudug,Gaalkacyo,Mudugs,6.6969982,47.4306872
Mudug,Gaalkacyo,Qorahey1,6.6944167,47.3850768
Mudug,Gaalkacyo,Sirmaqabo,6.6919824,47.4372731
Mudug,Gaalkacyo,Somaliwayn,6.7604613,47.4266769
Mudug,Gaalkacyo,Wadataal,6.7251165,47.4396602
Mudug,Gaalkacyo,Xaliye ,6.6916932,47.433395
Mudug,Gaalkacyo,Cawaale,6.7593054,47.4428467
Mudug,Gaalkacyo,Socdaal,6.6914757,47.4356742
Mudug,Gaalkacyo,Takulo,6.6917034,47.3930462
Mudug,Gaalkacyo,Baantu 3,6.7641356,47.4338741
Mudug,Gaalkacyo,Baay Iyo Bakool,6.6917325,47.4405924
Mudug,Gaalkacyo,Bardaale,6.6997308,47.4289731
Mudug,Gaalkacyo,Bari Mudug,6.7620938,47.4451317
Mudug,Gaalkacyo,Bulojawan 1,6.6932167,47.4380138
Mudug,Gaalkacyo,Bulojawan 2,6.6932167,47.43801
Mudug,Gaalkacyo,Buulo Ayaan,6.74491,47.426975
Mudug,Gaalkacyo,Buurcad,6.6918875,47.4353393
Mudug,Gaalkacyo,Golol,6.7297019,47.4447158
Mudug,Gaalkacyo,Cays Dheere,6.6913704,47.4350157
Mudug,Gaalkacyo,Fatxi,6.6896407,47.4367183
Mudug,Gaalkacyo,Ciise 1,6.705951188,47.43179815
Mudug,Gaalkacyo,Ibraahim,6.7554239,47.4235422
Mudug,Gaalkacyo,Qoryooleey,6.6931038,47.4340311
Mudug,Gaalkacyo,Sahan 1,6.7308617,47.42945
Mudug,Gaalkacyo,Sahan 2,6.707262914,47.43448036
Mudug,Gaalkacyo,Ifiye,6.7532737,47.4194648
Mudug,Gaalkacyo,Fiqi,6.7286991,47.4490294
Mudug,Gaalkacyo,Dayah,6.7276943,47.4345641
Mudug,Gaalkacyo,Al amin ( Gas),6.687544,47.434428
Mudug,Gaalkacyo,Karaama,6.756521,47.4204489
Mudug,Gaalkacyo,Xarardheere,6.6930079,47.3944148
Mudug,Gaalkacyo,Rinjileey,6.7271209,47.4780032
Mudug,Galdogob,Al Rahmo,7.1856109,47.2642939
Mudug,Galdogob,Allaale,7.049026,46.9878092
Mudug,Galdogob,Barwaaqo,7.0403803,47.0108803
Mudug,Galdogob,Dan Wadaag 2,7.1654199,47.2556026
Mudug,Galdogob,Daryeel Galdogob,7.0421742,47.0194671
Mudug,Galdogob,Himilo,7.1847618,47.2262866
Mudug,Galdogob,Hodan,7.0435586,47.0176639
Mudug,Galdogob,Hoodo,7.1819341,47.2305108
Mudug,Galdogob,Horseed,7.1875514,47.2542309
Mudug,Galdogob,Kalkaal,7.1925545,47.2494126
Mudug,Galdogob,Salaama,7.0342176,47.0310001
Mudug,Galdogob,Tawakal,7.2475257,47.1223564
Mudug,Galdogob,Wadajir,7.0420848,47.0082564
Gedo,Garbahaarey,Amin,3.3343303,42.2118151
Gedo,Garbahaarey,Aqala Aar,3.3169999,42.2189098
Gedo,Garbahaarey,Badbado,3.3342594,42.2076056
Gedo,Garbahaarey,Dhure,3.3348017,42.2316138
Gedo,Garbahaarey,Gogol,3.3282286,42.2357799
Gedo,Garbahaarey,Gubo,3.3377769,42.2276935
Gedo,Garbahaarey,Hartacad,3.3181967,42.2024936
Gedo,Garbahaarey,Libaxlow,3.3390588,42.2242108
Gedo,Garbahaarey,Sigaalow,3.33791,42.22332
Gedo,Garbahaarey,Taftataag,3.3373555,42.2119603
Gedo,Garbahaarey,Towfiq,3.3381485,42.2154121
Gedo,Garbahaarey,Waberi,3.3294716,42.2357697
Gedo,Garbahaarey,Warsan,3.3412306,42.2197648
Nugaal,Garoowe,Ajuuran,8.4173137,48.5146851
Nugaal,Garoowe,Al Amin,8.3953837,48.5191823
Nugaal,Garoowe,Alkhayraat,8.4011523,48.5133537
Nugaal,Garoowe,Allawakiil,8.4144903,48.5085273
Nugaal,Garoowe,Banaadir,8.4151933,48.50626
Nugaal,Garoowe,Buundo,8.4136001,48.5068781
Nugaal,Garoowe,Camp 1,8.4148619,48.5076494
Nugaal,Garoowe,Camp 4,8.4149266,48.5070393
Nugaal,Garoowe,Hiiraan,8.4151738,48.5062191
Nugaal,Garoowe,Jilab 3,8.3938007,48.5219057
Nugaal,Garoowe,Jilab 4,8.394902,48.5215294
Nugaal,Garoowe,Jilab 5,8.3949117,48.5215233
Nugaal,Garoowe,Jilab 6,8.3968181,48.5197251
Nugaal,Garoowe,Jowl Two,8.409529,48.5116172
Nugaal,Garoowe,Kaamka Jiingadda,8.4144625,48.5114847
Nugaal,Garoowe,Kaamka Riiga,8.41267,48.5049809
Nugaal,Garoowe,Laan Cali Firin,8.3901387,48.5177643
Nugaal,Garoowe,Lafo Barkato,8.413605,48.5068917
Nugaal,Garoowe,Marko,8.4144366,48.5050063
Nugaal,Garoowe,Muuse Rootile,8.413511,48.5047818
Nugaal,Garoowe,Shabeelle,8.4182326,48.510004
Nugaal,Garoowe,Siliga,8.4168298,48.5084359
Nugaal,Garoowe,Tawakal,8.3956067,48.5188045
Nugaal,Garoowe,Waaberi,8.401412,48.5115482
Nugaal,Garoowe,Yaman,8.4149094,48.5083174
Woqooyi Galbeed,Hargeysa,Ayax 1 / Ayax,9.533610746,44.03983323
Woqooyi Galbeed,Hargeysa,Ayax 1B,9.532614545,44.04221962
Woqooyi Galbeed,Hargeysa,Ayax 2,9.535848011,44.03535347
Woqooyi Galbeed,Hargeysa,Ayax 3 / Ayah Three,9.524261436,44.02309031
Woqooyi Galbeed,Hargeysa,Ayax 3B,9.528612812,44.02819923
Woqooyi Galbeed,Hargeysa,Ayax 4,9.516563714,44.02993566
Woqooyi Galbeed,Hargeysa,Barasame / Baro Samo,9.008853633,43.9995791
Woqooyi Galbeed,Hargeysa,Daami B,9.573864976,44.06839702
Woqooyi Galbeed,Hargeysa,Digaale,9.512962075,44.12051975
Woqooyi Galbeed,Hargeysa,Jimcaale,9.595279337,44.09455325
Woqooyi Galbeed,Hargeysa,Malawle,9.575484866,43.9802297
Woqooyi Galbeed,Hargeysa,Mandheera 1,9.895877131,44.70916031
Woqooyi Galbeed,Hargeysa,Mandheera 2,9.896837478,44.70894585
Woqooyi Galbeed,Hargeysa,Maxamed Mooge A,9.539626045,44.10887037
Woqooyi Galbeed,Hargeysa,Maxamed Mooge B / Mohamed Mooge B,9.5374147,44.103124
Woqooyi Galbeed,Hargeysa,Naasahablood A / Naaso_Hablood,9.570395636,44.10155631
Woqooyi Galbeed,Hargeysa,Naasahablood B / Naasa Hablood B,9.58807,44.14691
Woqooyi Galbeed,Hargeysa,Qalax,9.460739895,44.04710106
Woqooyi Galbeed,Hargeysa,Salaxley,9.0178827,44.1953442
Woqooyi Galbeed,Hargeysa,Stadium / Stadium Ka,9.552026782,44.06108491
Woqooyi Galbeed,Hargeysa,State House,9.559200634,44.04056936
Mudug,Hobyo,Barwaaqo,5.3554329,48.5289578
Mudug,Hobyo,Danwadaag,5.3487461,48.5271861
Lower Juba,Jamaame,Farwaamo Idp,-0.0436821,42.5859102
Lower Juba,Jamaame,Towfiiq  Idp,-0.0412412,42.5938826
Hiraan,Jalalaqsi,Badbaado,3.3795767,45.5957564
Hiraan,Jalalaqsi,Barwaaqo,3.3723189,45.5958122
Hiraan,Jalalaqsi,Bulsho,3.3765546,45.6165203
Hiraan,Jalalaqsi,Iftin,3.3712908,45.6065972
Hiraan,Jalalaqsi,Libilow,3.3898427,45.5925614
Hiraan,Jalalaqsi,Tawakal,3.3873957,45.6003233
Hiraan,Jalalaqsi,Wadajir,3.3741856,45.6129569
Middle Shabelle,Jowhar,Alla Aamin,2.7836793,45.4892892
Middle Shabelle,Jowhar,Alla tuug,2.7761188,45.486162
Middle Shabelle,Jowhar,Alle Suge IDP,2.7728337,45.4874999
Middle Shabelle,Jowhar,Badacas 1,2.7858007,45.4912654
Middle Shabelle,Jowhar,Birimo,2.7496033,45.5150183
Middle Shabelle,Jowhar,Biyaso,2.772263,45.5058327
Middle Shabelle,Jowhar,Dan-wadaag,2.7778769,45.5274389
Middle Shabelle,Jowhar,Daryeel,2.7800906,45.5214617
Middle Shabelle,Jowhar,Isnai,2.7743518,45.5035926
Middle Shabelle,Jowhar,Jiliyale,2.7757296,45.5051322
Middle Shabelle,Jowhar,Sheikh Omar,2.7751856,45.511678
Middle Shabelle,Jowhar,Sheikh Oyaaye 1,2.7785255,45.5269576
Middle Shabelle,Jowhar,Tawakal,2.7767771,45.5053973
Middle Shabelle,Jowhar,Towfiq,2.8813247,45.4793067
Lower Juba,Kismaayo,Abaq Banbow,-0.360163,42.5297703
Lower Juba,Kismaayo,Adat Gari,-0.3398079,42.5640491
Lower Juba,Kismaayo,Ahmed Bin Xambal,-0.3662376,42.5467132
Lower Juba,Kismaayo,Alan Oor,-0.3294446,42.4970851
Lower Juba,Kismaayo,Alan Sakuur,-0.3183047,42.4648986
Lower Juba,Kismaayo,Alhamdu,-0.3368244,42.529426
Lower Juba,Kismaayo,Alla Suge,-0.3572713,42.531645
Lower Juba,Kismaayo,Alle Aamin,-0.3596942,42.5338175
Lower Juba,Kismaayo,Alle Bari,-0.3372633,42.5379517
Lower Juba,Kismaayo,Alle Qabe,-0.3552995,42.5312875
Lower Juba,Kismaayo,Amuudiyow,-0.3641031,42.5272304
Lower Juba,Kismaayo,Anjeel,-0.3498891,42.5258505
Lower Juba,Kismaayo,Arare,-0.3372186,42.5332016
Lower Juba,Kismaayo,Bacaad,-0.3402084,42.5642912
Lower Juba,Kismaayo,Badar 1,-0.3542754,42.5497272
Lower Juba,Kismaayo,Badar 2,-0.3542146,42.5496028
Lower Juba,Kismaayo,Badbaado 1,-0.3439079,42.5259107
Lower Juba,Kismaayo,Badbaado 2,-0.357121,42.5290466
Lower Juba,Kismaayo,Bahane,-0.3406008,42.5619636
Lower Juba,Kismaayo,Bakeeele,-0.3649387,42.5531362
Lower Juba,Kismaayo,Baladu Rahma,-0.3314866,42.5690588
Lower Juba,Kismaayo,Banaadir,-0.372171,42.5212886
Lower Juba,Kismaayo,Bangeni,-0.3421186,42.5293532
Lower Juba,Kismaayo,Barako,-0.3664778,42.5470418
Lower Juba,Kismaayo,Barawe,-0.340506,42.5636525
Lower Juba,Kismaayo,Barawe 2,-0.3660214,42.5499342
Lower Juba,Kismaayo,Barawe 3,-0.3320801,42.5373228
Lower Juba,Kismaayo,Bariga Dhaxe,-0.371128,42.5203053
Lower Juba,Kismaayo,Barwaaqo,-0.3364481,42.5298132
Lower Juba,Kismaayo,Bass 1,-0.3398956,42.5607873
Lower Juba,Kismaayo,Bass 2,-0.3385973,42.5600006
Lower Juba,Kismaayo,Bass 3,-0.3361654,42.5590132
Lower Juba,Kismaayo,Bilicsan,-0.2980726,42.4038795
Lower Juba,Kismaayo,Biyole,-0.3410015,42.5685894
Lower Juba,Kismaayo,Borow,-0.3398269,42.5632182
Lower Juba,Kismaayo,Buale,-0.3352848,42.5503313
Lower Juba,Kismaayo,Bula Garasey,-0.25550702,42.57829769
Lower Juba,Kismaayo,Bulo Bartire Idp,-0.2012949,42.5825453
Lower Juba,Kismaayo,Bulo Yanyo,-0.3393033,42.5275138
Lower Juba,Kismaayo,Bulsho,-0.3659374,42.5475531
Lower Juba,Kismaayo,Burgaan,-0.3423876,42.5610244
Lower Juba,Kismaayo,Buula Banaan,-0.3525005,42.5235516
Lower Juba,Kismaayo,Buulo Fatura,-0.35283118,42.52533353
Lower Juba,Kismaayo,Buulo Gaduud,-0.3563547,42.5330336
Lower Juba,Kismaayo,Buulo Hussein,-0.3614638,42.5506874
Lower Juba,Kismaayo,Buurdheer,-0.3377115,42.5429149
Lower Juba,Kismaayo,Camp Haji,-0.3689782,42.5292071
Lower Juba,Kismaayo,Camp 4,-0.3378023,42.5340754
Lower Juba,Kismaayo,Carmaale,-0.341494,42.5681048
Lower Juba,Kismaayo,Danwadaag,-0.3708641,42.5214799
Lower Juba,Kismaayo,Danyar,-0.3507801,42.5238191
Lower Juba,Kismaayo,Daryeel,-0.3483487,42.5404828
Lower Juba,Kismaayo,Dharkanley,-0.3613675,42.550431
Lower Juba,Kismaayo,Dhigaal,-0.3587121,42.5240277
Lower Juba,Kismaayo,Dhumaase,-0.33862,42.5591458
Lower Juba,Kismaayo,Dudu,-0.3506529,42.5293088
Lower Juba,Kismaayo,Dulcad,-0.3440863,42.5274351
Lower Juba,Kismaayo,Elcad,-0.3457829,42.5263903
Lower Juba,Kismaayo,Eljale 1,-0.2259265,42.5950084
Lower Juba,Kismaayo,Eljale 2,-0.2198487,42.5926245
Lower Juba,Kismaayo,Farhan,-0.3399514,42.5625815
Lower Juba,Kismaayo,Farhantwo,-0.3391823,42.54793
Lower Juba,Kismaayo,Fathi,-0.3446164,42.5264953
Lower Juba,Kismaayo,Feer Sagara,-0.3640453,42.5247408
Lower Juba,Kismaayo,Gabow,-0.3739357,42.5188607
Lower Juba,Kismaayo,Galayrada,-0.3393033,42.5275138
Lower Juba,Kismaayo,Galbet,-0.3569177,42.5306071
Lower Juba,Kismaayo,Galey,-0.3669059,42.5499586
Lower Juba,Kismaayo,Galool-Yaryar,-0.2493208,42.4633011
Lower Juba,Kismaayo,Gargaar,-0.3323159,42.5646765
Lower Juba,Kismaayo,Gasho,-0.2565852,42.4685194
Lower Juba,Kismaayo,Geldone,-0.3637509,42.5510423
Lower Juba,Kismaayo,Gimey,-0.3406999,42.5596612
Lower Juba,Kismaayo,Gubakibir,-0.3545579,42.52554844
Lower Juba,Kismaayo,Gududey,-0.3338761,42.5671363
Lower Juba,Kismaayo,Gumaini,-0.3351887,42.5295651
Lower Juba,Kismaayo,Habaaqa,-0.3513682,42.5324103
Lower Juba,Kismaayo,Hadafow,-0.27895,42.4817508
Lower Juba,Kismaayo,Hadweyne,-0.3696538,42.5235886
Lower Juba,Kismaayo,Haidafin,-0.3581414,42.5305491
Lower Juba,Kismaayo,Haji Bola,-0.3407391,42.5628582
Lower Juba,Kismaayo,Hajiweyne Idp ,-0.1747535,42.5801912
Lower Juba,Kismaayo,Halane,-0.3403151,42.5622742
Lower Juba,Kismaayo,Halgan,-0.3396202,42.5608019
Lower Juba,Kismaayo,Halgan 2,-0.3403886,42.5615684
Lower Juba,Kismaayo,Hamdi 2,-0.341854,42.5616238
Lower Juba,Kismaayo,Hamdi 3,-0.3420581,42.5619101
Lower Juba,Kismaayo,Hangish,-0.3658802,42.5487718
Lower Juba,Kismaayo,Haraac,-0.355299,42.5357405
Lower Juba,Kismaayo,Harbole,-0.3300982,42.5658859
Lower Juba,Kismaayo,Hargeysa,-0.3340105,42.5671693
Lower Juba,Kismaayo,Hashi,-0.33582225,42.53336683
Lower Juba,Kismaayo,Hilac,-0.3389767,42.5608433
Lower Juba,Kismaayo,Horiyo,-0.3419461,42.5615402
Lower Juba,Kismaayo,Horseed,-0.332357,42.5695421
Lower Juba,Kismaayo,Indha Badan,-0.3565357,42.5315201
Lower Juba,Kismaayo,Istanbul Idp,-0.2089971,42.5917821
Lower Juba,Kismaayo,Janaa Abdalla,-0.3350579,42.5641319
Lower Juba,Kismaayo,Janey Cabdalla  Idp,0.0274894,42.2892883
Lower Juba,Kismaayo,Jibirti 1,-0.3613944,42.5280094
Lower Juba,Kismaayo,Jibirti 2,-0.3608778,42.5284017
Lower Juba,Kismaayo,Jibril,-0.3372203,42.5331023
Lower Juba,Kismaayo,Jore,-0.3678573,42.5213136
Lower Juba,Kismaayo,Juba,-0.3488131,42.5406292
Lower Juba,Kismaayo,Kaal Modoon,-0.3614134,42.5292452
Lower Juba,Kismaayo,Kalil,-0.3465742,42.5283142
Lower Juba,Kismaayo,Kamatireey,-0.3321464,42.5682292
Lower Juba,Kismaayo,Kanjaron,-0.3443436,42.5253152
Lower Juba,Kismaayo,Kaytoy,-0.3508161,42.5324135
Lower Juba,Kismaayo,Kebo,-0.3662931,42.5498454
Lower Juba,Kismaayo,Khalid 1,-0.3616388,42.5510854
Lower Juba,Kismaayo,Khalid 2,-0.367801,42.5526311
Lower Juba,Kismaayo,Khalid 3,-0.3679952,42.5519285
Lower Juba,Kismaayo,Kooban 2,-0.3344957,42.531144
Lower Juba,Kismaayo,Kulmiye,-0.3439401,42.5419859
Lower Juba,Kismaayo,Lafole,-0.34039491,42.56280248
Lower Juba,Kismaayo,Maankab,-0.364961,42.5252844
Lower Juba,Kismaayo,Magar,-0.3300234,42.5637467
Lower Juba,Kismaayo,Makumani,-0.3588755,42.533246
Lower Juba,Kismaayo,Malaylay,-0.3416697,42.5676373
Lower Juba,Kismaayo,Mandeq,-0.3449721,42.5277942
Lower Juba,Kismaayo,Mano Muufo,-0.3358291,42.5283333
Lower Juba,Kismaayo,Mareerey,-0.3346908,42.5678761
Lower Juba,Kismaayo,Mariino,-0.3661768,42.5505254
Lower Juba,Kismaayo,Misir,-0.3318504,42.5658022
Lower Juba,Kismaayo,Mofi,-0.3329365,42.5643481
Lower Juba,Kismaayo,Mofi 2,-0.3465477,42.5576315
Lower Juba,Kismaayo,Mubarak,-0.3354963,42.5317261
Lower Juba,Kismaayo,Mudul,-0.3665714,42.5448698
Lower Juba,Kismaayo,Mumino Market,-0.3415147,42.5612044
Lower Juba,Kismaayo,Muse Haji,-0.3672895,42.5525543
Lower Juba,Kismaayo,Naftaquur,-0.3368248,42.5632564
Lower Juba,Kismaayo,Nageeye,-0.3416749,42.563799
Lower Juba,Kismaayo,Najax,-0.3422662,42.5608862
Lower Juba,Kismaayo,Naji,-0.33477116,42.53339097
Lower Juba,Kismaayo,Nasib,-0.3335344,42.5665927
Lower Juba,Kismaayo,Nasru -Din,-0.3575794,42.5266983
Lower Juba,Kismaayo,New Barwaaqo,-0.0859997,42.5697392
Lower Juba,Kismaayo,New Bulagaduud,-0.0810871,42.5725143
Lower Juba,Kismaayo,New Gobweyn,-0.2275905,42.5985838
Lower Juba,Kismaayo,New Luglow,-0.2165098,42.5818055
Lower Juba,Kismaayo,New Qaam Qaam,-0.2049535,42.59679
Lower Juba,Kismaayo,Olole,-0.33811076,42.53357696
Lower Juba,Kismaayo,Owliyo,-0.361663,42.5314518
Lower Juba,Kismaayo,Qalbi Shareef,-0.35391983,42.52687521
Lower Juba,Kismaayo,Qaylidheer  Idp,-0.2048873,42.5887893
Lower Juba,Kismaayo,Qeyre,-0.3676415,42.5515078
Lower Juba,Kismaayo,Qoraxey,-0.3736061,42.522878
Lower Juba,Kismaayo,Qoryoley,-0.3418437,42.5683812
Lower Juba,Kismaayo,Qulac Weyne,-0.3488033,42.5299417
Lower Juba,Kismaayo,Rahole,-0.3442308,42.5367395
Lower Juba,Kismaayo,Rajo,-0.3553118,42.5431665
Lower Juba,Kismaayo,Riqato,-0.33536,42.566535
Lower Juba,Kismaayo,Saakuyee,-0.3324497,42.5325793
Lower Juba,Kismaayo,Sabatuni,-0.3667491,42.5514637
Lower Juba,Kismaayo,Sagal,-0.3408462,42.5613235
Lower Juba,Kismaayo,Sahal,-0.333277,42.5673112
Lower Juba,Kismaayo,Sato,-0.3571759,42.5269161
Lower Juba,Kismaayo,Shabac,-0.3554944,42.5290366
Lower Juba,Kismaayo,Shamow,-0.3630208,42.5523306
Lower Juba,Kismaayo,Shimbirey,-0.3444456,42.5272439
Lower Juba,Kismaayo,Soyaa,-0.3410819,42.5642587
Lower Juba,Kismaayo,Sulay,-0.3326568,42.5320626
Lower Juba,Kismaayo,Talex,-0.3667227,42.5509886
Lower Juba,Kismaayo,Tariiqane,-0.3560638,42.5361079
Lower Juba,Kismaayo,Tawakal 1,-0.3413098,42.5621457
Lower Juba,Kismaayo,Tawakal 2,-0.3417117,42.5619633
Lower Juba,Kismaayo,Tawakal 3,-0.34156012,42.56086526
Lower Juba,Kismaayo,Towfiq 1,-0.3417419,42.5584669
Lower Juba,Kismaayo,Towfiq 2,-0.3430268,42.561837
Lower Juba,Kismaayo,Wadajir,-0.3695235,42.5228884
Lower Juba,Kismaayo,Wamo 1,-0.3415453,42.5631392
Lower Juba,Kismaayo,Wamo 2,-0.3418671,42.5631024
Lower Juba,Kismaayo,Wamo 3,-0.338911,42.563441
Lower Juba,Kismaayo,Wardher,-0.3396989,42.5619491
Lower Juba,Kismaayo,Wariri,-0.3589592,42.5310505
Lower Juba,Kismaayo,Warshada A,-0.3518131,42.5453629
Lower Juba,Kismaayo,Warshada B1,-0.351529,42.5457919
Lower Juba,Kismaayo,Warshada B2,-0.3506165,42.5459414
Lower Juba,Kismaayo,Warshada C,-0.3506273,42.5450352
Lower Juba,Kismaayo,Warshada D,-0.3509484,42.5451574
Lower Juba,Kismaayo,Xarxaar,-0.3438467,42.5263665
Lower Juba,Kismaayo,Yaaq,-0.3520416,42.530383
Lower Juba,Kismaayo,Yaaq Halul,-0.3698934,42.5286631
Lower Juba,Kismaayo,Yaman,-0.3407382,42.5634417
Lower Juba,Kismaayo,Yaq Bishaaro,-0.3656502,42.5260728
Lower Juba,Kismaayo,Yaq Calolweyn,-0.345101,42.528083
Lower Juba,Kismaayo,Yaqshabeel,-0.3622802,42.5290361
Lower Juba,Kismaayo,Yontoy Idp,-0.1164118,42.5607351
Sool,Laas Caanood,Afgooye,8.296408052,47.49622677
Sool,Laas Caanood,Baraan Primary School,8.2406549,47.2302553
Sool,Laas Caanood,Boarding Kalabaydh,8.220727,47.2382559
Sool,Laas Caanood,Boocame,8.3975251,47.9386301
Sool,Laas Caanood,Canjiid,8.582436211,47.26048927
Sool,Laas Caanood,Daami,8.472470691,47.36060467
Sool,Laas Caanood,Dan,8.1566698,47.689347
Sool,Laas Caanood,Dawlada Hoose Kalabaydh,8.2398475,47.2299718
Sool,Laas Caanood,Dhaxag Iskuro / Dhagax Iskaraw / Dhagax Isgura,8.334214686,47.14815424
Sool,Laas Caanood,Falaydhyaale ,8.5365727,48.0436223
Sool,Laas Caanood,Gambadha,8.562529843,47.60136198
Sool,Laas Caanood,Godqaboobe,8.5369963,47.9398657
Sool,Laas Caanood,Higlo Fiqi,8.55590135,47.70677818
Sool,Laas Caanood,Ibnu Cabaas Kalabaydh,8.2447918,47.2238513
Sool,Laas Caanood,Kabaalka Xargaga,8.466326748,47.17817406
Sool,Laas Caanood,Kalabaydh Sacendray School,8.234048,47.2211064
Sool,Laas Caanood,Karin Dabaylwayn,8.116162,47.5357193
Sool,Laas Caanood,Karin Karfood,8.1202548,47.7593644
Sool,Laas Caanood,Qabribayax,8.317971823,47.47685936
Sool,Laas Caanood,Qoriley,8.0032218,47.5647945
Sool,Laas Caanood,Shululux,,
Sool,Laas Caanood,Tuulo Samo Kaab,8.695775277,47.08080054
Sool,Laas Caanood,Yeyle / Dan-Wadaag,,
Sanaag,Laasqoray,Af Damal Haad,10.77539125,48.48059653
Sanaag,Laasqoray,Bilcil,9.762669792,48.81651283
Sanaag,Laasqoray,Caarshe,9.739546783,48.83874413
Sanaag,Laasqoray,Ceelahelay / Ceel Lahelay / Ceel-Lahelay,10.6325443,48.78682411
Sanaag,Laasqoray,Dildishe / Dildishi,9.732723701,48.81736562
Sanaag,Laasqoray,Gumar,10.70104521,48.48791197
Sanaag,Laasqoray,Laako,10.72581536,48.58849098
Sanaag,Laasqoray,Laas Macaan,,
Sanaag,Laasqoray,Manaa,,
Sanaag,Laasqoray,Shacabka,,
Sanaag,Laasqoray,Xubeera,,
Sanaag,Laasqoray,Xubera / Higlo Deero,10.70231585,48.46126866
Awdal,Lughaye,Duqaarayte,10.69015312,43.93528824
Awdal,Lughaye,Garaaca,10.65560891,43.81016964
Awdal,Lughaye,Gargaara,,
Awdal,Lughaye,Geerisa,10.60748091,43.44019859
Awdal,Lughaye,Ido Cadays,10.62409939,44.0361238
Awdal,Lughaye,Karuure,10.75256901,43.59149493
Awdal,Lughaye,Kilowle,10.55143534,43.8517581
Awdal,Lughaye,Xajiinle,10.66621443,43.97809826
Gedo,Luuq,Aarshaamo,3.7774533,42.5556299
Gedo,Luuq,Akara,3.7789716,42.5491783
Gedo,Luuq,Alle Qabe,3.7719449,42.5530793
Gedo,Luuq,Babaa,3.7992549,42.5259665
Gedo,Luuq,Banadir,3.7773366,42.5548762
Gedo,Luuq,Banhadile,3.7779272,42.5349779
Gedo,Luuq,Baraargaabo,3.7798171,42.5652353
Gedo,Luuq,Bashiiro,3.774161,42.5554746
Gedo,Luuq,Beer Bilcaan,3.7761682,42.5617433
Gedo,Luuq,Boyle,3.7847665,42.5664768
Gedo,Luuq,Busley,3.7806674,42.5595069
Gedo,Luuq,Buurdhuuba,3.782978,42.5456525
Gedo,Luuq,Dayax,3.7833633,42.545904
Gedo,Luuq,Diinsoor,3.7794173,42.5434524
Gedo,Luuq,Dogob,3.7965533,42.520125
Gedo,Luuq,Duyacley,3.7794173,42.5434524
Gedo,Luuq,Galun,3.794925,42.545904
Gedo,Luuq,Garmadow,3.7936535,42.5242359
Gedo,Luuq,Haji Dhere,3.8007454,42.523264
Gedo,Luuq,Hilaac,3.7907905,42.5330497
Gedo,Luuq,Kahweyna,3.7975126,42.5170939
Gedo,Luuq,Kulmiye,3.7821775,42.5416136
Gedo,Luuq,Lafoole,3.7722272,42.5502691
Gedo,Luuq,Lamagalaay,3.7911165,42.5281999
Gedo,Luuq,Madawaja,3.7807964,42.5317932
Gedo,Luuq,Madina,3.7905634,42.5346864
Gedo,Luuq,Maykarabey,3.782745,42.5479138
Gedo,Luuq,Naf iyo Maal,3.7661494,42.5599458
Gedo,Luuq,Qeyro,3.7709169,42.5522243
Gedo,Luuq,Rahole,3.7947137,42.5265866
Gedo,Luuq,Sariiro,3.7835422,42.5637206
Gedo,Luuq,Shiniile,3.7877708,42.5315797
Gedo,Luuq,Wadajir,3.8029677,42.5483556
Gedo,Luuq,Wan Cari,3.792195,42.53017
Gedo,Luuq,Xidig,3.7954997,42.5443718
Lower Shabelle,Marka,Awciilow,1.7161039,44.7546151
Lower Shabelle,Marka,Awyaale,1.73529196,44.75437644
Lower Shabelle,Marka,Buulo Beeloow,1.711324,44.7527931
Lower Shabelle,Marka,Buulo Jadiid,1.73915896,44.74841285
Lower Shabelle,Marka,Buulo Mo'Alim Ali,1.7507122,44.7640542
Lower Shabelle,Marka,Buulo Samow,1.7451448,44.7546779
Lower Shabelle,Marka,Ceel Farey,1.7078529,44.7521486
Lower Shabelle,Marka,Ceel Jaalle,1.6786179,44.7216948
Lower Shabelle,Marka,Dacaareey Buufoow Bacaad,1.7500352,44.7594639
Lower Shabelle,Marka,Ismaan Quunle,1.7468385,44.7616659
Lower Shabelle,Marka,Kamka Nuurto Taliyoow,1.7208261,44.7537537
Banadir,Mogadishu Dayniile,Aabey - Alle Qabe,2.0705077,45.2305825
Banadir,Mogadishu Dayniile,Aabey - Buulo Barako3 ,2.0705509,45.2310501
Banadir,Mogadishu Dayniile,Aabey - Ceelcilaan,2.0706019,45.2307609
Banadir,Mogadishu Dayniile,Aabey - Dareersan,2.0704004,45.2306211
Banadir,Mogadishu Dayniile,Aabey - Dusta,2.0768598,45.2261239
Banadir,Mogadishu Dayniile,Aabey - Hiiliyo,2.070631,45.2310932
Banadir,Mogadishu Dayniile,Aabey - Kurmaan,2.0707027,45.2308091
Banadir,Mogadishu Dayniile,Aabey - Samo Samo,2.0698346,45.230665
Banadir,Mogadishu Dayniile,Aabey - Ubax,2.0759434,45.2272806
Banadir,Mogadishu Dayniile,Aayatiin - Markaawi,2.093602,45.290083
Banadir,Mogadishu Dayniile,Adno,2.101549,45.291551
Banadir,Mogadishu Dayniile,Ahmadeey Garorow,2.0731483,45.244146
Banadir,Mogadishu Dayniile,Ahmed Gururey - Diradawe,2.099792,45.283547
Banadir,Mogadishu Dayniile,Al Baqra,2.0994116,45.2888619
Banadir,Mogadishu Dayniile,Al Cadaala - Anfac,2.0657857,45.2569779
Banadir,Mogadishu Dayniile,Al Cadaala - Cusub,2.0662187,45.2567113
Banadir,Mogadishu Dayniile,Al Cadaala - Fiidow,2.0666917,45.2570703
Banadir,Mogadishu Dayniile,Al Cadaala - Meykoorebi,2.0663799,45.2569107
Banadir,Mogadishu Dayniile,Al Cadaala - Muhiim,2.0664124,45.2575818
Banadir,Mogadishu Dayniile,Al Cadaala - Sokor,2.0659571,45.256741
Banadir,Mogadishu Dayniile,Al Fuuto - Janaanel,2.0708225,45.2429071
Banadir,Mogadishu Dayniile,Al Mustaqiim - Bah Wale,2.0864708,45.2504989
Banadir,Mogadishu Dayniile,Al Mustaqiim - Bashaash,2.0860399,45.2520102
Banadir,Mogadishu Dayniile,Al Mustaqiim - Basiili,2.0871343,45.2511023
Banadir,Mogadishu Dayniile,Al Mustaqiim - Cudbi,2.086381,45.2524595
Banadir,Mogadishu Dayniile,Al Mustaqiim - Danyar,2.0865187,45.250903
Banadir,Mogadishu Dayniile,Al Mustaqiim - Muhiim,2.0866097,45.2503359
Banadir,Mogadishu Dayniile,Al Mustaqiim - Nasable,2.0870664,45.2506108
Banadir,Mogadishu Dayniile,Al Mustaqiim - Nawaal,2.0865785,45.2519512
Banadir,Mogadishu Dayniile,Al Mustaqiim - Qoryooley,2.0865394,45.2515744
Banadir,Mogadishu Dayniile,Al Mustaqiim - Ubi Yare,2.0867128,45.2517083
Banadir,Mogadishu Dayniile,Al Raxma - Baalguri,2.071506,45.2725685
Banadir,Mogadishu Dayniile,Al Raxma - Garsaani,2.0686961,45.2565261
Banadir,Mogadishu Dayniile,Al Raxma - Geedoole,2.0722677,45.2710286
Banadir,Mogadishu Dayniile,Al Raxma - Rabi Suge,2.0687108,45.2567329
Banadir,Mogadishu Dayniile,Al Raxma - Raja Wanaag,2.072471,45.2712061
Banadir,Mogadishu Dayniile,Al Raxma - Runta,2.0687162,45.2567353
Banadir,Mogadishu Dayniile,Al Raxma - Ubax Nuur,2.0721111,45.2720326
Banadir,Mogadishu Dayniile,Al Raxmaan - Arsaaq,2.093286,45.29053
Banadir,Mogadishu Dayniile,Ali Kuus - Buru Gundun,2.0773697,45.2842828
Banadir,Mogadishu Dayniile,Allaweyne - Alleweyn,2.0898573,45.2562819
Banadir,Mogadishu Dayniile,Alle Dhowr - Asal,2.0707941,45.2728238
Banadir,Mogadishu Dayniile,Alle Dhowr - Birqaaye,2.0711498,45.2747552
Banadir,Mogadishu Dayniile,Alle Dhowr - Gacaltooyo,2.0705007,45.2722372
Banadir,Mogadishu Dayniile,Alle Dhowr - Itooliyow,2.0705717,45.2727007
Banadir,Mogadishu Dayniile,Alle Dhowr - Maquuste,2.0704001,45.2730606
Banadir,Mogadishu Dayniile,Alle Dhowr - Sheeko Diid,2.0707395,45.2736277
Banadir,Mogadishu Dayniile,Alle Dhowr - Silacdiid,2.0705777,45.2750892
Banadir,Mogadishu Dayniile,Alle Dhowr - Ushaa Degsooy,2.0699311,45.2723746
Banadir,Mogadishu Dayniile,Alle Dhowr - Uulow,2.0704044,45.2722266
Banadir,Mogadishu Dayniile,Alle Dhowr - Wadani 2,2.0705073,45.2725756
Banadir,Mogadishu Dayniile,Alle Dhowr - Yaa Rasaaq,2.070542,45.2732069
Banadir,Mogadishu Dayniile,Alle Suge - Bacad Weyne,2.091067,45.292715
Banadir,Mogadishu Dayniile,Alle-Suge - Boodaale,2.071579,45.275045
Banadir,Mogadishu Dayniile,Alle-Suge - Busleey-Daa'Uud,2.071627,45.27475
Banadir,Mogadishu Dayniile,Alle-Suge - Ciiltire,2.072501,45.274119
Banadir,Mogadishu Dayniile,Alle-Suge - Hareeri-Hoolaabe,2.071928,45.274881
Banadir,Mogadishu Dayniile,Alle-Suge - Janaale,2.071882,45.275185
Banadir,Mogadishu Dayniile,Alle-Suge - Kaamilo,2.071069,45.276873
Banadir,Mogadishu Dayniile,Alle-Suge - Maqdis,2.071601,45.275655
Banadir,Mogadishu Dayniile,Alle-Suge - Misro,2.072276,45.274797
Banadir,Mogadishu Dayniile,Al-Muhsiniin - Al-Muhsiin,2.073965,45.265942
Banadir,Mogadishu Dayniile,Al-Muhsiniin - Burlule,2.072178,45.266297
Banadir,Mogadishu Dayniile,Al-Muhsiniin - Buurmadow,2.072347,45.266381
Banadir,Mogadishu Dayniile,Al-Muhsiniin - Ceel-Dhaas,2.072259,45.26639
Banadir,Mogadishu Dayniile,Al-Muhsiniin - Galjano,2.072222,45.26642
Banadir,Mogadishu Dayniile,Al-Muhsiniin - Nasable,2.072216,45.266449
Banadir,Mogadishu Dayniile,Al-Muhsiniin - Qorilow,2.072128,45.26634
Banadir,Mogadishu Dayniile,Alnaciim,2.073477,45.283264
Banadir,Mogadishu Dayniile,Alnasri - Taakulo,2.0909142,45.253437
Banadir,Mogadishu Dayniile,Alxamdu - Ceeldheer,2.090556,45.2512735
Banadir,Mogadishu Dayniile,Anfac,2.063286,45.27985
Banadir,Mogadishu Dayniile,Anzal - Aqableey,2.085376,45.295676
Banadir,Mogadishu Dayniile,Aqbal - Qul-Qul,2.094479,45.291673
Banadir,Mogadishu Dayniile,Arlaadi - Nimcatu Rabi,2.0720111,45.2491942
Banadir,Mogadishu Dayniile,Aw Boore - Aw Boore 1,2.0723373,45.2436617
Banadir,Mogadishu Dayniile,Aw Dal - Car Cadeye,2.0710999,45.2796324
Banadir,Mogadishu Dayniile,Aw Dal - Godey,2.0711002,45.2796348
Banadir,Mogadishu Dayniile,Awdegle - Biibi,2.074873,45.288975
Banadir,Mogadishu Dayniile,Axmed Gurey - Buulo Cadaad,2.0685982,45.2570303
Banadir,Mogadishu Dayniile,Axmed Gurey - Ceel Cool,2.068777,45.2572256
Banadir,Mogadishu Dayniile,Axmed Gurey - Gacan Barako,2.0689228,45.257498
Banadir,Mogadishu Dayniile,Axmed Gurey - Raage Ceele,2.0688683,45.2563109
Banadir,Mogadishu Dayniile,Bad Qabe - Badqabe,2.0782186,45.283811
Banadir,Mogadishu Dayniile,Bad Qabe - Buur Weyn,2.0782136,45.2838684
Banadir,Mogadishu Dayniile,Bad Qabe - Ceymul,2.078066,45.283944
Banadir,Mogadishu Dayniile,Bad Qabe - Jameeca Shiil,2.0781717,45.2837979
Banadir,Mogadishu Dayniile,Bad Qabe - Macruuf,2.0783843,45.2837402
Banadir,Mogadishu Dayniile,Bad Qabe - Maqdis,2.0781006,45.2836966
Banadir,Mogadishu Dayniile,Bad Qabe - Shaw,2.0780017,45.28383
Banadir,Mogadishu Dayniile,Bal Cadaad - Booko,2.0859781,45.2533729
Banadir,Mogadishu Dayniile,Bal Cadaad - Burtuqow,2.0863174,45.2535639
Banadir,Mogadishu Dayniile,Bal Cadaad - Daru Shamsi,2.0866772,45.252885
Banadir,Mogadishu Dayniile,Balgaley - Balgaley,2.0770461,45.2272686
Banadir,Mogadishu Dayniile,Banaaney - Banaaney,2.0741158,45.2330872
Banadir,Mogadishu Dayniile,Banaaney - Darabley,2.0732175,45.2328317
Banadir,Mogadishu Dayniile,Bandar - Basro,2.075564,45.273971
Banadir,Mogadishu Dayniile,Bandar - Dhiblaawe,2.075525,45.273771
Banadir,Mogadishu Dayniile,Bandar - Macquul,2.075673,45.273584
Banadir,Mogadishu Dayniile,Bar Kulan,2.0914884,45.2841048
Banadir,Mogadishu Dayniile,Barda Qumane - Boqol Jire,2.0740039,45.2957199
Banadir,Mogadishu Dayniile,Barda Qumane - Qalaax,2.08086,45.2825235
Banadir,Mogadishu Dayniile,Barnax - Barnax,2.073128,45.2842
Banadir,Mogadishu Dayniile,Barwaaqo Nasiib - Baqdaad,2.0967175,45.2896491
Banadir,Mogadishu Dayniile,Barwaaqo Nasiib - Maan Iyo Ubax,2.0967498,45.2893752
Banadir,Mogadishu Dayniile,Beerlula,2.0994012,45.2839819
Banadir,Mogadishu Dayniile,Beydan - Beydan,2.0918479,45.2538168
Banadir,Mogadishu Dayniile,Bilaal - Elbaay,2.101253,45.290985
Banadir,Mogadishu Dayniile,Bilkheer - Bilkheer,2.073953,45.265972
Banadir,Mogadishu Dayniile,Bilkheyr,2.073268,45.283231
Banadir,Mogadishu Dayniile,Bilkheyr,2.101365,45.291715
Banadir,Mogadishu Dayniile,Biloow Barakeey,2.072072,45.290875
Banadir,Mogadishu Dayniile,Bilqan - Biribo,2.0994862,45.2907237
Banadir,Mogadishu Dayniile,Bismilah,2.091321,45.2904569
Banadir,Mogadishu Dayniile,Biya Cade 1,2.097471,45.276274
Banadir,Mogadishu Dayniile,Boogsiye,2.101702,45.292018
Banadir,Mogadishu Dayniile,Budbud Tifow - Bud Bud Baayooley,2.0720614,45.2494974
Banadir,Mogadishu Dayniile,Bufow Bacad - Qabowe2,2.066994,45.2697
Banadir,Mogadishu Dayniile,Bulalow - Dalandoole,2.071682,45.280471
Banadir,Mogadishu Dayniile,Bulla Falay - Anfac,2.0696502,45.2369516
Banadir,Mogadishu Dayniile,Bullsho Kam - Aflah,2.0808261,45.28683
Banadir,Mogadishu Dayniile,Bullsho Kam - Alla Amin,2.0808333,45.2868444
Banadir,Mogadishu Dayniile,Bullsho Kam - Ancam,2.080842,45.2870067
Banadir,Mogadishu Dayniile,Bullsho Kam - Balcad,2.0807286,45.2869484
Banadir,Mogadishu Dayniile,Bullsho Kam - Mor Gabeey,2.0808308,45.2868626
Banadir,Mogadishu Dayniile,Bullsho Kam - Noleya,2.0808598,45.2869839
Banadir,Mogadishu Dayniile,Bullsho Kam - Tala Sugee,2.0807407,45.2869325
Banadir,Mogadishu Dayniile,Bulo Barako - Bakaal,2.0815965,45.2506923
Banadir,Mogadishu Dayniile,Bulo Barako - Idaale,2.0732218,45.2520242
Banadir,Mogadishu Dayniile,Bulo Barako - Nafiso,2.0732766,45.2515848
Banadir,Mogadishu Dayniile,Burhaan - Berbera,2.0829678,45.2541865
Banadir,Mogadishu Dayniile,Burhaan - Buaale,2.0829802,45.254176
Banadir,Mogadishu Dayniile,Burhaan - Nasiib,2.0829435,45.2541726
Banadir,Mogadishu Dayniile,Burlibaax - Africa,2.07272,45.2722623
Banadir,Mogadishu Dayniile,Burlibaax - Buula Aluundi,2.07272,45.2722623
Banadir,Mogadishu Dayniile,Burlibaax - Cibaar,2.072498,45.2722623
Banadir,Mogadishu Dayniile,Burlibaax - Dhuxuloow,2.072498,45.2722623
Banadir,Mogadishu Dayniile,Burlibaax - Mustaqbal,2.0727305,45.2725554
Banadir,Mogadishu Dayniile,Butbut Tifow - Butbut,2.071865,45.2501151
Banadir,Mogadishu Dayniile,Buufow - Qabowe2,2.067861,45.268904
Banadir,Mogadishu Dayniile,Buulo Ciid - Aransoy,2.082571,45.277388
Banadir,Mogadishu Dayniile,Buulo Ciid - Deynuunay,2.082733,45.277602
Banadir,Mogadishu Dayniile,Buulo Ifriin - Buulo Iftiin,2.097929,45.292764
Banadir,Mogadishu Dayniile,Buulo Iyo Gabileey - Cadaalad-Suge,2.086012,45.293553
Banadir,Mogadishu Dayniile,Buulo Iyo Gabileey - Foof-Dheere,2.086028,45.293823
Banadir,Mogadishu Dayniile,Buulo Iyo Gabileey - Sakiin,2.086266,45.29481
Banadir,Mogadishu Dayniile,Buulo Iyo Gabileey - Seeydhelow,2.086649,45.2938166
Banadir,Mogadishu Dayniile,Buulo Madiina - Al Hudda,2.0978713,45.2908198
Banadir,Mogadishu Dayniile,Buulo Madiina - Baar Bukurey,2.0983323,45.2904739
Banadir,Mogadishu Dayniile,Buur Waqabo - Qabowe2,2.067734,45.269457
Banadir,Mogadishu Dayniile,Buurane - Qabowe2,2.067866,45.269691
Banadir,Mogadishu Dayniile,Buurcade,2.0715548,45.2318199
Banadir,Mogadishu Dayniile,Buurdhere - Beriweyne1,2.064648,45.288681
Banadir,Mogadishu Dayniile,Caamud - Birdi,2.090359,45.2872151
Banadir,Mogadishu Dayniile,Caamud - Maray Barii,2.0950559,45.2845029
Banadir,Mogadishu Dayniile,Caamud - Mirimiri,2.097471,45.276274
Banadir,Mogadishu Dayniile,Caamud - Toraxey,2.090359,45.2872151
Banadir,Mogadishu Dayniile,Caano Waay - Dagaaybeere,2.085245,45.287147
Banadir,Mogadishu Dayniile,Caanoole - Al-Cadaala,2.0665775,45.257135
Banadir,Mogadishu Dayniile,Cadow Bader,2.0970348,45.2784077
Banadir,Mogadishu Dayniile,Calaf Suge - Allow Nagasogar,2.0763748,45.2303393
Banadir,Mogadishu Dayniile,Calaf Suge - Rabi Tuug,2.0760172,45.2302752
Banadir,Mogadishu Dayniile,Calasow Hadafow - Dhiblaawe,2.0859259,45.2530569
Banadir,Mogadishu Dayniile,Calasow Hadafow - Hadaafow,2.0858861,45.2533621
Banadir,Mogadishu Dayniile,Camaara,2.074278,45.286667
Banadir,Mogadishu Dayniile,Canole - Ahmed Sabariin,2.0712005,45.2330817
Banadir,Mogadishu Dayniile,Canole - Canole,2.0713506,45.2325549
Banadir,Mogadishu Dayniile,Canoway - Caanoway,2.0849843,45.2922005
Banadir,Mogadishu Dayniile,Cawaale - Cawaale 2,2.070266,45.273683
Banadir,Mogadishu Dayniile,Cawaale - Hal Xagar,2.074703,45.274033
Banadir,Mogadishu Dayniile,Cawaale - Ila Wadaag,2.074943,45.273637
Banadir,Mogadishu Dayniile,Cawaale - Siinaay,2.074679,45.274039
Banadir,Mogadishu Dayniile,Ceeblaawe - Ceeblaawe,2.0852002,45.2903798
Banadir,Mogadishu Dayniile,Ceeb-Laawe - Cirday,2.0865833,45.2955333
Banadir,Mogadishu Dayniile,Ceeb-Laawe - Cuna-Dheere,2.086146,45.296044
Banadir,Mogadishu Dayniile,Ceeb-Laawe - Dhanaane,2.086143,45.295605
Banadir,Mogadishu Dayniile,Ceeb-Laawe - Far Gaduud,2.0818943,45.2989462
Banadir,Mogadishu Dayniile,Ceeb-Laawe - Gobyaal,2.0864728,45.2949829
Banadir,Mogadishu Dayniile,Ceeb-Laawe - Wardi,2.0818943,45.2989462
Banadir,Mogadishu Dayniile,Ceel Dheer - Baran,2.0901824,45.250845
Banadir,Mogadishu Dayniile,Ceel Dheer - Garas Ciroole,2.0894579,45.2518746
Banadir,Mogadishu Dayniile,Ceel Shiill,2.097447,45.281727
Banadir,Mogadishu Dayniile,Ceeldheer 7 - Galcad,2.0762189,45.2526178
Banadir,Mogadishu Dayniile,Ceelgaras - Dooxdoox,2.0897864,45.2562112
Banadir,Mogadishu Dayniile,Ceelgaras - Jiicyareey,2.0898648,45.2571552
Banadir,Mogadishu Dayniile,Ceelgaras - Lipi Fiiq,2.0896366,45.2562483
Banadir,Mogadishu Dayniile,Ceelgaras - Meygaag,2.0900755,45.2562997
Banadir,Mogadishu Dayniile,Ceelgaras - Shimbirood,2.090179,45.2566137
Banadir,Mogadishu Dayniile,Celtire Bar Yare - Keyf,2.0971571,45.2906946
Banadir,Mogadishu Dayniile,Ceynte,2.089077,45.291342
Banadir,Mogadishu Dayniile,Ciiltire - Busleey,2.066563,45.272701
Banadir,Mogadishu Dayniile,Ciiltire - Cabdi Cali,2.068151,45.272286
Banadir,Mogadishu Dayniile,Ciiltire - Dalandoole,2.066614,45.272955
Banadir,Mogadishu Dayniile,Ciiltire - Harqaan,2.068497,45.271797
Banadir,Mogadishu Dayniile,Ciiltire - Jeesh,2.067746,45.27274
Banadir,Mogadishu Dayniile,Ciiltire - Kuleel,2.066548,45.271601
Banadir,Mogadishu Dayniile,Ciiltire - Masaare,2.068361,45.272328
Banadir,Mogadishu Dayniile,Ciiltire - Sahal4,2.067741,45.271469
Banadir,Mogadishu Dayniile,Ciiltire - Salaama,2.066777,45.27311
Banadir,Mogadishu Dayniile,Daaru Shamso - Malyuun,2.073974,45.2303965
Banadir,Mogadishu Dayniile,Dahraan - Balgaduud,2.074737,45.268054
Banadir,Mogadishu Dayniile,Dalxis,2.0880316,45.2909027
Banadir,Mogadishu Dayniile,Dameeraale - Berjeex,2.097376,45.289526
Banadir,Mogadishu Dayniile,Dameeraale - Bilan,2.097365,45.290078
Banadir,Mogadishu Dayniile,Dameeraale - Carajiif,2.0976424,45.2895536
Banadir,Mogadishu Dayniile,Dameeraale - Cumar Cade,2.097834,45.289935
Banadir,Mogadishu Dayniile,Dameeraale - Maagle,2.097568,45.290039
Banadir,Mogadishu Dayniile,Dan Iyo Daruuf - Eeshow,2.0726032,45.2285866
Banadir,Mogadishu Dayniile,Dan Iyo Daruuf - Fan Iyo Daruuf,2.0726471,45.2286391
Banadir,Mogadishu Dayniile,Dan Iyo Daruuf - Wabiinhas,2.0729207,45.2288886
Banadir,Mogadishu Dayniile,Dan Kulan - Deymasame 2,2.0752946,45.2562313
Banadir,Mogadishu Dayniile,Dan Kulan - Idoor,2.0835612,45.2538182
Banadir,Mogadishu Dayniile,Dan Kulan - Iidoor,2.0833192,45.2543629
Banadir,Mogadishu Dayniile,Dan Kulan - Mubaarak,2.0839445,45.2546004
Banadir,Mogadishu Dayniile,Dan Kulan - Samaan,2.0833294,45.2543654
Banadir,Mogadishu Dayniile,Danwadaag - Danwadaag,2.070255,45.24304
Banadir,Mogadishu Dayniile,Danwadaag - Mushaani,2.0704021,45.2434527
Banadir,Mogadishu Dayniile,Danwadaagaha - Barwaaqo 3,2.072072,45.290875
Banadir,Mogadishu Dayniile,Danwadaagaha - Liibaanta Qoryoley,2.072072,45.290875
Banadir,Mogadishu Dayniile,Daru Nacim - Abuute,2.0749018,45.2292478
Banadir,Mogadishu Dayniile,Daru Nacim - Sacmoojo,2.0749731,45.2291958
Banadir,Mogadishu Dayniile,Daru Shamsa - Ceeb Allaha Asturo,2.0741936,45.2301332
Banadir,Mogadishu Dayniile,Darusalaam - Afsamow,2.074737,45.268054
Banadir,Mogadishu Dayniile,Darusalaam - Beexaaw,2.074737,45.268054
Banadir,Mogadishu Dayniile,Darusalaam - Qoobey,2.07437,45.268054
Banadir,Mogadishu Dayniile,Daruur Rabi - Cadaad Gari,2.073778,45.26273
Banadir,Mogadishu Dayniile,Daruur Rabi - Ceel Doon,2.074273,45.26326
Banadir,Mogadishu Dayniile,Daruur Rabi - Jiidow,2.074183,45.263223
Banadir,Mogadishu Dayniile,Daruur Rabi - Kabalabe,2.074293,45.263233
Banadir,Mogadishu Dayniile,Daryeel - Banan Yaal,2.070068,45.242258
Banadir,Mogadishu Dayniile,Daryeel - Beeraley,2.0695979,45.2422463
Banadir,Mogadishu Dayniile,Deeq Darajo - Dheeman,2.0827765,45.2562642
Banadir,Mogadishu Dayniile,Deeq Darajo - Lafawayn,2.0822538,45.2562032
Banadir,Mogadishu Dayniile,Deeq Darajo - Maryamo,2.0830241,45.2566056
Banadir,Mogadishu Dayniile,Deeq Darajo - Riyo,2.0832121,45.2562821
Banadir,Mogadishu Dayniile,Deeq Darajo - Shanta Geed,2.0790317,45.2537378
Banadir,Mogadishu Dayniile,Deeq Darajo - Suhayb,2.0832205,45.256286
Banadir,Mogadishu Dayniile,Deeq Rabi 1 - Kulan,2.0734689,45.2522095
Banadir,Mogadishu Dayniile,Deeqa Luul,2.091518,45.286284
Banadir,Mogadishu Dayniile,Deeqn Barwaqo - Dek Barwaqo,2.096463,45.286037
Banadir,Mogadishu Dayniile,Degan Bille - Sool,2.098189,45.291759
Banadir,Mogadishu Dayniile,Dhagacad - Shukri,2.085584,45.287162
Banadir,Mogadishu Dayniile,Dhagax Weyn - Dhagax Weyn,2.0827505,45.2524892
Banadir,Mogadishu Dayniile,Dhagax Weyn - Fadhi Wanaag,2.0824645,45.253272
Banadir,Mogadishu Dayniile,Dhagax Weyn - Istar,2.0828017,45.252549
Banadir,Mogadishu Dayniile,Dhagax Weyn - Yaaq Bari Weyne,2.0825841,45.2525495
Banadir,Mogadishu Dayniile,Dhalacadeey - Mizgo,2.090162,45.284152
Banadir,Mogadishu Dayniile,Dhalacadeey - Najmo,2.089849,45.284491
Banadir,Mogadishu Dayniile,Dhanyale - Qali,2.064599,45.264941
Banadir,Mogadishu Dayniile,Dharga - Khaafir,2.0766323,45.2260857
Banadir,Mogadishu Dayniile,Dharga - Korkaamar,2.0759352,45.2261556
Banadir,Mogadishu Dayniile,Dharga - Sarman,2.0785089,45.2274011
Banadir,Mogadishu Dayniile,Dharga - Tukaarey,2.0765744,45.2260172
Banadir,Mogadishu Dayniile,Dhibane - Adan Ade,2.062846,45.280074
Banadir,Mogadishu Dayniile,Dhibane - Anfac2,2.062949,45.280408
Banadir,Mogadishu Dayniile,Dhibane - Bahane,2.063445,45.280423
Banadir,Mogadishu Dayniile,Dhibane - Liban,2.06324,45.280438
Banadir,Mogadishu Dayniile,Dhiblaawe - Qali,2.064599,45.264941
Banadir,Mogadishu Dayniile,Dhiin Garas - Bokcaqab,2.094428,45.284078
Banadir,Mogadishu Dayniile,Dhiin Garas - Heeybo,2.0957152,45.2820932
Banadir,Mogadishu Dayniile,Dhiiqoley - Awbore,2.072202,45.244193
Banadir,Mogadishu Dayniile,Dhimris - Bandarqali,2.0759102,45.2519923
Banadir,Mogadishu Dayniile,Dhimris - Ciga,2.076263,45.2525291
Banadir,Mogadishu Dayniile,Dhimris - Degbarwaq,2.0713981,45.2509642
Banadir,Mogadishu Dayniile,Dhimris - Dhimris,2.0765641,45.2527162
Banadir,Mogadishu Dayniile,Dhimris - Filibiin,2.075985,45.2525848
Banadir,Mogadishu Dayniile,Dira Barwaqo - Ciir Iyo Caad,2.0841517,45.27861
Banadir,Mogadishu Dayniile,Dira Barwaqo - Daaru Duniya,2.0839333,45.2796367
Banadir,Mogadishu Dayniile,Dira Barwaqo - Libaan,2.0773697,45.2842828
Banadir,Mogadishu Dayniile,Dira Barwaqo - Soomar,2.0841524,45.278652
Banadir,Mogadishu Dayniile,Diris Uron - Bula Majin,2.081434,45.2742981
Banadir,Mogadishu Dayniile,Diyaarsan - Hirdoogle,2.0873415,45.2518685
Banadir,Mogadishu Dayniile,Dolcad2 - Cadleef,2.090447,45.284447
Banadir,Mogadishu Dayniile,Doogle - Booco Yarey,2.0710919,45.2344912
Banadir,Mogadishu Dayniile,Doon Malayko,2.0971669,45.2781247
Banadir,Mogadishu Dayniile,Duco - Al Musbaax2,2.073357,45.283868
Banadir,Mogadishu Dayniile,Duco - Al Mustaqiin,2.073618,45.283592
Banadir,Mogadishu Dayniile,Duco - Manabolio1,2.073574,45.283371
Banadir,Mogadishu Dayniile,Duco-Waalid - Al-Xakiim,2.076712,45.271567
Banadir,Mogadishu Dayniile,Duco-Waalid - Caalami,2.076564,45.271816
Banadir,Mogadishu Dayniile,Duco-Waalid - Caanadoon,2.076634,45.271692
Banadir,Mogadishu Dayniile,Duco-Waalid - Ceelbaraf,2.076867,45.271816
Banadir,Mogadishu Dayniile,Duco-Waalid - Ciiltire 3,2.068802,45.277941
Banadir,Mogadishu Dayniile,Duco-Waalid - Duco,2.076777,45.271735
Banadir,Mogadishu Dayniile,Duco-Waalid - Murbax,2.076455,45.271758
Banadir,Mogadishu Dayniile,Duco-Waalid - Ruunnirgood,2.076586,45.271787
Banadir,Mogadishu Dayniile,Duco-Waalid - Xarago-Jaceel,2.076779,45.271756
Banadir,Mogadishu Dayniile,Duco-Waalid - Xaruur,2.076747,45.271764
Banadir,Mogadishu Dayniile,Duco-Waalid - Xijaar,2.076789,45.27176
Banadir,Mogadishu Dayniile,Dugaal,2.097471,45.276274
Banadir,Mogadishu Dayniile,Dulmidiid - Nasrudiin,2.0718316,45.2328638
Banadir,Mogadishu Dayniile,Durdur - Buulo Sidow,2.071835,45.256217
Banadir,Mogadishu Dayniile,Durdur - Buulo Siidow,2.0712427,45.2564156
Banadir,Mogadishu Dayniile,Durdur - Godadle,2.071802,45.256232
Banadir,Mogadishu Dayniile,Durdur - Gododle,2.0723608,45.2564667
Banadir,Mogadishu Dayniile,Durdur - Qosliyaaal,2.0722375,45.2558366
Banadir,Mogadishu Dayniile,Durdur - Qoyslayaal,2.071635,45.255934
Banadir,Mogadishu Dayniile,Durdur - Rakaale,2.071802,45.256232
Banadir,Mogadishu Dayniile,Durdur - Rakaale,2.0719278,45.2561214
Banadir,Mogadishu Dayniile,Durdur - Tala Wadaag,2.071707,45.256125
Banadir,Mogadishu Dayniile,Durdur - Talo Wanaag,2.0722254,45.2563097
Banadir,Mogadishu Dayniile,Duurjiif,2.075693,45.286548
Banadir,Mogadishu Dayniile,Eyle - Bilan,2.0725185,45.2313595
Banadir,Mogadishu Dayniile,Eyle - Nuuro,2.0730944,45.2321725
Banadir,Mogadishu Dayniile,Fadhiweyn - Fadhiweyn,2.080204,45.284983
Banadir,Mogadishu Dayniile,Fadli - Yaqdhere,2.0924698,45.2935682
Banadir,Mogadishu Dayniile,Fanoole - Ashqaraar,2.1015697,45.2904039
Banadir,Mogadishu Dayniile,Fanoole - Baatiq,2.1015621,45.2907553
Banadir,Mogadishu Dayniile,Fanoole - Fanoole,2.101025,45.2904711
Banadir,Mogadishu Dayniile,Fanoole - Xiindheere,2.1010347,45.2904782
Banadir,Mogadishu Dayniile,Farey - Ceel Buur 2,2.0702183,45.2503389
Banadir,Mogadishu Dayniile,Fatxul Qariib - Almuciin,2.0766234,45.2532143
Banadir,Mogadishu Dayniile,Fatxul Qariib - Dalandoole,2.0765322,45.2536057
Banadir,Mogadishu Dayniile,Fatxul Qariib - Fatxul Qariib,2.0764174,45.2530632
Banadir,Mogadishu Dayniile,Fatxul Qariib - Saacid,2.0762041,45.2534966
Banadir,Mogadishu Dayniile,Fiidow,2.0710674,45.2416073
Banadir,Mogadishu Dayniile,Fitaxu-Diin,2.073129,45.286885
Banadir,Mogadishu Dayniile,Fiyuuman - Burjiiqo,2.076206,45.2284098
Banadir,Mogadishu Dayniile,Food-Cade,2.076184,45.287144
Banadir,Mogadishu Dayniile,Gacan Qabad - Bandar Qaali,2.0759603,45.2517429
Banadir,Mogadishu Dayniile,Gacan Qabad - Cigo,2.0763084,45.2522552
Banadir,Mogadishu Dayniile,Gacan Qabad - Dhimris,2.0764456,45.2526286
Banadir,Mogadishu Dayniile,Gacan Qabad - Dig Barwaaqo,2.0714078,45.2510493
Banadir,Mogadishu Dayniile,Gacan Qabad - Filibiin,2.0765993,45.2527594
Banadir,Mogadishu Dayniile,Galbeed - Jariirow,2.084103,45.273132
Banadir,Mogadishu Dayniile,Galbeed - Rumaan,2.082723,45.273453
Banadir,Mogadishu Dayniile,Galbeed - Unkur,2.083794,45.27342
Banadir,Mogadishu Dayniile,Galcad - Bakaal,2.09387,45.291865
Banadir,Mogadishu Dayniile,Galcad - Doodaale,2.093753,45.291608
Banadir,Mogadishu Dayniile,Galcad - Nasiir,2.096491,45.292106
Banadir,Mogadishu Dayniile,Galcad - Owdhiigle,2.096754,45.291606
Banadir,Mogadishu Dayniile,Galcad - Wanlaweyn,2.096541,45.292191
Banadir,Mogadishu Dayniile,Galcat - Galcat 2,2.0761251,45.2526861
Banadir,Mogadishu Dayniile,Galeey Gaduudey - Galeey Gaduudey,2.0766631,45.22703
Banadir,Mogadishu Dayniile,Gamadiid - Dala Rabi,2.081493,45.276578
Banadir,Mogadishu Dayniile,Gamadiid - Macruuf,2.081493,45.276578
Banadir,Mogadishu Dayniile,Gambole - Dahable,2.087601,45.284451
Banadir,Mogadishu Dayniile,Garas Jeereed - Liibaanta Shabeele,2.0746443,45.2534511
Banadir,Mogadishu Dayniile,Gariyaale - Budbud Tifow,2.0717825,45.2498401
Banadir,Mogadishu Dayniile,Geedlaay - Busto Dhaay,2.0710173,45.2349764
Banadir,Mogadishu Dayniile,Geedlaay - Buuxaawe,2.0712983,45.2355433
Banadir,Mogadishu Dayniile,Geedlaay - Gaal Dheere,2.0713367,45.23525
Banadir,Mogadishu Dayniile,Geedlaay - Gurdaaley,2.0708608,45.2353763
Banadir,Mogadishu Dayniile,Geele Gaab - Al Wakiil 1,2.09009,45.291393
Banadir,Mogadishu Dayniile,Geele Gaab - Berri Barwaaqo,2.09009,45.291393
Banadir,Mogadishu Dayniile,Golwayn - Sharma Qabe,2.0787417,45.2544482
Banadir,Mogadishu Dayniile,Golween - Golween,2.0772437,45.2529406
Banadir,Mogadishu Dayniile,Golweyn - Binti,2.09009,45.273363
Banadir,Mogadishu Dayniile,Golweyn - Ceel Axmed,2.09009,45.273363
Banadir,Mogadishu Dayniile,Golweyn - Golweyn2,2.09009,45.273363
Banadir,Mogadishu Dayniile,Golweyn - Maalin,2.09009,45.273363
Banadir,Mogadishu Dayniile,Goobale - Ahlu Kheyr,2.100393,45.290303
Banadir,Mogadishu Dayniile,Goobale - Bilic Kuus,2.100504,45.290423
Banadir,Mogadishu Dayniile,Goobale - Maaykoreebi,2.100109,45.290378
Banadir,Mogadishu Dayniile,Gorgor - Baftaale,2.0862775,45.2550592
Banadir,Mogadishu Dayniile,Gorgor - Gurmad,2.0861215,45.2556012
Banadir,Mogadishu Dayniile,Gorgor - Nasrullah,2.0861429,45.2558104
Banadir,Mogadishu Dayniile,Gorgor - Seylac,2.0859025,45.2561388
Banadir,Mogadishu Dayniile,Gorsoon - Kaamka Israac,2.061453,45.280392
Banadir,Mogadishu Dayniile,Gumeysidiid - Baahile,2.0884962,45.2550825
Banadir,Mogadishu Dayniile,Gumeysidiid - Buulo Jadiid,2.0882158,45.254448
Banadir,Mogadishu Dayniile,Gumeysidiid - Maido,2.0893409,45.2541354
Banadir,Mogadishu Dayniile,Gurmad - Gurmad,2.0752933,45.2301638
Banadir,Mogadishu Dayniile,Gurmad - Kamaal Alle,2.0754502,45.230333
Banadir,Mogadishu Dayniile,Gurmad 2 - Eyle,2.0727542,45.2312996
Banadir,Mogadishu Dayniile,Gurmad 2 - Muno,2.0728724,45.2333334
Banadir,Mogadishu Dayniile,Gurmad 2 - Siyaad,2.0726969,45.23349
Banadir,Mogadishu Dayniile,Gurmad Suge - Maalin,2.0705268,45.2552016
Banadir,Mogadishu Dayniile,Guryosamo - Mansoor,2.097471,45.276274
Banadir,Mogadishu Dayniile,Guryosamo - Saaxil,2.090681,45.283502
Banadir,Mogadishu Dayniile,Guryosamo - Shaikh Madar,2.091963,45.28362
Banadir,Mogadishu Dayniile,Guryosamo - Waheen,2.09059,45.28389
Banadir,Mogadishu Dayniile,Guryosamo - Wajaale,2.091318,45.283121
Banadir,Mogadishu Dayniile,Guudle - Buulo Aluundi,2.072072,45.290875
Banadir,Mogadishu Dayniile,Guutaale,2.0851132,45.2880248
Banadir,Mogadishu Dayniile,Hadii Layaabo Yasiinka - Kheyre,2.076546,45.267192
Banadir,Mogadishu Dayniile,Hadii Layaabo Yasiinka - Yaanyo,2.07634,45.266696
Banadir,Mogadishu Dayniile,Hagardiid - Biixi,2.0931762,45.2879363
Banadir,Mogadishu Dayniile,Hagardiid - Ganaane,2.09349,45.2881951
Banadir,Mogadishu Dayniile,Hagardiid - Macaawiye,2.0943351,45.2873852
Banadir,Mogadishu Dayniile,Hanti Wanaag - Bula 1,2.099792,45.283547
Banadir,Mogadishu Dayniile,Happy - Marwaas,2.09602,45.281026
Banadir,Mogadishu Dayniile,Hiinda Cadey,2.090963,45.285835
Banadir,Mogadishu Dayniile,Hilaac Wanaag - Doonburala,2.0724737,45.2390085
Banadir,Mogadishu Dayniile,Hilaac Wanaag - Galween Libson,2.0722932,45.2385649
Banadir,Mogadishu Dayniile,Hilaac Wanaag - Ray Dabley,2.0735562,45.237968
Banadir,Mogadishu Dayniile,Hilaac Wanag - Dhafaad,2.096843,45.289662
Banadir,Mogadishu Dayniile,Hilac - Nafiso,2.0715592,45.2796297
Banadir,Mogadishu Dayniile,Hilac - Sabirin,2.0715428,45.2796461
Banadir,Mogadishu Dayniile,Hiran Bile,2.074333,45.275107
Banadir,Mogadishu Dayniile,Hirdoogle - Baladul Rahma,2.087431,45.2519135
Banadir,Mogadishu Dayniile,Hirdoogle - Diyaarsan,2.0914029,45.253502
Banadir,Mogadishu Dayniile,Hirdoogle - Ladan,2.0878398,45.252036
Banadir,Mogadishu Dayniile,Hirdoogle - Mahadaay,2.0878401,45.2516721
Banadir,Mogadishu Dayniile,Hirdoogle - Uraan Urow,2.0917617,45.2533888
Banadir,Mogadishu Dayniile,Hodo Iyo Nasib - Nasiib,2.07049,45.281099
Banadir,Mogadishu Dayniile,Hogol 1 - Geele,2.095488,45.289224
Banadir,Mogadishu Dayniile,Hogol 2 - Deeq Rabi,2.095486,45.289185
Banadir,Mogadishu Dayniile,Holweyn - Naxariis,2.09009,45.273363
Banadir,Mogadishu Dayniile,Horset - Horset,2.0773697,45.2842828
Banadir,Mogadishu Dayniile,Hufane - Duuraay,2.097514,45.280615
Banadir,Mogadishu Dayniile,Hurmo Ii Halal - Adan Yabal,2.0719495,45.2299862
Banadir,Mogadishu Dayniile,Hurmo Ii Halal - Damas,2.071945,45.2300031
Banadir,Mogadishu Dayniile,Hurmo Ii Halal - Marwo,2.071892,45.2299758
Banadir,Mogadishu Dayniile,Hurmo Ii Halal - Rihan,2.0719155,45.2300105
Banadir,Mogadishu Dayniile,Iiman Suge,2.071286,45.2321651
Banadir,Mogadishu Dayniile,Iimey - Iimey,2.07373,45.266648
Banadir,Mogadishu Dayniile,Imaan - Habaabshe,2.0724298,45.2416145
Banadir,Mogadishu Dayniile,Imaan - Hamamagoy,2.072087,45.2423829
Banadir,Mogadishu Dayniile,Imaan - Hassan Nuur,2.0719987,45.241596
Banadir,Mogadishu Dayniile,Imaan - Manamufo,2.0716723,45.2420776
Banadir,Mogadishu Dayniile,Irzaaq Suge - Qali,2.064564,45.264805
Banadir,Mogadishu Dayniile,Isbahaysi Walaalaha - Darbaal,2.0862467,45.2777269
Banadir,Mogadishu Dayniile,Isbahaysi Walaalaha - Garoor,2.0862578,45.2778032
Banadir,Mogadishu Dayniile,Isbahaysi Walaalaha - Shantageed,2.0861306,45.2778701
Banadir,Mogadishu Dayniile,Isbishal - Abeesale,2.081571,45.276915
Banadir,Mogadishu Dayniile,Isbishal - Cel Lahele,2.082446,45.277319
Banadir,Mogadishu Dayniile,Iskaashi - Baahiil,2.0889018,45.2548971
Banadir,Mogadishu Dayniile,Iskaashi - Ceeb Kasaliim,2.0889019,45.2548957
Banadir,Mogadishu Dayniile,Iskaashi - Dalxiis,2.08937,45.2545265
Banadir,Mogadishu Dayniile,Iskaashi - Dumaye,2.06774,45.277836
Banadir,Mogadishu Dayniile,Iskaashi - Idin Alle,2.0893865,45.2545308
Banadir,Mogadishu Dayniile,Iskaashi - Yaaq,2.0893896,45.2545343
Banadir,Mogadishu Dayniile,Iskashi2 - Ahmed Gurey,2.0669042,45.277246
Banadir,Mogadishu Dayniile,Ismahurto - Higsi,2.0749695,45.282358
Banadir,Mogadishu Dayniile,Ismahurto - Hiigsi,2.0749635,45.2824608
Banadir,Mogadishu Dayniile,Istanbul - Bud Bud,2.0717994,45.2514266
Banadir,Mogadishu Dayniile,Iswafiiq - Jabi,2.0996708,45.2866286
Banadir,Mogadishu Dayniile,Jabuuti - Misro,2.0917493,45.2857529
Banadir,Mogadishu Dayniile,Jameco Jiliyaale - Nabadon,2.084045,45.279977
Banadir,Mogadishu Dayniile,Jameeca Dhenta - Yaaqsoormaat,2.097471,45.276274
Banadir,Mogadishu Dayniile,Jameeco Dheer - Tiyeed Muuse,2.096706,45.280064
Banadir,Mogadishu Dayniile,Janaale - Garas Raadiye,2.097275,45.286027
Banadir,Mogadishu Dayniile,Janaale - Ula Jarad,2.0948976,45.2844711
Banadir,Mogadishu Dayniile,Janaay - Kuuma Xumaato,2.098978,45.2932054
Banadir,Mogadishu Dayniile,Jano,2.084517,45.294654
Banadir,Mogadishu Dayniile,Jargon Center - Biroole,2.1016047,45.2896046
Banadir,Mogadishu Dayniile,Jargon Center - Maqaam,2.1020582,45.2909423
Banadir,Mogadishu Dayniile,Jawaari - Liibaanta Shabeele,2.0758131,45.2547681
Banadir,Mogadishu Dayniile,Jeejey,2.0712853,45.2417422
Banadir,Mogadishu Dayniile,Jilecle - Jilicle,2.079923,45.28512
Banadir,Mogadishu Dayniile,Jilib Iyo Jamaame - Sarsuur Alle,2.072844,45.26206
Banadir,Mogadishu Dayniile,Jilib Iyo Jamaame - Towxiid,2.072583,45.261932
Banadir,Mogadishu Dayniile,Jowhar - Boos-Hareeri,2.08488,45.294825
Banadir,Mogadishu Dayniile,Judullahi - Farshaxan,2.075465,45.265273
Banadir,Mogadishu Dayniile,Jundillahi - Jilal Mooge,2.075968,45.271542
Banadir,Mogadishu Dayniile,Jundillahi - Nasteexo,2.076523,45.270778
Banadir,Mogadishu Dayniile,Jundillahi - Nus Dunya,2.077683,45.270423
Banadir,Mogadishu Dayniile,Kaafi Center - Gawaanka,2.0739796,45.24947
Banadir,Mogadishu Dayniile,Kaafi Center - Gawanka,2.0739922,45.2493738
Banadir,Mogadishu Dayniile,Kaafi Center - Huriyo,2.0736211,45.2500039
Banadir,Mogadishu Dayniile,Kaafi Center - Kaafi,2.0734751,45.2502874
Banadir,Mogadishu Dayniile,Kaafi Center - Kheire,2.0737509,45.2507226
Banadir,Mogadishu Dayniile,Kaafi Center - Kheyre,2.0737658,45.2506737
Banadir,Mogadishu Dayniile,Kaamil - Caawiye1,2.078634,45.2538278
Banadir,Mogadishu Dayniile,Kaamil - Cawiye 2,2.078356,45.2554298
Banadir,Mogadishu Dayniile,Kaarson - Burdaar,2.06177,45.280443
Banadir,Mogadishu Dayniile,Kaarson - Saabarin,2.06145,45.280297
Banadir,Mogadishu Dayniile,Kalamashoorto - Ciiltire,2.0800924,45.2550595
Banadir,Mogadishu Dayniile,Kalamashoorto - Ciitire,2.0800798,45.2551316
Banadir,Mogadishu Dayniile,Kalamashoorto - Dacad,2.0782836,45.252669
Banadir,Mogadishu Dayniile,Kalamashoorto - Dacat,2.0781962,45.2527194
Banadir,Mogadishu Dayniile,Kalamashoorto - Danyar,2.0779362,45.2542901
Banadir,Mogadishu Dayniile,Kalamashoorto - Macquul,2.077835,45.2544131
Banadir,Mogadishu Dayniile,Kalamashoorto - Maquul,2.0777286,45.2545588
Banadir,Mogadishu Dayniile,Kalamashoorto - Taqwfiiq,2.0799072,45.2537773
Banadir,Mogadishu Dayniile,Kalamashoorto - Towfiq,2.080043,45.2550944
Banadir,Mogadishu Dayniile,Kalamashoorto - Walaalh,2.0802122,45.253895
Banadir,Mogadishu Dayniile,Kalamashoorto - Walalaha,2.080196,45.2539486
Banadir,Mogadishu Dayniile,Kalsoon - Shaq-Shaqle,2.075956,45.267505
Banadir,Mogadishu Dayniile,Kalsoon - Warandiid,2.075774,45.267686
Banadir,Mogadishu Dayniile,Kalsoon - Wayeel-Dhowr,2.075956,45.267505
Banadir,Mogadishu Dayniile,Kalsoon - Yabis-Diid,2.075956,45.267505
Banadir,Mogadishu Dayniile,Khadhiib - Ceel Dheer,2.0901889,45.2513173
Banadir,Mogadishu Dayniile,Kherdoon - Ceel Been,2.0744264,45.2815487
Banadir,Mogadishu Dayniile,Kobciye - Bawaqo,2.0830524,45.2923773
Banadir,Mogadishu Dayniile,Kobciye - Gacal,2.0834941,45.2931358
Banadir,Mogadishu Dayniile,Koorsan - Sabriye,2.061543,45.280863
Banadir,Mogadishu Dayniile,Kor Damac - Buur Bishaar,2.093835,45.287408
Banadir,Mogadishu Dayniile,Kor Damac - Gabaldiye,2.093398,45.286722
Banadir,Mogadishu Dayniile,Koraar - Bakaarey,2.0701518,45.2302628
Banadir,Mogadishu Dayniile,Koraar - Degalole,2.0704525,45.2302957
Banadir,Mogadishu Dayniile,Koraar - Koraar,2.0704103,45.2302868
Banadir,Mogadishu Dayniile,Kulan - Deeqo Rabe 2,2.0735134,45.2528832
Banadir,Mogadishu Dayniile,Kulan - Deqrabi,2.0733386,45.2522609
Banadir,Mogadishu Dayniile,Kulan - Owliyo,2.0733569,45.2525703
Banadir,Mogadishu Dayniile,Kulmis 3,2.066554,45.276476
Banadir,Mogadishu Dayniile,Kulmis 3 - Caawale,2.063789,45.280495
Banadir,Mogadishu Dayniile,Kulmis 4,2.063759,45.280489
Banadir,Mogadishu Dayniile,Kulmis 4 - Barsan,2.0769962,45.2297825
Banadir,Mogadishu Dayniile,Kulmis 4 - Burkud2,2.0760779,45.2296603
Banadir,Mogadishu Dayniile,Kun Deeq - Boorar 2,2.097598,45.28616
Banadir,Mogadishu Dayniile,Kuntuwarey - Deg-Mamow,2.0868775,45.2926576
Banadir,Mogadishu Dayniile,Kuntuwarey - Garaslay,2.0864731,45.292661
Banadir,Mogadishu Dayniile,Kuntuwarey - Wasaariyaad,2.0868976,45.2926591
Banadir,Mogadishu Dayniile,Kunyo Barow - Buaale,2.0771153,45.2275749
Banadir,Mogadishu Dayniile,Kunyo Barow - Jilib,2.0774354,45.2274014
Banadir,Mogadishu Dayniile,Kunyo Barow - Kiwibaro,2.0767322,45.2278573
Banadir,Mogadishu Dayniile,Kuun Deqa - Shanta America,2.09371,45.284862
Banadir,Mogadishu Dayniile,Laabta Buur - Dalmar,2.09009,45.291393
Banadir,Mogadishu Dayniile,Libaanta Qoryole - Kheyrqabe,2.0747962,45.2545209
Banadir,Mogadishu Dayniile,Libaanta Qoryole - Talakeen,2.0739846,45.2536973
Banadir,Mogadishu Dayniile,Libaanta Qoryole - Warjano,2.0739657,45.2543785
Banadir,Mogadishu Dayniile,Libaanta Shabelle - ,2.0758739,45.2547071
Banadir,Mogadishu Dayniile,Libaanta Shabelle - Alaanbur,2.075836,45.2546345
Banadir,Mogadishu Dayniile,Libaanta Shabelle - Baqdaad,2.0739655,45.2539046
Banadir,Mogadishu Dayniile,Libaanta Shabelle - Jawaari,2.0759154,45.2547431
Banadir,Mogadishu Dayniile,Libaanta Shabelle - Liibaanta Shabeele,2.0761321,45.2547497
Banadir,Mogadishu Dayniile,Libaanta Shabelle - Warjano,2.0743424,45.2544566
Banadir,Mogadishu Dayniile,Libin - Aqbal,2.0710994,45.2796418
Banadir,Mogadishu Dayniile,Libin - Gorgor,2.0709888,45.2798004
Banadir,Mogadishu Dayniile,Libin - Hubaal,2.0711533,45.2796382
Banadir,Mogadishu Dayniile,Maamuus - Buule,2.0838777,45.2956192
Banadir,Mogadishu Dayniile,Maamuus - Nadiif,2.0845573,45.296832
Banadir,Mogadishu Dayniile,Maamuus - Qalimow,2.0844364,45.2966137
Banadir,Mogadishu Dayniile,Maamuus - Qodqodow,2.083964,45.295615
Banadir,Mogadishu Dayniile,Maamuus - Sabaax,2.0840674,45.2960188
Banadir,Mogadishu Dayniile,Maansur - Allemagan,2.07543,45.265393
Banadir,Mogadishu Dayniile,Maansur - Budbud,2.07476,45.265007
Banadir,Mogadishu Dayniile,Maansur - Cagarweyne,2.074507,45.264525
Banadir,Mogadishu Dayniile,Maansur - Ugbaad,2.073372,45.265234
Banadir,Mogadishu Dayniile,Maareeye - Hakad,2.07273,45.268343
Banadir,Mogadishu Dayniile,Mako Iyo Madiino - Halgan,2.0778043,45.2566225
Banadir,Mogadishu Dayniile,Mako Iyo Madiino - Halgan,2.0724996,45.2536106
Banadir,Mogadishu Dayniile,Mako Iyo Madiino - Iftiin,2.077666,45.2562592
Banadir,Mogadishu Dayniile,Mako Iyo Madiino - Marwo,2.0775249,45.255859
Banadir,Mogadishu Dayniile,Mako Iyo Madiino - Sulub,2.0778311,45.256181
Banadir,Mogadishu Dayniile,Malable - Alla Weyn,2.072751,45.273142
Banadir,Mogadishu Dayniile,Malable - Basro,2.072751,45.273142
Banadir,Mogadishu Dayniile,Malable - Bilaal,2.072751,45.273142
Banadir,Mogadishu Dayniile,Malable - Boolimow,2.072751,45.273142
Banadir,Mogadishu Dayniile,Malable - Bulaay,2.072751,45.273142
Banadir,Mogadishu Dayniile,Malable - Farlibaax,2.072751,45.273142
Banadir,Mogadishu Dayniile,Malable - Istanbul,2.072276,45.272262
Banadir,Mogadishu Dayniile,Malable - Jameeco Shiino,2.072751,45.273142
Banadir,Mogadishu Dayniile,Malable - Jimbiley,2.072751,45.273142
Banadir,Mogadishu Dayniile,Malable - Kulanto,2.072276,45.272262
Banadir,Mogadishu Dayniile,Malable - Midnimo,2.072276,45.272262
Banadir,Mogadishu Dayniile,Malable - Muruqmaal,2.072276,45.272262
Banadir,Mogadishu Dayniile,Malable - Qalaafo,2.072276,45.272262
Banadir,Mogadishu Dayniile,Malable - Qodqod,2.072751,45.273142
Banadir,Mogadishu Dayniile,Malable - Wabi Shabeele,2.072276,45.272262
Banadir,Mogadishu Dayniile,Malable 2 - Nasiib,2.0702707,45.2360276
Banadir,Mogadishu Dayniile,Malable 2 - Quryo Weyne,2.0697411,45.2361165
Banadir,Mogadishu Dayniile,Maqsuud - Awdhiigle,2.0712467,45.2497506
Banadir,Mogadishu Dayniile,Mareeg - Alifow,2.0885909,45.250003
Banadir,Mogadishu Dayniile,Mareeg - Baladul Kariim,2.0880804,45.2511301
Banadir,Mogadishu Dayniile,Mareeg - Dahiney,2.0885464,45.2504695
Banadir,Mogadishu Dayniile,Mareeg - Dawoole,2.0884482,45.2509273
Banadir,Mogadishu Dayniile,Mareg - Don Cadale,2.095904,45.290154
Banadir,Mogadishu Dayniile,Mareg - Galmudug,2.095942,45.290166
Banadir,Mogadishu Dayniile,Marwo - Ceel-Buur,2.094375,45.291338
Banadir,Mogadishu Dayniile,Maslah - Al Muciim,2.0765433,45.2534417
Banadir,Mogadishu Dayniile,Maslah - Fatxul Qarib,2.0764834,45.2530557
Banadir,Mogadishu Dayniile,Maslax - Hayaan 1,2.067464,45.279912
Banadir,Mogadishu Dayniile,Maslax - Maslax,2.067622,45.278679
Banadir,Mogadishu Dayniile,Maydoog - Buqgoosaar,2.0907928,45.2869219
Banadir,Mogadishu Dayniile,Mina - Fatxul Qariib,2.0765689,45.2538552
Banadir,Mogadishu Dayniile,Mishra Alla Aamiin - Dabotan,2.0775653,45.2275804
Banadir,Mogadishu Dayniile,Mishra Alla Aamiin - Miyaale,2.0712007,45.2300534
Banadir,Mogadishu Dayniile,Mishra Alla Aamiin - Qarshe2,2.0780873,45.2282739
Banadir,Mogadishu Dayniile,Moybaaloo - Baado,2.085135,45.2749133
Banadir,Mogadishu Dayniile,Nabad Iyo Nolol - Deymodheere,2.098412,45.287618
Banadir,Mogadishu Dayniile,Nagaad - Maqsuud,2.07122,45.232018
Banadir,Mogadishu Dayniile,Nagaadweyn - Buurcade,2.0715686,45.2314348
Banadir,Mogadishu Dayniile,Nagaadweyn - Iimansuge,2.0710764,45.2319581
Banadir,Mogadishu Dayniile,Nagaadweyn - Nagaad,2.0715852,45.2313566
Banadir,Mogadishu Dayniile,Nagaadweyn - Qeer Qabe,2.071088,45.2306988
Banadir,Mogadishu Dayniile,Nasib Alle - Bunsuge,2.073075,45.2711433
Banadir,Mogadishu Dayniile,Nasib Alle - Daryel Bulsho,2.07272,45.2722623
Banadir,Mogadishu Dayniile,Nasib Alle - Har Macaane,2.0722066,45.2716118
Banadir,Mogadishu Dayniile,Nasib Alle - Raaxoley,2.072498,45.2722623
Banadir,Mogadishu Dayniile,Nasib Center - Kurtaan,2.070152,45.281053
Banadir,Mogadishu Dayniile,Nasiib - Nasiib,2.0702521,45.2508856
Banadir,Mogadishu Dayniile,Nasiye Bar Yare - Keyf,2.0972846,45.2903777
Banadir,Mogadishu Dayniile,New Kifaax,2.074797,45.285537
Banadir,Mogadishu Dayniile,Nicatu Rabi - Nimcatu Rabi,2.0720263,45.249435
Banadir,Mogadishu Dayniile,Nimcodoon,2.09009,45.291393
Banadir,Mogadishu Dayniile,Nusdariiq,2.07277,45.286503
Banadir,Mogadishu Dayniile,Nuurdiin,2.1006617,45.2898567
Banadir,Mogadishu Dayniile,Qaac-Dheer,2.067111,45.280086
Banadir,Mogadishu Dayniile,Qaboobe 5 - Bidhaanweyne,2.085301,45.291918
Banadir,Mogadishu Dayniile,Qaboobe 5 - Dhardhaar,2.084643,45.291813
Banadir,Mogadishu Dayniile,Qayr Qabe - Jamaal,2.098325,45.293175
Banadir,Mogadishu Dayniile,Qayr Qabe - Qeyr Qabe,2.098638,45.293764
Banadir,Mogadishu Dayniile,Qayr Qabe - Xawo Tako,2.099073,45.294249
Banadir,Mogadishu Dayniile,Qoob-Yaxaas,2.101451,45.291518
Banadir,Mogadishu Dayniile,Qoslaaye - Heeridiid,2.094813,45.282653
Banadir,Mogadishu Dayniile,Qurac Dheere - Dal I Duur,2.0767264,45.2283157
Banadir,Mogadishu Dayniile,Qurac Dheere - Quracdhere,2.076487,45.2282995
Banadir,Mogadishu Dayniile,Qurac Dheere - Yimbis,2.0765557,45.2284162
Banadir,Mogadishu Dayniile,Rabi Suge,2.0707032,45.2515453
Banadir,Mogadishu Dayniile,Rabi Suge - Nafiso,2.0709401,45.2510989
Banadir,Mogadishu Dayniile,Rabi Suge - Nafiso 1,2.0733053,45.2518376
Banadir,Mogadishu Dayniile,Rabi Suge - Wacdi,2.0705037,45.2516667
Banadir,Mogadishu Dayniile,Rabi Yasir - Gumbarer,2.075117,45.2293984
Banadir,Mogadishu Dayniile,Rabi Yasir - Modmode,2.0753934,45.2293497
Banadir,Mogadishu Dayniile,Rabi Yasir - War Dheer,2.0754427,45.2298479
Banadir,Mogadishu Dayniile,Rabi Yasir - Xareedley,2.0713623,45.2304356
Banadir,Mogadishu Dayniile,Rajo Wanaag,2.069745,45.2549256
Banadir,Mogadishu Dayniile,Ramaas - Al Bishaar,2.0920311,45.2902417
Banadir,Mogadishu Dayniile,Ramaas - Ciid,2.092338,45.290726
Banadir,Mogadishu Dayniile,Ramaas - Siin 2,2.092287,45.291397
Banadir,Mogadishu Dayniile,Ramaas - Tamaan,2.0927074,45.2903541
Banadir,Mogadishu Dayniile,Ramadhan - Bajeelo,2.0729391,45.2304955
Banadir,Mogadishu Dayniile,Ramadhan - Ciinle,2.0721529,45.2312884
Banadir,Mogadishu Dayniile,Ramadhan - Galcad,2.0725378,45.2313339
Banadir,Mogadishu Dayniile,Ramadhan - Rey Dab,2.0731077,45.2307466
Banadir,Mogadishu Dayniile,Ramadhan - Sagalciid2,2.072475,45.2308801
Banadir,Mogadishu Dayniile,Ramakulow - Ramakulow,2.0740039,45.2957199
Banadir,Mogadishu Dayniile,Rasmi - Al Cadaala,2.0658434,45.2568476
Banadir,Mogadishu Dayniile,Raso,2.069819,45.282673
Banadir,Mogadishu Dayniile,Rooble - Maka Iyo Madiino,2.077488,45.2557874
Banadir,Mogadishu Dayniile,Rug Janno,2.1000759,45.2832216
Banadir,Mogadishu Dayniile,Ruk Iyo Rasmi,2.074007,45.286862
Banadir,Mogadishu Dayniile,Rumaan - Taakulo,2.0909563,45.2538108
Banadir,Mogadishu Dayniile,Rumi Good - Maracade,2.083976,45.271514
Banadir,Mogadishu Dayniile,Rumi Good - Mawliid Yare,2.097473,45.290395
Banadir,Mogadishu Dayniile,Ruuxaanta - Risaala,2.099792,45.283547
Banadir,Mogadishu Dayniile,Saacid - Idey,2.0715163,45.2796329
Banadir,Mogadishu Dayniile,Saacid - Qurac,2.0706322,45.2789765
Banadir,Mogadishu Dayniile,Saafi - Al-Cadaala,2.0667072,45.2572999
Banadir,Mogadishu Dayniile,Sabiib - Alcadaala,2.0660541,45.2569359
Banadir,Mogadishu Dayniile,Sablal Sayf,2.093807,45.285077
Banadir,Mogadishu Dayniile,Sagaaroole,2.0945824,45.2909962
Banadir,Mogadishu Dayniile,Sahal,2.081679,45.291141
Banadir,Mogadishu Dayniile,Sahan Hooyo 1 - Barwaaqo,2.0729539,45.2330075
Banadir,Mogadishu Dayniile,Sahan Hooyo 1 - Baryare,2.0731187,45.2330428
Banadir,Mogadishu Dayniile,Sahan Hooyo 1 - Hubso,2.073051,45.2329421
Banadir,Mogadishu Dayniile,Sama Wade - Duurey,2.0717733,45.2320191
Banadir,Mogadishu Dayniile,Samaan,2.088203,45.283948
Banadir,Mogadishu Dayniile,Samakab,2.073109,45.271996
Banadir,Mogadishu Dayniile,Saxan Saxo - Barwaaqo,2.0999516,45.2877
Banadir,Mogadishu Dayniile,Saxan Saxo - Hanaan,2.1004844,45.2877143
Banadir,Mogadishu Dayniile,Saxansaxo - Himilo,2.0995174,45.2864096
Banadir,Mogadishu Dayniile,Saxansaxo - Labatogane,2.099816,45.285696
Banadir,Mogadishu Dayniile,Saxil - Qabowe2,2.067579,45.269833
Banadir,Mogadishu Dayniile,Shaacir - Baaloow,2.0710951,45.234123
Banadir,Mogadishu Dayniile,Shaacir - Bardhiire,2.071144,45.2341121
Banadir,Mogadishu Dayniile,Shaacir - Booc Yarey,2.0710866,45.2344432
Banadir,Mogadishu Dayniile,Shaacir - Bur Eyle,2.0710688,45.23419
Banadir,Mogadishu Dayniile,Shaacir - Buur Eylo,2.071106,45.2337256
Banadir,Mogadishu Dayniile,Shaacir - Shaacir,2.0711015,45.2340879
Banadir,Mogadishu Dayniile,Shabeeloyinka - Mahadaay,2.098411,45.292307
Banadir,Mogadishu Dayniile,Shabeeloyinka - Xariir Siin,2.098541,45.292097
Banadir,Mogadishu Dayniile,Shacir - Bocyerey,2.0754482,45.2303305
Banadir,Mogadishu Dayniile,Shamsu Diin - Faqru Diin,2.080806,45.277366
Banadir,Mogadishu Dayniile,Shamsu Diin - Kamalu Diin,2.082279,45.278009
Banadir,Mogadishu Dayniile,Shamsu Diin - Mooge,2.082032,45.277574
Banadir,Mogadishu Dayniile,Shamsu Diin - Nasru Diin,2.081398,45.277677
Banadir,Mogadishu Dayniile,Shamsu Diin - Sadex Geesood,2.081801,45.278047
Banadir,Mogadishu Dayniile,Shamsu Diin - Tawxiid,2.081906,45.277679
Banadir,Mogadishu Dayniile,Shancad - Sedex Xidig,2.081542,45.276621
Banadir,Mogadishu Dayniile,Shancad - Shakab,2.081536,45.276667
Banadir,Mogadishu Dayniile,Shangaani - Buulo Maree,2.073258,45.27902
Banadir,Mogadishu Dayniile,Shangaani - Ciiltire,2.073281,45.278488
Banadir,Mogadishu Dayniile,Shangaani - Kun Ciil,2.07307,45.279032
Banadir,Mogadishu Dayniile,Shangaani - Maslax,2.072874,45.278593
Banadir,Mogadishu Dayniile,Shangaani - Sablaale,2.073111,45.279044
Banadir,Mogadishu Dayniile,Shangaani - Xalane,2.073147,45.278714
Banadir,Mogadishu Dayniile,Shangaani - Xanaano,2.072933,45.27871
Banadir,Mogadishu Dayniile,Shangare - Maleel,2.0708987,45.2379956
Banadir,Mogadishu Dayniile,Shibis - Boondheer,2.0688,45.2779
Banadir,Mogadishu Dayniile,Shibis - Ciiltire 3,2.068802,45.277941
Banadir,Mogadishu Dayniile,Shibis - Shibis,2.068802,45.277941
Banadir,Mogadishu Dayniile,Shibis - Xaawo-Taako,2.068802,45.277941
Banadir,Mogadishu Dayniile,Shiniile - Barakale,2.074913,45.2554665
Banadir,Mogadishu Dayniile,Shiniile - Hubane,2.0756979,45.2533682
Banadir,Mogadishu Dayniile,Shirwac - Shurwac,2.09009,45.291393
Banadir,Mogadishu Dayniile,Sowdo - Dar Alle,2.070675,45.262603
Banadir,Mogadishu Dayniile,Sowdo - Furqaan2,2.070518,45.262545
Banadir,Mogadishu Dayniile,Sowdo - Jaale,2.070675,45.262607
Banadir,Mogadishu Dayniile,Sowdo - Kalsoon2,2.070627,45.262452
Banadir,Mogadishu Dayniile,Suruqle - Mudey,2.0686231,45.2554174
Banadir,Mogadishu Dayniile,Suruqle - Riyaaq,2.0683132,45.2557908
Banadir,Mogadishu Dayniile,Taakulo - Iiroon,2.0905909,45.2542439
Banadir,Mogadishu Dayniile,Taakulo - Kurbadiid,2.0920554,45.2535506
Banadir,Mogadishu Dayniile,Taakulo - Naxaiis,2.0903782,45.2544793
Banadir,Mogadishu Dayniile,Talakeen - Liibaanta Shabeele,2.0739992,45.2537162
Banadir,Mogadishu Dayniile,Taleex - Baki,2.072072,45.272846
Banadir,Mogadishu Dayniile,Taleex - Togdheer,2.072072,45.272846
Banadir,Mogadishu Dayniile,Talo Raac - Allaa Kariim,2.075469,45.274773
Banadir,Mogadishu Dayniile,Talo Raac - Deeq Alle,2.075397,45.275218
Banadir,Mogadishu Dayniile,Talo Raac - Sariir,2.075504,45.274994
Banadir,Mogadishu Dayniile,Talo Wadaag - Sawdo,2.0711764,45.2334502
Banadir,Mogadishu Dayniile,Talowle - Reys Bar Waqo,2.0988863,45.2894023
Banadir,Mogadishu Dayniile,Tanaad - Deeqtoon,2.073547,45.275051
Banadir,Mogadishu Dayniile,Tanaad - Shabeele,2.074973,45.271566
Banadir,Mogadishu Dayniile,Tanaad - Shabelle,2.074973,45.271566
Banadir,Mogadishu Dayniile,Tankulan - Isha Beeydhabo,2.0790991,45.2530994
Banadir,Mogadishu Dayniile,Tifow - Tibtiyaasha,2.0894832,45.2556876
Banadir,Mogadishu Dayniile,Tiri Nugaal,2.0722022,45.238778
Banadir,Mogadishu Dayniile,Tookiyo,2.079088,45.2537931
Banadir,Mogadishu Dayniile,Ubax - Dilaanyooley,2.063998,45.27666
Banadir,Mogadishu Dayniile,Ufurow - Oofurow,2.0701479,45.2511254
Banadir,Mogadishu Dayniile,Waabari - Gambler Laawe,2.084159,45.281082
Banadir,Mogadishu Dayniile,Wadajir - Dugsilow,2.0709816,45.2326112
Banadir,Mogadishu Dayniile,Wadajir - Durdur,2.0712115,45.2330959
Banadir,Mogadishu Dayniile,Wadajir - Shiime,2.0709962,45.233258
Banadir,Mogadishu Dayniile,Walaalaha - Abshirow,2.0693778,45.2435475
Banadir,Mogadishu Dayniile,Walalaha Iskashi - Alxamdu,2.073263,45.273071
Banadir,Mogadishu Dayniile,Walalaha Iskashi - Carfon,2.073608,45.271855
Banadir,Mogadishu Dayniile,Waliyow Cade - Cymis,2.0765567,45.2828919
Banadir,Mogadishu Dayniile,Waliyow Cade - Shaqalan Bood,2.0765369,45.282898
Banadir,Mogadishu Dayniile,Waliyow Cade - Waabari,2.0766892,45.2829296
Banadir,Mogadishu Dayniile,Wanaagsan - Wanaagsan,2.072751,45.273142
Banadir,Mogadishu Dayniile,Wanbate - Carfoon,2.069484,45.281619
Banadir,Mogadishu Dayniile,Wanbate - Ileys Nuur,2.069376,45.282232
Banadir,Mogadishu Dayniile,Waniiniye 2 - Adanyabal2,2.0746663,45.2275739
Banadir,Mogadishu Dayniile,Waniiniye 2 - Bilaquban,2.0748796,45.2277829
Banadir,Mogadishu Dayniile,Waniiniye 2 - Shiniile,2.0746562,45.2274058
Banadir,Mogadishu Dayniile,War Caasho - Awdiinle,2.067516,45.273471
Banadir,Mogadishu Dayniile,War Caasho - Barwaaqo,2.067608,45.273546
Banadir,Mogadishu Dayniile,War Caasho - Camalow,2.069628,45.273808
Banadir,Mogadishu Dayniile,War Caasho - Ceel Ure,2.069595,45.273163
Banadir,Mogadishu Dayniile,War Caasho - Duceysane,2.067963,45.2737
Banadir,Mogadishu Dayniile,War Caasho - Golweyn1,2.067695,45.273603
Banadir,Mogadishu Dayniile,War Caasho - Kudar,2.068684,45.273683
Banadir,Mogadishu Dayniile,War Caasho - Qabridiid,2.06985,45.272727
Banadir,Mogadishu Dayniile,War Caasho - War Caasho,2.068281,45.273421
Banadir,Mogadishu Dayniile,War Iisho - Taakulo,2.0901083,45.2532403
Banadir,Mogadishu Dayniile,Wardiid - Garasqaloc,2.0728729,45.2287998
Banadir,Mogadishu Dayniile,Wardiid - Maqsuud,2.072866,45.2287817
Banadir,Mogadishu Dayniile,War-Harqaan,2.072669,45.287538
Banadir,Mogadishu Dayniile,Waris,2.082712,45.273737
Banadir,Mogadishu Dayniile,Warmaaxi - Axdi,2.072072,45.290875
Banadir,Mogadishu Dayniile,Warmaaxi - Bulalow,2.0773697,45.2842828
Banadir,Mogadishu Dayniile,Warsan - Dagamor,2.0759012,45.2273158
Banadir,Mogadishu Dayniile,Warsan - Juba,2.070487,45.236979
Banadir,Mogadishu Dayniile,Warsan - Kamoori,2.0764002,45.2273338
Banadir,Mogadishu Dayniile,Warsan - Lowfooraar,2.0756889,45.2273941
Banadir,Mogadishu Dayniile,Warsan - Tuurumow,2.0758681,45.2271937
Banadir,Mogadishu Dayniile,Warshiiq - Daru Shamsa,2.0910044,45.2866286
Banadir,Mogadishu Dayniile,Wishaaqle - Wishaaqle,2.0729754,45.2527254
Banadir,Mogadishu Dayniile,Xagar - Buulo Galool,2.098882,45.292548
Banadir,Mogadishu Dayniile,Xagar - Xagar,2.098534,45.292244
Banadir,Mogadishu Dayniile,Xamar Bile - Afrax,2.073109,45.271996
Banadir,Mogadishu Dayniile,Xamar Bile - Baanow,2.072072,45.290875
Banadir,Mogadishu Dayniile,Xamar Bile - Buulo Xarmo,2.085899,45.28098
Banadir,Mogadishu Dayniile,Xamar Bile - Dajiye,2.072072,45.290875
Banadir,Mogadishu Dayniile,Xamar Bile - Darajo Waalid,2.072072,45.290875
Banadir,Mogadishu Dayniile,Xamar Bile - Dhal Gobeed,2.072072,45.290875
Banadir,Mogadishu Dayniile,Xamar Bile - Hafid,2.086195,45.281357
Banadir,Mogadishu Dayniile,Xamar Bile - Haloo Maciino,2.072072,45.290875
Banadir,Mogadishu Dayniile,Xamar Bile - Iska Hubi,2.072072,45.290875
Banadir,Mogadishu Dayniile,Xamar Bile - Kaah,2.086192,45.281029
Banadir,Mogadishu Dayniile,Xamar Bile - Latasho,2.086156,45.280968
Banadir,Mogadishu Dayniile,Xamar Bile - Maido2,2.072072,45.290875
Banadir,Mogadishu Dayniile,Xamar Bile - Nafis,2.08578,45.281352
Banadir,Mogadishu Dayniile,Xamar Bile - Qiimo,2.072072,45.290875
Banadir,Mogadishu Dayniile,Xamar Bile - Ruun Adunyo,2.085948,45.281406
Banadir,Mogadishu Dayniile,Xamar Bile - Xamar Bile,2.072072,45.290875
Banadir,Mogadishu Dayniile,Xasuus - Hanaan Qurux,2.0887939,45.2515587
Banadir,Mogadishu Dayniile,Xasuus - Xasuus,2.0883428,45.2518271
Banadir,Mogadishu Dayniile,Xiddig Center - Buurukur,2.0954002,45.2895888
Banadir,Mogadishu Dayniile,Xiddig Center - Farlibaax,2.0952184,45.2906743
Banadir,Mogadishu Dayniile,Xiddig Center - Nuuralceyn,2.0951592,45.2890251
Banadir,Mogadishu Dayniile,Xiddig Center - Salaam 2,2.0953163,45.2913501
Banadir,Mogadishu Dayniile,Xubbi - Cadii Bonad,2.0772322,45.227648
Banadir,Mogadishu Dayniile,Yaaq Biriweyna - Toka Laba,2.0950464,45.2878016
Banadir,Mogadishu Dayniile,Yaaq Biriweyna - Towfiq,2.0950464,45.2878016
Banadir,Mogadishu Dayniile,Yaaq Biriweyna - Yoontooy,2.097317,45.28153
Banadir,Mogadishu Dayniile,Yaaqle - Yaaqle,2.082237,45.290345
Banadir,Mogadishu Dayniile,Yahyo Otokitab - Al- Sowda,2.097085,45.277016
Banadir,Mogadishu Dayniile,Yaqdhuub - Goobween,2.0766065,45.2281349
Banadir,Mogadishu Dayniile,Yaqdhuub - Yaqdhuub,2.0765122,45.2282735
Banadir,Mogadishu Dayniile,Yasir - Janale,2.0756319,45.2295875
Banadir,Mogadishu Dayniile,Yasir Alla - Sabihisma,2.084372,45.291216
Banadir,Mogadishu Dayniile,Zaad - Biyoole,2.072991,45.276239
Banadir,Mogadishu Dayniile,Zaad - Daacad,2.07303,45.27625
Banadir,Mogadishu Dayniile,Zaad - Danyar,2.073618,45.275713
Banadir,Mogadishu Khada,Adan Yabaal - Owfloow,2.060092,45.266693
Banadir,Mogadishu Khada,Af Barwaaqo - Biyo Mace,2.0599318,45.2615647
Banadir,Mogadishu Khada,Af Barwaaqo - Burhaan,2.061347,45.2595047
Banadir,Mogadishu Khada,Af Barwaaqo - Hared,2.0610603,45.2591488
Banadir,Mogadishu Khada,Afmaduul,2.0613523,45.2468172
Banadir,Mogadishu Khada,Agarane,2.0658167,45.23095
Banadir,Mogadishu Khada,Al Muhiim - Al Kaatib,2.0463285,45.2502431
Banadir,Mogadishu Khada,Al Najuum - Sacid,2.0565563,45.2606946
Banadir,Mogadishu Khada,Al Nuur,2.0675429,45.2354869
Banadir,Mogadishu Khada,Al Nuur - Al Nuur,2.066796,45.2540871
Banadir,Mogadishu Khada,Al Nuur - Bahjo,2.0666615,45.2542861
Banadir,Mogadishu Khada,Al Nuur - Barqadle,2.0665676,45.2541777
Banadir,Mogadishu Khada,Al Nuur - Maslah,2.0669636,45.2544346
Banadir,Mogadishu Khada,Al Qamar,2.0620129,45.2458867
Banadir,Mogadishu Khada,Al Raxma - Bilkheyr,2.0680323,45.2398821
Banadir,Mogadishu Khada,Al Subxaan - Al Faatax,2.0615413,45.254878
Banadir,Mogadishu Khada,Al Subxaan - Al Fatih,2.0614011,45.254884
Banadir,Mogadishu Khada,Al Subxaan - Al Nasib,2.0615489,45.2548607
Banadir,Mogadishu Khada,Al Subxaan - Al Nasra,2.0613803,45.2548971
Banadir,Mogadishu Khada,Al Subxaan - Al Subxaan,2.0617045,45.2549913
Banadir,Mogadishu Khada,Al Subxaan - Bucurow,2.0614178,45.2548321
Banadir,Mogadishu Khada,Al Subxaan - Buslow,2.0613333,45.2547997
Banadir,Mogadishu Khada,Al Subxaan - Buulo Dacar,2.0609698,45.2544549
Banadir,Mogadishu Khada,Al Subxaan - Cadaawe Nugul,2.0613731,45.2548587
Banadir,Mogadishu Khada,Al Subxaan - Cadaawe Yare,2.0617294,45.2550336
Banadir,Mogadishu Khada,Al Subxaan - Cadawa Yare,2.0614061,45.2548903
Banadir,Mogadishu Khada,Al Subxaan - Cali Ikran,2.0613906,45.2548844
Banadir,Mogadishu Khada,Ala Weyn,2.0554833,45.265625
Banadir,Mogadishu Khada,Alkowthar - Ceenabo,2.060661,45.2294032
Banadir,Mogadishu Khada,Alkowthar - Safari,2.0601614,45.2293325
Banadir,Mogadishu Khada,Alla Tuuk 2 - Danshacab,2.052264,45.238717
Banadir,Mogadishu Khada,Allemagan 2 - Buulo Qaliif,2.0636942,45.2531838
Banadir,Mogadishu Khada,Allemagan 2 - Najax,2.0637115,45.2531334
Banadir,Mogadishu Khada,Allemagan 2 - Nasiib,2.0639706,45.2533892
Banadir,Mogadishu Khada,Allemagan 2 - Nastex,2.0639244,45.2533382
Banadir,Mogadishu Khada,Alxaliim,2.0668572,45.244052
Banadir,Mogadishu Khada,Anshax - Yasmiin,2.0552196,45.2714826
Banadir,Mogadishu Khada,Arjac - Xagar,2.0633506,45.2285766
Banadir,Mogadishu Khada,Aruurishow - Aruurshow,2.0617817,45.2533243
Banadir,Mogadishu Khada,Aruurishow - Garas Bule,2.0617431,45.2527383
Banadir,Mogadishu Khada,Aruurishow - Kalmoy,2.0619743,45.2536403
Banadir,Mogadishu Khada,Baale,2.0622901,45.2239804
Banadir,Mogadishu Khada,Baali - Muno,2.050674,45.2553725
Banadir,Mogadishu Khada,Baali - Mushani,2.0506156,45.2556876
Banadir,Mogadishu Khada,Baali - Sumayo,2.0507521,45.2559869
Banadir,Mogadishu Khada,Baali - Taredishe,2.0504306,45.2550439
Banadir,Mogadishu Khada,Baali - Wardiile,2.0506728,45.2556566
Banadir,Mogadishu Khada,Baali - Xariir Baali,2.0505675,45.2558697
Banadir,Mogadishu Khada,Baar Qooley,2.0631068,45.2232059
Banadir,Mogadishu Khada,Baardheere - Qoryooley,2.0613344,45.2535529
Banadir,Mogadishu Khada,Baardheere - Wacane,2.0611529,45.253179
Banadir,Mogadishu Khada,Bakat - Aybutey,2.0397856,45.2596719
Banadir,Mogadishu Khada,Bakat - Banani,2.0398442,45.2597702
Banadir,Mogadishu Khada,Bakat - Docley,2.0403154,45.2603058
Banadir,Mogadishu Khada,Banaaaney - Furuqley,2.060322,45.2320746
Banadir,Mogadishu Khada,Banaaaney - Gargaar Bulsho,2.0603089,45.2311888
Banadir,Mogadishu Khada,Banaaaney - Mustaqbal,2.0599222,45.2304171
Banadir,Mogadishu Khada,Banaaaney - Qawoowe,2.0600684,45.2305373
Banadir,Mogadishu Khada,Banane - Harerley,2.0376862,45.2604475
Banadir,Mogadishu Khada,Banyaal - Barqadle,2.0468461,45.2541484
Banadir,Mogadishu Khada,Banyaal - Baydhabo,2.0464625,45.253897
Banadir,Mogadishu Khada,Bar Kulan - Xidid,2.0655408,45.2388284
Banadir,Mogadishu Khada,Barafley - Dhariyoow,2.0400447,45.2615413
Banadir,Mogadishu Khada,Barafley - Gaywarow,2.0399128,45.2610388
Banadir,Mogadishu Khada,Barafley - Muuri,2.0395217,45.2609894
Banadir,Mogadishu Khada,Bardaale - Nabadoon,2.0540565,45.2689513
Banadir,Mogadishu Khada,Bardaale - Qansax Oomane,2.0547657,45.2689244
Banadir,Mogadishu Khada,Bariire - Awdheegle,2.0615165,45.2531691
Banadir,Mogadishu Khada,Bariire - Bariire,2.0614309,45.252653
Banadir,Mogadishu Khada,Barwaaqo - Waabari,2.0561958,45.261175
Banadir,Mogadishu Khada,Baslawe - Baslaawe,2.053801,45.2641607
Banadir,Mogadishu Khada,Bay Iyo Bakol - Banqiyaamo,2.0627897,45.2509437
Banadir,Mogadishu Khada,Biitaale - Baar-Nasiib,2.0539862,45.2701681
Banadir,Mogadishu Khada,Biitaale - Beernaaseey,2.0534098,45.2693435
Banadir,Mogadishu Khada,Biitaale - Beerxaano,2.0534497,45.2697256
Banadir,Mogadishu Khada,Biitaale - Biitaale,2.0542337,45.2698421
Banadir,Mogadishu Khada,Bilaad,2.0630449,45.2442976
Banadir,Mogadishu Khada,Bilan2 - New Bilan,2.067183,45.2332883
Banadir,Mogadishu Khada,Bilicsan,2.0619482,45.2436944
Banadir,Mogadishu Khada,Bishaaro - Buulojaan,2.0406947,45.2614318
Banadir,Mogadishu Khada,Bishaaro - Kaxandho,2.0404502,45.2610411
Banadir,Mogadishu Khada,Bishaaro - Sagaaroole,2.0400001,45.2606356
Banadir,Mogadishu Khada,Bishaaro - Xididoole,2.039809,45.2602133
Banadir,Mogadishu Khada,Bismilaah,2.0639155,45.2449482
Banadir,Mogadishu Khada,Biyo Adde - Biyo Adde,2.0557756,45.2605726
Banadir,Mogadishu Khada,Biyo Adde - Culeesdiid,2.0555812,45.2603116
Banadir,Mogadishu Khada,Biyo Adde - Dhagaxmidow,2.0558004,45.2599425
Banadir,Mogadishu Khada,Biyo Adde - Nasiib,2.0555947,45.2602887
Banadir,Mogadishu Khada,Biyo Adde - Obliko,2.0556054,45.260281
Banadir,Mogadishu Khada,Biyo Badeed - Rajo Wanaag,2.0467274,45.2572894
Banadir,Mogadishu Khada,Boqolsoon,2.0574388,45.2674527
Banadir,Mogadishu Khada,Bula Jaaay - Bulojaay,2.0509656,45.2587273
Banadir,Mogadishu Khada,Bula Jaaay - Warjay,2.0505507,45.2584367
Banadir,Mogadishu Khada,Bula Jaaay - Warjiney,2.0505933,45.2585614
Banadir,Mogadishu Khada,Bula Jaaay - Warkamina,2.0502965,45.2585039
Banadir,Mogadishu Khada,Bula Jaaay - Waryerooy,2.0503946,45.2585418
Banadir,Mogadishu Khada,Bulocabdiyow,2.0661417,45.2310617
Banadir,Mogadishu Khada,Bulsho Bile - Bacaad,2.0601511,45.2465518
Banadir,Mogadishu Khada,Bulsho Bile - Biyooley,2.0606873,45.2465568
Banadir,Mogadishu Khada,Bulsho Bile - Bulsho Bile,2.0614595,45.2451142
Banadir,Mogadishu Khada,Bulsho Bile - Buulokulan,2.060393,45.246562
Banadir,Mogadishu Khada,Bulsho Bile - Buulosheeq,2.0609208,45.2454057
Banadir,Mogadishu Khada,Bulsho Bile - Fiqi,2.0603697,45.2463067
Banadir,Mogadishu Khada,Bulsho Bile - Garcilaan,2.0608352,45.2463227
Banadir,Mogadishu Khada,Bulsho Bile - Haduuman,2.0609931,45.2453203
Banadir,Mogadishu Khada,Bulsho Bile - Hakabo,2.0602444,45.2469033
Banadir,Mogadishu Khada,Bulsho Bile - Harar,2.0614015,45.2454568
Banadir,Mogadishu Khada,Bulsho Bile - Hareere2,2.0601828,45.2459758
Banadir,Mogadishu Khada,Bulsho Bile - Hareeri,2.0614035,45.2452691
Banadir,Mogadishu Khada,Bulsho Bile - Iidaale,2.0604259,45.2450868
Banadir,Mogadishu Khada,Bulsho Bile - Kumusaar,2.0605335,45.2458821
Banadir,Mogadishu Khada,Bulsho Bile - Madoolaw,2.059497,45.2462086
Banadir,Mogadishu Khada,Bulsho Bile - Mudan,2.0610412,45.245508
Banadir,Mogadishu Khada,Bulsho Bile - Qorax,2.0606722,45.2465115
Banadir,Mogadishu Khada,Bulsho Bile - Roonaa Rabaa Og,2.0594387,45.2467411
Banadir,Mogadishu Khada,Bulsho Bile - Sarmaandheer,2.0601834,45.2459903
Banadir,Mogadishu Khada,Bulsho Bile - Sirmaqabe,2.05984,45.2469287
Banadir,Mogadishu Khada,Bulsho Bile - Sool,2.0617225,45.2452715
Banadir,Mogadishu Khada,Bulsho-Uroon,2.0579443,45.2670857
Banadir,Mogadishu Khada,Busley,2.0651293,45.2151341
Banadir,Mogadishu Khada,Buulo - Barako,2.0611581,45.2451336
Banadir,Mogadishu Khada,Buulo Ciir - Arinsoy,2.0615863,45.2231807
Banadir,Mogadishu Khada,Caagdhoob,2.0627623,45.2234612
Banadir,Mogadishu Khada,Calfdoon,2.0563699,45.2678568
Banadir,Mogadishu Khada,Cambar Bin Cali - Geleyr,2.0572741,45.2612654
Banadir,Mogadishu Khada,Cambar Bin Cali - Xamdi,2.0599058,45.260459
Banadir,Mogadishu Khada,Canaad - Masoobiye,2.0515826,45.2553477
Banadir,Mogadishu Khada,Careys - Iidle Yare,2.0513255,45.2558825
Banadir,Mogadishu Khada,Carfooley - Rabituug,2.05885,45.2327322
Banadir,Mogadishu Khada,Ceebdiid,2.0638509,45.2435864
Banadir,Mogadishu Khada,Ceel Dheer - Haadfuul,2.044505,45.2518903
Banadir,Mogadishu Khada,Ceel Dheer - Jilyaale,2.0445804,45.2518577
Banadir,Mogadishu Khada,Ceel Dheer - Kulmoow,2.051335,45.2450078
Banadir,Mogadishu Khada,Ceel Dheer - Tigeylow,2.0446301,45.2519086
Banadir,Mogadishu Khada,Ceel Hareeri - Maandeeq,2.063899,45.2320438
Banadir,Mogadishu Khada,Ceel Waregow - Afgooye,2.0488224,45.2538703
Banadir,Mogadishu Khada,Cifole,2.0527257,45.2667851
Banadir,Mogadishu Khada,Cifole - Hilac,2.0511564,45.2672772
Banadir,Mogadishu Khada,Cifole - Ubax,2.0513328,45.2669193
Banadir,Mogadishu Khada,Ciiltire,2.0611815,45.2480487
Banadir,Mogadishu Khada,Ciiltire,2.0619862,45.2458156
Banadir,Mogadishu Khada,Da Iyo Danyar - Buuloshaikh,2.060197,45.2547681
Banadir,Mogadishu Khada,Da Iyo Danyar - Cigoow,2.0629777,45.2548427
Banadir,Mogadishu Khada,Da Iyo Danyar - Doonburaale,2.0619305,45.2551674
Banadir,Mogadishu Khada,Da Iyo Danyar - Dulqaweyne,2.062633,45.2547441
Banadir,Mogadishu Khada,Da Iyo Danyar - Durjiif,2.062724,45.2549646
Banadir,Mogadishu Khada,Da Iyo Danyar - Rardiid,2.0620357,45.2539978
Banadir,Mogadishu Khada,Daarow - Daarow,2.0500292,45.2632558
Banadir,Mogadishu Khada,Dabdheer - Al-Naciim,2.0580399,45.2443155
Banadir,Mogadishu Khada,Dabdheer - Dabdheer2,2.0549979,45.2452485
Banadir,Mogadishu Khada,Dabdheer - Salaxow,2.0549449,45.2458629
Banadir,Mogadishu Khada,Dan Iyo Daacad - Buulo Siidow,2.0600375,45.2588534
Banadir,Mogadishu Khada,Dan Iyo Daacad - Quud Alla,2.0576204,45.2594683
Banadir,Mogadishu Khada,Dan Iyo Daacad - Shaafici,2.0602699,45.2590336
Banadir,Mogadishu Khada,Dan Iyo Daruuf,2.057716,45.2666878
Banadir,Mogadishu Khada,Dan Shacab - Furuqley,2.052236,45.238698
Banadir,Mogadishu Khada,Dan Shacab - Qoobey,2.0522042,45.2388946
Banadir,Mogadishu Khada,Dan Shacab - Sabyo,2.0521289,45.2389861
Banadir,Mogadishu Khada,Dan Wadaag,2.0652455,45.2380599
Banadir,Mogadishu Khada,Daruuro - Ayaan,2.0593288,45.2600913
Banadir,Mogadishu Khada,Daruuro - Daruuro,2.0578112,45.2621663
Banadir,Mogadishu Khada,Dauus - Cade Koofi,2.0572195,45.2594676
Banadir,Mogadishu Khada,Dayax1,2.0547533,45.2709499
Banadir,Mogadishu Khada,Deeq Barwaaqo - Cagaar Weyne,2.059042,45.2325914
Banadir,Mogadishu Khada,Deeq Rabi2 - Ceelbarwaaqo,2.0536613,45.2676136
Banadir,Mogadishu Khada,Deeq Rabi2 - Ceeljaale,2.0534682,45.2684377
Banadir,Mogadishu Khada,Deeq Rabi2 - Danwadaag,2.0534244,45.2680483
Banadir,Mogadishu Khada,Deeq Rabi2 - Dardaarow,2.0535508,45.2678293
Banadir,Mogadishu Khada,Deeq Rabi2 - Kurtunwaarey,2.0541869,45.2686827
Banadir,Mogadishu Khada,Dhuurey - Waranle,2.051511,45.240225
Banadir,Mogadishu Khada,Dobwey - Deeb Weene,2.0471326,45.2511534
Banadir,Mogadishu Khada,Dobwey - Dooyow,2.0471813,45.25116
Banadir,Mogadishu Khada,Dolaawe - Mushaani2,2.0628088,45.2506708
Banadir,Mogadishu Khada,Doofil 4,2.0551006,45.2703225
Banadir,Mogadishu Khada,Doonburaale - Saacid,2.058266,45.245862
Banadir,Mogadishu Khada,Doonyarow - Doonyarow 2,2.0648362,45.2296947
Banadir,Mogadishu Khada,Doonyarow - Eylo 2,2.0645921,45.2295693
Banadir,Mogadishu Khada,Dubaay - Bacaado,2.0610663,45.247446
Banadir,Mogadishu Khada,Dubaay - Bursaliid,2.057977,45.2475566
Banadir,Mogadishu Khada,Dubaay - Buul Doon,2.0625483,45.2504962
Banadir,Mogadishu Khada,"Dubaay - Gerigo,An",2.0628518,45.2504022
Banadir,Mogadishu Khada,Dubaay - Gumurey,2.0608944,45.2479556
Banadir,Mogadishu Khada,Dubaay - Jaala Joog,2.0585899,45.2486499
Banadir,Mogadishu Khada,Dubaay - Karoot 1,2.0593071,45.2475148
Banadir,Mogadishu Khada,Dubaay - Laab,2.0599202,45.2476039
Banadir,Mogadishu Khada,Dubaay - Luuq Jelow,2.0613914,45.2475691
Banadir,Mogadishu Khada,Dubaay - Mareerta,2.058447,45.2479556
Banadir,Mogadishu Khada,Dubaay - Nuuno,2.0602755,45.2478422
Banadir,Mogadishu Khada,Dubaay - Shuubo,2.0585953,45.2475631
Banadir,Mogadishu Khada,Dubaay - Waceysad,2.0583812,45.2485271
Banadir,Mogadishu Khada,Ducaale - Jeebeey,2.058455,45.2440512
Banadir,Mogadishu Khada,Ducale - Warweyn,2.0588114,45.2438688
Banadir,Mogadishu Khada,Duceysane - Bilkheyr4,2.0456084,45.254206
Banadir,Mogadishu Khada,Duceysane - Duceysane,2.0542807,45.2706134
Banadir,Mogadishu Khada,Duceysane - Duceysene,2.0455783,45.2542114
Banadir,Mogadishu Khada,Duceysane - Geesguud,2.0456269,45.2542451
Banadir,Mogadishu Khada,Dulmeygaag - Ceel Iidey,2.0652297,45.2303661
Banadir,Mogadishu Khada,Dulmeygaag - Nasiib,2.0656602,45.2303648
Banadir,Mogadishu Khada,Dulmidiid - Baydhabo Yarey,2.0638513,45.2544093
Banadir,Mogadishu Khada,Dulmidiid - Dulmidiid,2.0626309,45.2533963
Banadir,Mogadishu Khada,Dulmidiid - Lama Ganaane,2.0643177,45.2546607
Banadir,Mogadishu Khada,Dumaaye - Caawiye,2.0561883,45.26943
Banadir,Mogadishu Khada,Duniya - Hoodo,2.0625314,45.2312537
Banadir,Mogadishu Khada,El-Hindi - Allaha Saqiro,2.0660583,45.2358467
Banadir,Mogadishu Khada,Faradahab - Dalhis,2.0550928,45.2584273
Banadir,Mogadishu Khada,Faradahab - Durdur,2.0551557,45.2584142
Banadir,Mogadishu Khada,Faradahab - Fayobe,2.0550053,45.2583041
Banadir,Mogadishu Khada,Faradahab - Guryasamo,2.0548719,45.2583166
Banadir,Mogadishu Khada,Faradahab - Tog Jano,2.0551314,45.2583711
Banadir,Mogadishu Khada,Farey - Dalmar,2.0527299,45.2678528
Banadir,Mogadishu Khada,Farey - Farey,2.0529404,45.2684475
Banadir,Mogadishu Khada,Farey - Kheerdoon,2.0529229,45.2673143
Banadir,Mogadishu Khada,Fatxu Raxmaan - Dhiimow,2.0454872,45.2539914
Banadir,Mogadishu Khada,Feynus - Burkulan,2.0670552,45.2362679
Banadir,Mogadishu Khada,Feynus - Danoow,2.0663945,45.2376514
Banadir,Mogadishu Khada,Feynus - Dhiiqoleey,2.0669023,45.2381831
Banadir,Mogadishu Khada,Feynus - Galgows,2.0673918,45.2365512
Banadir,Mogadishu Khada,Feynus - Gurdaan,2.0669424,45.2371145
Banadir,Mogadishu Khada,Feynus - Lafoole,2.0677172,45.238204
Banadir,Mogadishu Khada,Fiqi - Aniin,2.0594329,45.2452494
Banadir,Mogadishu Khada,Fiqi - Arbowheeroow,2.0589489,45.2447814
Banadir,Mogadishu Khada,Fiqi - Beereey,2.0576498,45.246539
Banadir,Mogadishu Khada,Fiqi - Careeshleey,2.0598607,45.2451371
Banadir,Mogadishu Khada,Fiqi - Dagan,2.0604047,45.2446137
Banadir,Mogadishu Khada,Fiqi - Gobsoor,2.0602963,45.2450054
Banadir,Mogadishu Khada,Fiqi - Jaciir,2.0591927,45.2455232
Banadir,Mogadishu Khada,Fiqi - Malable,2.0588175,45.2453095
Banadir,Mogadishu Khada,Fiqi - New Sablale,2.0593868,45.2452393
Banadir,Mogadishu Khada,Fiqi - Qorof,2.0592897,45.2461802
Banadir,Mogadishu Khada,Fiqi - Xaskul,2.058764,45.2446615
Banadir,Mogadishu Khada,Fooljeex,2.0607767,45.2476433
Banadir,Mogadishu Khada,Gaashaan - Degane,2.0460896,45.255409
Banadir,Mogadishu Khada,Gaashaan - Makaran,2.0460364,45.2554406
Banadir,Mogadishu Khada,Gabyow - Idaale,2.0476079,45.251063
Banadir,Mogadishu Khada,Gabyow - Ilbed,2.0475879,45.2511008
Banadir,Mogadishu Khada,Gabyow - Maalimey,2.0471299,45.2511426
Banadir,Mogadishu Khada,Galmudug - Banaaney,2.0622127,45.2313393
Banadir,Mogadishu Khada,Ganaane,2.0664367,45.2433161
Banadir,Mogadishu Khada,Ganey - Barwaaqo2,2.0617593,45.2297961
Banadir,Mogadishu Khada,Ganey - Ganey,2.06121,45.2288516
Banadir,Mogadishu Khada,Garasweyne,2.0637661,45.2436774
Banadir,Mogadishu Khada,Gardaay,2.0668526,45.2442589
Banadir,Mogadishu Khada,Gargaar,2.0622338,45.2431201
Banadir,Mogadishu Khada,Gol Weyn - Hushmo,2.0533949,45.2597605
Banadir,Mogadishu Khada,Gol Weyn - Kifaax,2.0533404,45.259675
Banadir,Mogadishu Khada,Gom Gom - Haaruun,2.0502952,45.2548974
Banadir,Mogadishu Khada,Gondiilow - Saacid,2.055402,45.24659
Banadir,Mogadishu Khada,Goof Yarow,2.0636977,45.2270927
Banadir,Mogadishu Khada,Gudmo - Limole,2.0556048,45.2399592
Banadir,Mogadishu Khada,Gumaray,2.0617415,45.2482852
Banadir,Mogadishu Khada,Gumarey,2.0521738,45.2453345
Banadir,Mogadishu Khada,Gumeysidiid - Caraboow,2.0423236,45.2504508
Banadir,Mogadishu Khada,Gumeysidiid - Farxane,2.0427173,45.2504966
Banadir,Mogadishu Khada,Gumeysidiid - Feynuus,2.0427399,45.2504821
Banadir,Mogadishu Khada,Gumeysidiid - Gumeysidiid1,2.0422783,45.2500239
Banadir,Mogadishu Khada,Gumeysidiid - Liimoon,2.0419962,45.2501882
Banadir,Mogadishu Khada,Gumeysidiid - Muhimad,2.0417087,45.2498228
Banadir,Mogadishu Khada,Gumeysidiid - Nasiib Bundo,2.0424947,45.2498583
Banadir,Mogadishu Khada,Gumeysidiid - Quraxeey,2.0417642,45.2500981
Banadir,Mogadishu Khada,Gumeysidiid - Quryooley,2.0420452,45.2505659
Banadir,Mogadishu Khada,Gunsoor - Gunsoor,2.0606447,45.2539411
Banadir,Mogadishu Khada,Gunsoor - Towxiid,2.0603434,45.2540967
Banadir,Mogadishu Khada,Gunsoor - Xamaan,2.0602096,45.253714
Banadir,Mogadishu Khada,Gurmad,2.0619495,45.2433463
Banadir,Mogadishu Khada,Haboon,2.0556134,45.2666335
Banadir,Mogadishu Khada,Halgan,2.055034,45.2409049
Banadir,Mogadishu Khada,Halgan - Sahal,2.0691059,45.2362998
Banadir,Mogadishu Khada,Hanaan,2.0617001,45.2423999
Banadir,Mogadishu Khada,Hanaqaad,2.0619867,45.2461967
Banadir,Mogadishu Khada,Har Weyn,2.0614713,45.2477429
Banadir,Mogadishu Khada,Hareed,2.0653127,45.2436338
Banadir,Mogadishu Khada,Hawo Tako - Bidhaanle,2.0479518,45.252641
Banadir,Mogadishu Khada,Hawo Tako - Caaliyo,2.0487819,45.2540392
Banadir,Mogadishu Khada,Hawo Tako - Ow Barow,2.0473505,45.2515948
Banadir,Mogadishu Khada,Hawo Tako - Sharaf Doon,2.0477478,45.2528758
Banadir,Mogadishu Khada,Hawo Tako - Toonoole,2.0477971,45.2522284
Banadir,Mogadishu Khada,Helgan,2.0647549,45.2437106
Banadir,Mogadishu Khada,Heybaweyne,2.0606637,45.2526106
Banadir,Mogadishu Khada,Hiiraan - Danwadaag,2.068363,45.2318298
Banadir,Mogadishu Khada,Hilaac - Raaxoole,2.067568,45.2333154
Banadir,Mogadishu Khada,Hilaal,2.0591043,45.2360443
Banadir,Mogadishu Khada,Hilac,2.0620422,45.2444466
Banadir,Mogadishu Khada,Himilo,2.0642824,45.2451067
Banadir,Mogadishu Khada,Hodan - Iqra,2.0648368,45.2377276
Banadir,Mogadishu Khada,Hogol - Xamdi Ciis,2.0586643,45.2582491
Banadir,Mogadishu Khada,Hoodo - Hoodo,2.0623395,45.2433044
Banadir,Mogadishu Khada,Hoosingoow - Malable,2.0680809,45.233526
Banadir,Mogadishu Khada,Hoosweyne - Laamoole,2.0675908,45.2390192
Banadir,Mogadishu Khada,Horseed,2.0615494,45.2465311
Banadir,Mogadishu Khada,Horseed - Afar Wab Dhoobey,2.0412917,45.250399
Banadir,Mogadishu Khada,Horseed - Awdheegle,2.0413286,45.2506137
Banadir,Mogadishu Khada,Horseed - Horseed,2.0410973,45.2507872
Banadir,Mogadishu Khada,Horseed - Marti Soor,2.0411191,45.2501538
Banadir,Mogadishu Khada,Horseedka - Hareed,2.0537,45.2622196
Banadir,Mogadishu Khada,Horseedka - Horseedka Walaalaha,2.0534309,45.2625229
Banadir,Mogadishu Khada,Idaajaa,2.0651293,45.2151341
Banadir,Mogadishu Khada,Iftiin,2.0626592,45.2431389
Banadir,Mogadishu Khada,Iglan,2.0637345,45.2504441
Banadir,Mogadishu Khada,Ijaabo - Bakool,2.0580589,45.2590794
Banadir,Mogadishu Khada,Ijaabo - Hudur,2.0584405,45.2590633
Banadir,Mogadishu Khada,Ik - Hagar Diid,2.0650272,45.2439858
Banadir,Mogadishu Khada,Ik - Kabtan Naas,2.0629578,45.2428028
Banadir,Mogadishu Khada,Ik - Shaafi,2.0664471,45.243957
Banadir,Mogadishu Khada,Ikhlaas,2.0611137,45.2434791
Banadir,Mogadishu Khada,Ikhlaas - Xilyar,2.0625543,45.2491296
Banadir,Mogadishu Khada,Ikhlas - Sootaabo,2.0645617,45.2477833
Banadir,Mogadishu Khada,Ilaahan,2.0616075,45.2454734
Banadir,Mogadishu Khada,Ilbir - Barwaaqo,2.0563296,45.2695515
Banadir,Mogadishu Khada,Ilbir - Wanaag,2.0566571,45.2697619
Banadir,Mogadishu Khada,Indho Deeq - Geedole,2.0476956,45.2581928
Banadir,Mogadishu Khada,Iskaashato - Gamaasle,2.047002,45.2575721
Banadir,Mogadishu Khada,Iskaashato - Wabi Yarow,2.0465291,45.2579031
Banadir,Mogadishu Khada,Iskaashato - Xanaano,2.0474545,45.257962
Banadir,Mogadishu Khada,Ismahurto - Tawakal,2.0586288,45.2595994
Banadir,Mogadishu Khada,Isra - Abaq Weyne,2.0564359,45.246905
Banadir,Mogadishu Khada,Istaahil - Agoon Koris,2.0664539,45.2400521
Banadir,Mogadishu Khada,Istaahil - Ustaaxa,2.0659397,45.2400178
Banadir,Mogadishu Khada,Jamaame - Cumar Doon,2.062209,45.253149
Banadir,Mogadishu Khada,Jamaame - Jamaame,2.0622024,45.2532564
Banadir,Mogadishu Khada,Jambaluul,2.0579603,45.2676312
Banadir,Mogadishu Khada,Janaale - Dayah,2.0459777,45.2544719
Banadir,Mogadishu Khada,Juba - Yaanbole,2.0681841,45.230132
Banadir,Mogadishu Khada,Juba - Yaaq Dhuub,2.0686428,45.2299653
Banadir,Mogadishu Khada,Jubo - Daalo,2.060948,45.265814
Banadir,Mogadishu Khada,Kaah - Cosob,2.0580219,45.2585847
Banadir,Mogadishu Khada,Kaah - Kasmo,2.058009,45.2585878
Banadir,Mogadishu Khada,Kaah - Qureysh,2.0580227,45.2585906
Banadir,Mogadishu Khada,Kaalmoy,2.0618179,45.2481369
Banadir,Mogadishu Khada,Kaambooni - Buur Gaab,2.0531301,45.2454252
Banadir,Mogadishu Khada,Kaamil - Muhiim,2.0643193,45.2436965
Banadir,Mogadishu Khada,Kaamil - Xurmo,2.0636554,45.2435533
Banadir,Mogadishu Khada,Kamil - Jimcaale,2.0636861,45.2440069
Banadir,Mogadishu Khada,Kismayo - Bulacle,2.0453819,45.2534332
Banadir,Mogadishu Khada,Kismayo - Kulmis,2.0453837,45.253405
Banadir,Mogadishu Khada,Koofi Dheere,2.0581427,45.267296
Banadir,Mogadishu Khada,Kuhiro - Cigaal,2.0417022,45.250236
Banadir,Mogadishu Khada,Kuhiro - Urur,2.0418055,45.2505181
Banadir,Mogadishu Khada,Kulan,2.0654061,45.2441329
Banadir,Mogadishu Khada,Kulmis,2.056397,45.271985
Banadir,Mogadishu Khada,Kulmiye,2.06206,45.245125
Banadir,Mogadishu Khada,Kulmiye Weyne - Basro 2,2.0511824,45.23915
Banadir,Mogadishu Khada,Kun Yasiin - Bulosarmaan,2.0630155,45.2540367
Banadir,Mogadishu Khada,Kun Yasiin - Bulotaakoy,2.0630306,45.2537448
Banadir,Mogadishu Khada,Kun Yasiin - Goloosho,2.0628172,45.254051
Banadir,Mogadishu Khada,Kun Yasiin - Gumurey,2.0627973,45.2541063
Banadir,Mogadishu Khada,Kun Yasiin - Sagal Ashuun,2.0630877,45.253988
Banadir,Mogadishu Khada,Kun Yasiin - War Gaab,2.0627882,45.2539008
Banadir,Mogadishu Khada,Kuntuwarey - Al-Mustaqim,2.056953,45.2631089
Banadir,Mogadishu Khada,Kuntuwarey - Bulacle,2.0568319,45.2630461
Banadir,Mogadishu Khada,Kuntuwarey - Bulo Warbo,2.0568878,45.2630756
Banadir,Mogadishu Khada,Kuntuwarey - Buur Bishar,2.0568973,45.2630724
Banadir,Mogadishu Khada,Kuntuwarey - Rasmi,2.0569633,45.2630468
Banadir,Mogadishu Khada,Kuntuwarey - Rasumaal,2.0568939,45.2630375
Banadir,Mogadishu Khada,Kuntuwarey - Sablale,2.056952,45.263115
Banadir,Mogadishu Khada,Libanta Qoryoley 3 - Wadajir,2.069137,45.2361258
Banadir,Mogadishu Khada,Libido Jibaax - Dalaad,2.0514259,45.2412895
Banadir,Mogadishu Khada,Liibaan - Daadaale,2.0520756,45.2691545
Banadir,Mogadishu Khada,Liibaan - Liibaan,2.0527973,45.2696698
Banadir,Mogadishu Khada,Liibaan - Matabaan,2.0524772,45.2689859
Banadir,Mogadishu Khada,Maajid - Cimraan,2.0464059,45.2497126
Banadir,Mogadishu Khada,Maajid - Dameerale,2.046077,45.2498903
Banadir,Mogadishu Khada,Maajid - Intisaam,2.0464899,45.2499554
Banadir,Mogadishu Khada,Maajid - Maxfuud,2.0465956,45.2498474
Banadir,Mogadishu Khada,Maajid - Muscab,2.0457029,45.2497714
Banadir,Mogadishu Khada,Maajid - Muucaad,2.0458712,45.2498738
Banadir,Mogadishu Khada,Maajid - Quleteen,2.0458472,45.2496619
Banadir,Mogadishu Khada,Maajid - Raaxo,2.0465913,45.2498538
Banadir,Mogadishu Khada,Maajid - Raqda,2.0461716,45.2498647
Banadir,Mogadishu Khada,Maajid - Umeyma,2.0459781,45.2495442
Banadir,Mogadishu Khada,Maakoow - Bangalo,2.0671402,45.2328984
Banadir,Mogadishu Khada,Maandeeq - Bushro,2.0659973,45.238726
Banadir,Mogadishu Khada,Maandeeq - Farxaan,2.066038,45.2394548
Banadir,Mogadishu Khada,Maaya Murug - Koofi,2.0538237,45.26589
Banadir,Mogadishu Khada,Maayo Fuul,2.0655991,45.2382002
Banadir,Mogadishu Khada,Maciin Alle - Baladul Amiin,2.0602575,45.2597349
Banadir,Mogadishu Khada,Maciin Alle - Daldhis,2.0602004,45.2595158
Banadir,Mogadishu Khada,Maciin Alle - Maciin Alle,2.0604296,45.2594847
Banadir,Mogadishu Khada,Maciin Alle - Maqsuud,2.0599729,45.2589899
Banadir,Mogadishu Khada,Macqul,2.0630451,45.2449505
Banadir,Mogadishu Khada,Madooy,2.0611739,45.2234148
Banadir,Mogadishu Khada,Mahad Alle - Mahad Alle,2.0554377,45.266961
Banadir,Mogadishu Khada,Mahad Alle - Qansaxdheere,2.0550825,45.2664778
Banadir,Mogadishu Khada,Mahadaay - Lafoole,2.0667938,45.2329031
Banadir,Mogadishu Khada,Mamuus - Kadiye,2.054385,45.2440318
Banadir,Mogadishu Khada,Mamuus - Samaan,2.0548707,45.2442216
Banadir,Mogadishu Khada,Mandeq - Mandeq,2.0655433,45.24396
Banadir,Mogadishu Khada,Maryama - Dahable,2.0664087,45.2367162
Banadir,Mogadishu Khada,Maryama - Gololdhere,2.0667675,45.236874
Banadir,Mogadishu Khada,Masha Allah - Bishaar,2.0603687,45.256143
Banadir,Mogadishu Khada,Masha Allah - Dogaab,2.0604761,45.2563104
Banadir,Mogadishu Khada,Masha Allah - Macalin Rombe,2.0606308,45.2552906
Banadir,Mogadishu Khada,Masha Allah - Masha Allah,2.0603961,45.2562119
Banadir,Mogadishu Khada,Masha Allah - Nawaal,2.0608825,45.2559051
Banadir,Mogadishu Khada,Muntaas - Hoodo,2.0625115,45.2314078
Banadir,Mogadishu Khada,Muruqmaal,2.0575818,45.2654688
Banadir,Mogadishu Khada,Musbaax - Hoodo2,2.0591338,45.231561
Banadir,Mogadishu Khada,Mustaqiim - Balad Amin,2.0673606,45.2290292
Banadir,Mogadishu Khada,Mustaqiim - Buulo Xaaji,2.0664243,45.2289269
Banadir,Mogadishu Khada,Mustaqiim - Buur Fuulo,2.0669085,45.2287616
Banadir,Mogadishu Khada,Mustaqim,2.0613745,45.2431807
Banadir,Mogadishu Khada,Nasib Wanag - Cirmar,2.0630806,45.2534389
Banadir,Mogadishu Khada,Nasiib - Waraxma,2.064292,45.239657
Banadir,Mogadishu Khada,Nasri,2.0662932,45.2445297
Banadir,Mogadishu Khada,Nasridoon,2.0642731,45.2426661
Banadir,Mogadishu Khada,Nasru Diin,2.0610386,45.2233946
Banadir,Mogadishu Khada,Nimatu Rabi - Alkheyr,2.0468423,45.2512118
Banadir,Mogadishu Khada,Nimatu Rabi - Boorama,2.0462633,45.2507288
Banadir,Mogadishu Khada,Nimatu Rabi - Keysaney,2.0459901,45.2512642
Banadir,Mogadishu Khada,Nimatu Rabi - Miskiin Alle,2.0467406,45.2512594
Banadir,Mogadishu Khada,Nimatu Rabi - Naxariis,2.0468658,45.2506421
Banadir,Mogadishu Khada,Nimatu Rabi - Tanziil,2.0462806,45.2511531
Banadir,Mogadishu Khada,Nogoob,2.0660368,45.233949
Banadir,Mogadishu Khada,Nuro 2 - Carafad,2.0590939,45.2433665
Banadir,Mogadishu Khada,Qeeru Raasiqiin - Buurgaabo,2.0543885,45.2696856
Banadir,Mogadishu Khada,Qeeru Raasiqiin - Daarusalaam,2.0537726,45.2690701
Banadir,Mogadishu Khada,Qeeru Raasiqiin - Ibraahiim,2.0544572,45.2694142
Banadir,Mogadishu Khada,Qeeru Raasiqiin - Tiitinleey,2.0533037,45.2686616
Banadir,Mogadishu Khada,Qeeru Raasiqiin - Wargaduudo,2.053689,45.2695775
Banadir,Mogadishu Khada,Qeeru Raasiqiin - Xamdi,2.0539945,45.2693632
Banadir,Mogadishu Khada,Qulunquul,2.055776,45.2719674
Banadir,Mogadishu Khada,Raja'Alle - Asma,2.05668,45.2438
Banadir,Mogadishu Khada,Raja'Alle - Bubal,2.0564386,45.2438384
Banadir,Mogadishu Khada,Raja'Alle - Dulmar,2.0563286,45.2436997
Banadir,Mogadishu Khada,Raja'Alle - La'Iilaaf,2.0565302,45.2436238
Banadir,Mogadishu Khada,Ramadaan - Horyaal,2.0581767,45.2320949
Banadir,Mogadishu Khada,Raxma - Al Raxma,2.0660477,45.2398181
Banadir,Mogadishu Khada,Rees Barwaaqo - Hareeri Miirshe,2.054329,45.2430452
Banadir,Mogadishu Khada,Riyaan - Iqro,2.0525802,45.2462875
Banadir,Mogadishu Khada,Riyaan - Saafi,2.0523121,45.2463159
Banadir,Mogadishu Khada,Roda - Mustaqbal,2.0609816,45.2529811
Banadir,Mogadishu Khada,Rooble - Barqad,2.0514139,45.2587219
Banadir,Mogadishu Khada,Rooble - Halgan,2.0510607,45.2579226
Banadir,Mogadishu Khada,Rooble - Iftin,2.0513722,45.2585196
Banadir,Mogadishu Khada,Rooble - Kaah,2.0510868,45.2576022
Banadir,Mogadishu Khada,Rooble - Tarash,2.0518006,45.2592139
Banadir,Mogadishu Khada,Roowey Gaduud,2.0651293,45.2151341
Banadir,Mogadishu Khada,Saabir2 - Zaaid,2.0458986,45.2502693
Banadir,Mogadishu Khada,Saacid - Burfule,2.0590807,45.2463286
Banadir,Mogadishu Khada,Saacid - Carishley,2.058293,45.2482842
Banadir,Mogadishu Khada,Saacid - Dameerale,2.0584176,45.246276
Banadir,Mogadishu Khada,Saacid - Irdey,2.0587089,45.2458174
Banadir,Mogadishu Khada,Saacid - Jerow,2.059122,45.2438048
Banadir,Mogadishu Khada,Saacid - Kurman,2.05738,45.24589
Banadir,Mogadishu Khada,Saacid - Maleyley,2.059401,45.2438787
Banadir,Mogadishu Khada,Saacid - Mareerta,2.0588576,45.2483305
Banadir,Mogadishu Khada,Saacid - Rabi Tuug,2.0582781,45.2462288
Banadir,Mogadishu Khada,Saacid - Rooble,2.0584218,45.2458299
Banadir,Mogadishu Khada,Saacid - Salax Yaale,2.0587355,45.2490059
Banadir,Mogadishu Khada,Saacid - Tugaare,2.0569341,45.2451445
Banadir,Mogadishu Khada,Saacid - Wobiyare,2.0591642,45.2458914
Banadir,Mogadishu Khada,Saadaq - Al-Nasri,2.0497427,45.2568917
Banadir,Mogadishu Khada,Saafi - Dooy,2.0531955,45.2694234
Banadir,Mogadishu Khada,Saaxil,2.0614368,45.2456258
Banadir,Mogadishu Khada,Sabiib,2.0651293,45.2151341
Banadir,Mogadishu Khada,Sabir - Fatxul Iilman,2.0594975,45.2547618
Banadir,Mogadishu Khada,Sabir - Sabir Yare,2.05952,45.2548678
Banadir,Mogadishu Khada,Sabir - Waneey,2.059503,45.2547903
Banadir,Mogadishu Khada,Sablaale,2.0609047,45.2466756
Banadir,Mogadishu Khada,Sadiima - Dabyanbo,2.0525075,45.2457354
Banadir,Mogadishu Khada,Safaari,2.0564363,45.2424707
Banadir,Mogadishu Khada,Safiina - Maduulow,2.0639742,45.2253091
Banadir,Mogadishu Khada,Safina,2.0651293,45.2151341
Banadir,Mogadishu Khada,Sahal,2.0629232,45.2433506
Banadir,Mogadishu Khada,Salmaan,2.0580281,45.2666322
Banadir,Mogadishu Khada,Samadeeq - Gudmo,2.055824,45.2404471
Banadir,Mogadishu Khada,Samadoon,2.062562,45.2433317
Banadir,Mogadishu Khada,Samatalis - Bula Sokor,2.0511248,45.258577
Banadir,Mogadishu Khada,Samodeeq,2.0625689,45.2452966
Banadir,Mogadishu Khada,Sarmaan - Bilkher,2.0617505,45.2578545
Banadir,Mogadishu Khada,Sarmaan - Bushra,2.0612318,45.2581088
Banadir,Mogadishu Khada,Sarmaan - Dacad,2.0611457,45.258336
Banadir,Mogadishu Khada,Sarmaan - Imaan,2.0615238,45.2578598
Banadir,Mogadishu Khada,Sarmandher,2.0691252,45.226898
Banadir,Mogadishu Khada,Sharaf - Farxane,2.0666605,45.2488579
Banadir,Mogadishu Khada,Sharrey,2.0663763,45.2446598
Banadir,Mogadishu Khada,Shiilow - Moor Gaawey,2.0572383,45.243654
Banadir,Mogadishu Khada,Shiniile - Buulo Gaduud,2.0600935,45.2434731
Banadir,Mogadishu Khada,Shiniile - Ceelbaay,2.0603325,45.2432031
Banadir,Mogadishu Khada,Shiniile - Tugarey,2.0615094,45.2439274
Banadir,Mogadishu Khada,Somali Uron - Galhagog,2.0443914,45.2501468
Banadir,Mogadishu Khada,Somali Uron - Iyey,2.0444017,45.2501395
Banadir,Mogadishu Khada,Somali Uron - Kilo Sabca,2.0442813,45.2502794
Banadir,Mogadishu Khada,Somali Uron - Majabto,2.0443613,45.2501294
Banadir,Mogadishu Khada,Somali Uron - Musbaax,2.0444005,45.2501666
Banadir,Mogadishu Khada,Somali Uron - Musbaax 2,2.0443857,45.2502284
Banadir,Mogadishu Khada,Somali Weyn - Gaduudow,2.0435782,45.2532159
Banadir,Mogadishu Khada,Talo Rabi - Alfarax,2.0430115,45.2498454
Banadir,Mogadishu Khada,Talo Rabi - Muruqmaal,2.0432452,45.2500548
Banadir,Mogadishu Khada,Talo Rabi - Shalaqben,2.0430152,45.2500464
Banadir,Mogadishu Khada,Talo Wadaag - Al Nasri,2.0523471,45.2441226
Banadir,Mogadishu Khada,Tawakal - Tawakal Dugsiloow,2.0458575,45.2497418
Banadir,Mogadishu Khada,Tawakal - Tawakal Safaari,2.0459334,45.2502194
Banadir,Mogadishu Khada,Tawakal - Tawakalxiroow,2.0462268,45.2506782
Banadir,Mogadishu Khada,Waaf,2.0556552,45.2673101
Banadir,Mogadishu Khada,Wabiyow,2.0610642,45.2461389
Banadir,Mogadishu Khada,Wal Waal - Quuri,2.0661822,45.2356003
Banadir,Mogadishu Khada,Walaal Macaan - Ahlu Kheer,2.0526196,45.2593006
Banadir,Mogadishu Khada,Walaal Macaan - Biyakubaris,2.0528636,45.2586864
Banadir,Mogadishu Khada,Walaal Macaan - Ilintire,2.0535706,45.2583218
Banadir,Mogadishu Khada,Walaalaha - Bilan2,2.0533594,45.2580345
Banadir,Mogadishu Khada,Walaalaha - Lawiile,2.0532138,45.2578056
Banadir,Mogadishu Khada,Walaalo Isjacel - Qurac Mudul,2.0518445,45.2570795
Banadir,Mogadishu Khada,Walaalo Isjecel - Mahadho,2.0523595,45.2579997
Banadir,Mogadishu Khada,Walwaltire - Goolool Dheere,2.0619982,45.2263305
Banadir,Mogadishu Khada,Waranlle - Saabarin,2.0637244,45.2267068
Banadir,Mogadishu Khada,Waranlle - Zamzam,2.0646011,45.2276779
Banadir,Mogadishu Khada,Xaaji Kusow - Doon Idle,2.0416847,45.2504809
Banadir,Mogadishu Khada,Xaaji Kusow - Far Keerow,2.041439,45.2503521
Banadir,Mogadishu Khada,Xanaano - Shiniile,2.0517618,45.2590236
Banadir,Mogadishu Khada,Xaqdhawr - Baby Xaaw,2.058688,45.2466504
Banadir,Mogadishu Khada,Xaqdhawr - Beeyxaaw,2.0584404,45.2467216
Banadir,Mogadishu Khada,Xaqdhawr - Buqaari,2.0593267,45.2467367
Banadir,Mogadishu Khada,Xaqdhawr - Cooflawe,2.058867,45.2464396
Banadir,Mogadishu Khada,Xaqdhawr - Dulqaad,2.0571661,45.2469876
Banadir,Mogadishu Khada,Xaqdhawr - Erile,2.0576517,45.2491077
Banadir,Mogadishu Khada,Xaqdhawr - Fool Jeex,2.0578542,45.2483504
Banadir,Mogadishu Khada,Xaqdhawr - Garowlaay,2.0579597,45.2472022
Banadir,Mogadishu Khada,Xaqdhawr - Gumaysdiid,2.0586977,45.2464351
Banadir,Mogadishu Khada,Xaqdhawr - Haabsho,2.05741,45.2473633
Banadir,Mogadishu Khada,Xaqdhawr - Iidaale,2.0582368,45.247257
Banadir,Mogadishu Khada,Xaqdhawr - Janaale,2.0592787,45.2465326
Banadir,Mogadishu Khada,Xaqdhawr - Muruqmaal,2.0576917,45.2473933
Banadir,Mogadishu Khada,Xaqdhawr - Qodqod,2.0595588,45.2459703
Banadir,Mogadishu Khada,Xaqdhawr - Qoraxey,2.05814,45.248785
Banadir,Mogadishu Khada,Xaqdhawr - Seeska,2.0593427,45.2469639
Banadir,Mogadishu Khada,Xaqdhawr - Xalis,2.0610478,45.2466057
Banadir,Mogadishu Khada,Xaqdhawr - Xamdi,2.0607716,45.2468185
Banadir,Mogadishu Khada,Xariir - Berlula,2.0595164,45.2607189
Banadir,Mogadishu Khada,Xariir - Xariir,2.0592676,45.2600934
Banadir,Mogadishu Khada,Xidig,2.0626135,45.2429902
Banadir,Mogadishu Khada,Xidigoole,2.0562564,45.2677104
Banadir,Mogadishu Khada,Xiis - Xiis,2.0552793,45.2589649
Banadir,Mogadishu Khada,Xogol - Xarago,2.0583721,45.2581909
Banadir,Mogadishu Khada,Xoogsade,2.0573513,45.267283
Banadir,Mogadishu Khada,Xoogyare - Derisurone,2.0532614,45.2598623
Banadir,Mogadishu Khada,Yaanboole,2.0591652,45.2473793
Banadir,Mogadishu Khada,Yaqle - Dhongolow,2.0513461,45.257125
Togdheer,Owdweyne,Balli Yuusuf,8.772306123,44.93945078
Togdheer,Owdweyne,Cabdi Faarax,9.185710012,44.98632642
Togdheer,Owdweyne,Cali Cawad,8.84430945,44.78446241
Togdheer,Owdweyne,Cawaale Aadan,8.991695933,44.9916433
Togdheer,Owdweyne,Dhooba Wayne / Dhooba-Wayne,9.319405959,44.85928666
Togdheer,Owdweyne,Girni,9.795922925,45.10486675
Togdheer,Owdweyne,Gocondhaale,8.695675966,44.92972273
Togdheer,Owdweyne,Khaatumo / Raydal Khaatumo,8.667600283,45.01438325
Togdheer,Owdweyne,Qunyar Dega / Hawlwadaag/ Qunyar Dega,9.407805841,45.05869233
Togdheer,Owdweyne,Xaaji Saalax A,8.594939676,45.24463139
Togdheer,Owdweyne,Xaaji Saalax B,8.597478152,45.2411786
Togdheer,Owdweyne,Xafad Somal / Xaafad Soomaal,9.410481125,45.06604243
Bay,Qansax Dheere,Abag-Deerey,2.8758589,43.0118889
Bay,Qansax Dheere,Abbey,2.8767546,42.9996673
Bay,Qansax Dheere,Al-Amin,2.8667754,43.0063354
Bay,Qansax Dheere,Al-Cadaala,2.8759045,43.0086672
Bay,Qansax Dheere,Aliyow Mad Araale,2.8762885,43.0119438
Bay,Qansax Dheere,Badbaado,2.8677632,43.005979
Bay,Qansax Dheere,Bandhato,2.8753251,43.0110908
Bay,Qansax Dheere,Busley,2.8750384,43.0114094
Bay,Qansax Dheere,Buula Dhato,2.8749726,43.0102966
Bay,Qansax Dheere,Buulo Abag,2.8783783,43.0074198
Bay,Qansax Dheere,Dhershenkuus,2.8763086,43.0029265
Bay,Qansax Dheere,Diinsoor,2.8682524,42.9996468
Bay,Qansax Dheere,Dooday,2.8669493,43.0070841
Bay,Qansax Dheere,Esow,2.8777923,43.0125853
Bay,Qansax Dheere,Gedisoy,2.8730393,43.0097537
Bay,Qansax Dheere,Hareeri-Jiroon,2.8659863,42.9982165
Bay,Qansax Dheere,Hubbey,2.8748794,43.011824
Bay,Qansax Dheere,Maanyow,2.8632936,43.0031114
Bay,Qansax Dheere,Makuudo,2.8824726,42.9946484
Bay,Qansax Dheere,Mubaarak,2.8676752,43.0076497
Bay,Qansax Dheere,Mukubow,2.8781574,43.0122711
Bay,Qansax Dheere,October,2.8784109,43.0096093
Bay,Qansax Dheere,Shugaay,2.8691052,42.9994946
Bay,Qansax Dheere,Tirki,2.8745442,43.0111415
Bay,Qansax Dheere,Xaafito,2.8759716,43.0045451
Bari,Qardho,Ayaan,9.5037175,49.0807247
Bari,Qardho,Buula Qodax,9.4822284,49.0773348
Bari,Qardho,Faay,9.50866,49.0793124
Bari,Qardho,Garaash,9.5073964,49.0892048
Bari,Qardho,Harmuud,9.4778979,49.0791333
Bari,Qardho,Jamacada,9.4755073,49.0793952
Bari,Qardho,New,9.4844258,49.0761094
Bari,Qardho,Shabeele,9.4762471,49.0785414
Bari,Qardho,Shimbiraale,9.5070418,49.0921071
Bari,Qardho,Tawakal,9.4766528,49.0762825
Bari,Qardho,Warsan,9.5064338,49.0812156
Bari,Qardho,Xorgoble,9.518001,49.0796329
Togdheer,Sheikh,Beeyo Macaan,10.06963994,45.84654974
Togdheer,Sheikh,Gidhays,9.94909135,45.46077265
Togdheer,Sheikh,Kulmiye,9.982670475,44.95325205
Sool,Taleek,Daawad,9.1449989,48.4228115
Sool,Taleek,Doofaarqod,9.1086372,48.4265098
Sool,Taleek,Falaat,9.1482293,48.4204814
Sool,Taleek,Sarmaanyo,9.152681,48.4226469
Bakool,Waajid,Al Amiin,3.8099009,43.2531922
Bakool,Waajid,Al-Baraka,3.8083899,43.2337745
Bakool,Waajid,Bulsho,3.8183021,43.2501594
Bakool,Waajid,Buurdhuxunle,3.8103204,43.2468611
Bakool,Waajid,Elboon,3.8100296,43.2461995
Bakool,Waajid,Elduur,3.8097691,43.2526039
Bakool,Waajid,Himiro,3.7997852,43.2423494
Bakool,Waajid,Jadiid,3.8002013,43.2510126
Bakool,Waajid,Kulmiye,3.8099009,43.2531922
Bakool,Waajid,Mirifle,3.7971676,43.248376
Bakool,Waajid,Mubarak,3.8158563,43.2514195
Bakool,Waajid,Tawakal,3.8101195,43.2462566
Bakool,Waajid,Tuwade,3.8150486,43.2385028
Lower Shabelle,Wanla Weyn,Cagaboorey,2.6269239,44.8879904
Lower Shabelle,Wanla Weyn,Kaamka Shanta Kulan,2.6170965,44.8868397
Sool,Xudun,Darayo Geeso Wayn,9.062206161,47.56021547
Sool,Xudun,Gorofleey,9.1354665,47.7521554
Sool,Xudun,Siiga Dheer,9.149665174,47.61781449
Sool,Xudun,Wakxin,9.318290859,47.60677958
Sool,Xudun,Xudun/ Shacab / Xudun/Shacab,9.153365034,47.47451013
Bakool,Xudur,Abag-Beday,4.1181138,43.8982812
Bakool,Xudur,Abal,4.1150064,43.887469
Bakool,Xudur,Afgooye,4.1192954,43.877191
Bakool,Xudur,Arshaam,4.1161317,43.8831667
Bakool,Xudur,Ato,4.1150779,43.8828753
Bakool,Xudur,Bakal,4.1131517,43.883715
Bakool,Xudur,Bisigle,4.1146472,43.8824085
Bakool,Xudur,Ceel Cedow ,4.1128038,43.885914
Bakool,Xudur,Dhurshenshibele,4.1231525,43.8781054
Bakool,Xudur,Doon Feylahow ,4.1229967,43.8777196
Bakool,Xudur,Doora Weera ,4.1135754,43.8841828
Bakool,Xudur,El Fiin ,4.1137768,43.8835498
Bakool,Xudur,Elberde,4.1176792,43.8826908
Bakool,Xudur,Emedkoorey,4.1194393,43.8971324
Bakool,Xudur,Fadhigaale,4.1223329,43.8772586
Bakool,Xudur,Farak,4.1194262,43.8955686
Bakool,Xudur,Farawiley,4.1133159,43.883683
Bakool,Xudur,Garasweyne,4.1172067,43.8830938
Bakool,Xudur,Garsaaley,4.1142868,43.8834337
Bakool,Xudur,Gasile ,4.113927,43.88377
Bakool,Xudur,Hibow,4.1233898,43.8816514
Bakool,Xudur,Imilow ,4.114292,43.8838372
Bakool,Xudur,Koonfur Bari,4.1138821,43.8954627
Bakool,Xudur,Logu Bogay ,4.1136677,43.8834947
Bakool,Xudur,Madaxwarabe,4.12095,43.8974363
Bakool,Xudur,Madooda ,4.112341,43.885996
Bakool,Xudur,Mogi Maalag,4.1160325,43.8820432
Bakool,Xudur,Moorishillinle,4.12674876,43.89167935
Bakool,Xudur,Morgaabey ,4.11321,43.883285
Bakool,Xudur,Orogley ,4.1132353,43.8843209
Bakool,Xudur,Qurahle,4.1156372,43.8802759
Bakool,Xudur,Rakaale ,4.1211777,43.877108
Bakool,Xudur,Ruees ,4.1131573,43.8828188
Bakool,Xudur,Warshira,4.1168117,43.883625
Bakool,Xudur,Yowkoyow,4.1152614,43.8949222
Awdal,Zeylac,Habaas,10.43522615,42.80990433
